Park Name,County,Park Identifier,Park Address,city,zipcode,phone number,Fire Authority,Jurisdiction,MH Spaces,RV Lots W/Drains,RV Lots W/O Drains,Operated by
ALLGEYER PARK,LOS ANGELES,19-0005-MP,"2920 ALLGEYER,  EL MONTE , 91733", EL MONTE,91733, (310) 676-0663,"COUNTY OF LOS ANGELES, 5823 RICKENBACKER RD., COMMERCE, CA 90040","HCD - SOUTHERN AREA OFFICE, 3737 MAIN ST 400, RIVERSIDE, CA 92501",21,0,0,"FRANK, DORIS, 2239 PARKWAY DR #7, EL MONTE, CA 91733"
GUILLEN TP,LOS ANGELES,19-0025-MP,"1240 NADEAU ST,  LOS ANGELES , 90001", LOS ANGELES,90001, (213) 585-8828,"HCD - SOUTHERN AREA OFFICE, 3737 MAIN ST 400, RIVERSIDE, CA 92501","HCD - SOUTHERN AREA OFFICE, 3737 MAIN ST 400, RIVERSIDE, CA 92501",15,0,0,"GUILLEN, JOSE, C/O GUILLEN TRAILER PARK 1240 NADEAU ST, LOS ANGELES, CA 90001"
AVALON TP,LOS ANGELES,19-0047-MP,"1832 N DURFEE,  S EL MONTE , 91733", S EL MONTE,91733, (805) 944-5916,"COUNTY OF LOS ANGELES, 5823 RICKENBACKER RD., COMMERCE, CA 90040","HCD - SOUTHERN AREA OFFICE, 3737 MAIN ST 400, RIVERSIDE, CA 92501",20,0,0,"GRIEGORIAN, L, 3855 LEMON AVE E140, WALNUT, CA 91789"
RES MOR TP,LOS ANGELES,19-0056-MP,"13651 GARVEY AVE,  BALDWIN PARK , 91706", BALDWIN PARK,91706, (310) 920-8148,"null, null","HCD - SOUTHERN AREA OFFICE, 3737 MAIN ST 400, RIVERSIDE, CA 92501",16,0,0,"LEE WAYNE & CO, 15865B GALE AVE SUITE # 428, CITY OF INDUSTRY, CA 91745"
BLUE BIRD TP,LOS ANGELES,19-0067-MP,"8827 E ARTESIA BLVD,  BELLFLOWER , 90706", BELLFLOWER,90706, (310) 633-2955,"COUNTY OF LOS ANGELES, 5823 RICKENBACKER RD., COMMERCE, CA 90040","HCD - SOUTHERN AREA OFFICE, 3737 MAIN ST 400, RIVERSIDE, CA 92501",11,0,3,"BOGGS, VIRGINIA, PO BOX 787, BELLFLOWER, CA 90706"
BLUE BONNET TP,LOS ANGELES,19-0068-MP,"4432 MANHATTAN BEACH BLVD,  LAWNDALE , 90260", LAWNDALE,90260, (310) 545-7498,"COUNTY OF LOS ANGELES, 5823 RICKENBACKER RD., COMMERCE, CA 90040","HCD - SOUTHERN AREA OFFICE, 3737 MAIN ST 400, RIVERSIDE, CA 92501",11,0,0,"LAWNDALE REDEVELOPMENT AGENCY, 14717 BURIN AVE, LAWNDALE, CA 90260"
VAGABOND HAVEN TP,LOS ANGELES,19-0104-MP,"3005 BIG DALTON,  BALDWIN PARK , 91706", BALDWIN PARK,91706, (818) 284-0958,"COUNTY OF LOS ANGELES, 5823 RICKENBACKER RD., COMMERCE, CA 90040","HCD - SOUTHERN AREA OFFICE, 3737 MAIN ST 400, RIVERSIDE, CA 92501",20,0,0,"DEGREVE, MAURICE, MARIE DEGREVE 1828 S VEGA ST, ALHAMBRA, CA 91801"
HOLIDAY TRAILER,LOS ANGELES,19-0114-MP,"11013 PRAIRIE,  INGLEWOOD , 90305", INGLEWOOD,90305, (310) 671-8405,"null, null","HCD - SOUTHERN AREA OFFICE, 3737 MAIN ST 400, RIVERSIDE, CA 92501",,,,
CLARA TRAILER CT,LOS ANGELES,19-0119-MP,"5614 CLARA AVE,  BELL GARDENS , 90201", BELL GARDENS,90201, (213) 722-1061,"COUNTY OF LOS ANGELES, 5823 RICKENBACKER RD., COMMERCE, CA 90040","HCD - SOUTHERN AREA OFFICE, 3737 MAIN ST 400, RIVERSIDE, CA 92501",19,0,0,"VARTANIAN, SOOKIE, 620 N 19TH ST, MONTEBELLO, CA 90640"
ASHLEYS TP,LOS ANGELES,19-0155-MP,"4309 CARLIN AVE,  LYNWOOD , 90262", LYNWOOD,90262, (805) 944-3434,"COUNTY OF LOS ANGELES, 5823 RICKENBACKER RD., COMMERCE, CA 90040","LYNWOOD BUILDING DEPARTMENT, MOBILEHOME PARKS PROGRAM, 11330 BULLIS ROAD, LYNWOOD, CA 90262",22,0,0,"CARLIN AVENUE VILLAGE, LLC, 3300 IRVINE AVENUE, NEWPORT BEACH, CA 92660"
MOCHEL TP,LOS ANGELES,19-0156-MP,"44647 1/2 SIERRA HWY ,  LANCASTER , 93534", LANCASTER,93534, (805) 944-3434,"null, null","HCD - SOUTHERN AREA OFFICE, 3737 MAIN ST 400, RIVERSIDE, CA 92501",18,0,0,"MOCHEL FAMILY TRUST, 45508 KINGTREE, LANCASTER, CA 93534"
DREAMLAND AUTO CT\TP,LOS ANGELES,19-0175-MP,"14353 E GARVEY AVE,  BALDWIN PARK , 91706", BALDWIN PARK,91706, (818) 858-9044,"HCD - SOUTHERN AREA OFFICE, 3737 MAIN ST 400, RIVERSIDE, CA 92501","HCD - SOUTHERN AREA OFFICE, 3737 MAIN ST 400, RIVERSIDE, CA 92501",12,0,0,"SONI, JASPAL, 16138 ELZA DR, HACIENDA HEIGHTS, CA 91745"
DUARTE TRAILER CT,LOS ANGELES,19-0177-MP,"1437 E HUNTINGTON DR,  DUARTE , 91008", DUARTE,91008, (818) 858-9044,"null, null","HCD - SOUTHERN AREA OFFICE, 3737 MAIN ST 400, RIVERSIDE, CA 92501",28,0,0,"OATMAN, MICHELLE, 6537 COUNTRY CLUB DR, LA VERNE, CA 91750"
CENTURY TRAILER PARK,LOS ANGELES,19-0186-MP,"3930 W CENTURY BLVD,  INGLEWOOD , 90304", INGLEWOOD,90304, (310) 673-5093,"COUNTY OF LOS ANGELES, 5823 RICKENBACKER RD., COMMERCE, CA 90040","HCD - SOUTHERN AREA OFFICE, 3737 MAIN ST 400, RIVERSIDE, CA 92501",24,0,0,"CITY OF INGLEWOOD, ONE MANCHESTER BLVD, INGLEWOOD, CA 90301"
FRIENDLY TP,LOS ANGELES,19-0233-MP,"1226 W IMPERIAL HWY,  LOS ANGELES , 90044", LOS ANGELES,90044, (310) 547-1374,"HCD - SOUTHERN AREA OFFICE, 3737 MAIN ST 400, RIVERSIDE, CA 92501","HCD - SOUTHERN AREA OFFICE, 3737 MAIN ST 400, RIVERSIDE, CA 92501",40,0,0,"PUENTE, PATRICIA, PO BOX 2656, SAN PEDRO, CA 90731"
GARVEY TRAILER CT,LOS ANGELES,19-0245-MP,"8353 E GARVEY,  ROSEMEAD , 91770", ROSEMEAD,91770,,"COUNTY OF LOS ANGELES, 5823 RICKENBACKER RD., COMMERCE, CA 90040","HCD - SOUTHERN AREA OFFICE, 3737 MAIN ST 400, RIVERSIDE, CA 92501",6,0,0,"WANG, JAMES, 8399 E GARVEY AVE, ROSEMEAD, CA 91770"
GREELEY MOBILE LODGE,LOS ANGELES,19-0265-MP,"8111 E GARVEY,  ROSEMEAD , 91770", ROSEMEAD,91770,,"COUNTY OF LOS ANGELES, 5823 RICKENBACKER RD., COMMERCE, CA 90040","HCD - SOUTHERN AREA OFFICE, 3737 MAIN ST 400, RIVERSIDE, CA 92501",20,12,0,"CB & A INVESTMENTS, LLC, 227 W VALLEY BLVD #308, SAN GABRIEL, CA 91776"
WESTERN MOBILE GARDENS,LOS ANGELES,19-0273-MP,"1737 W HOLT AVE.,  POMONA , 91768", POMONA,91768, (818) 344-0356,"COUNTY OF LOS ANGELES, 5823 RICKENBACKER RD., COMMERCE, CA 90040","HCD - SOUTHERN AREA OFFICE, 3737 MAIN ST 400, RIVERSIDE, CA 92501",41,0,0,"SHIELD OF FAITH ECONOMIC DEVELOPMENT, P. O. BOX 17930, ENCINO, CA 91416"
HARMONY LANE TRAILER CT,LOS ANGELES,19-0279-MP,"7533 E GARVEY,  ROSEMEAD , 91770", ROSEMEAD,91770,,"COUNTY OF LOS ANGELES, 5823 RICKENBACKER RD., COMMERCE, CA 90040","HCD - SOUTHERN AREA OFFICE, 3737 MAIN ST 400, RIVERSIDE, CA 92501",33,0,0,"YOUNG, C, 543 PROSPECT ST., SAN CARLOS, CA 94070"
HOVER TP,LOS ANGELES,19-0306-MP,"319 S HINDRY AVE,  INGLEWOOD , 90301", INGLEWOOD,90301, (310) 671-2393,"COUNTY OF LOS ANGELES, 5823 RICKENBACKER RD., COMMERCE, CA 90040","HCD - SOUTHERN AREA OFFICE, 3737 MAIN ST 400, RIVERSIDE, CA 92501",29,0,0,
HUB TRAILER CT,LOS ANGELES,19-0307-MP,"11714 GARVEY AVE,  EL MONTE , 91733", EL MONTE,91733, (999) 444-1962,"COUNTY OF LOS ANGELES, 5823 RICKENBACKER RD., COMMERCE, CA 90040","HCD - SOUTHERN AREA OFFICE, 3737 MAIN ST 400, RIVERSIDE, CA 92501",18,0,0,"YEN, CHIA, 2345 W 232ND ST, TORRANCE, CA 90501"
IDEAL TRAILER CT,LOS ANGELES,19-0312-MP,"431 S FERRIS AVE,  LOS ANGELES , 90022", LOS ANGELES,90022, (818) 280-3480,"HCD - SOUTHERN AREA OFFICE, 3737 MAIN ST 400, RIVERSIDE, CA 92501","HCD - SOUTHERN AREA OFFICE, 3737 MAIN ST 400, RIVERSIDE, CA 92501",2,0,13,"VALENZUELA, ROSALINA, 440 VIA VICENTE, NIPOMO, CA 93444"
IMPERIAL TP,LOS ANGELES,19-0316-MP,"3670 W IMPERIAL HWY,  HAWTHORNE , 90250", HAWTHORNE,90250, (818) 280-3480,"COUNTY OF LOS ANGELES, 5823 RICKENBACKER RD., COMMERCE, CA 90040","HCD - SOUTHERN AREA OFFICE, 3737 MAIN ST 400, RIVERSIDE, CA 92501",58,0,0,"MENLO, SAM, 4221 WILSHIRE BLVD SUITE # 210, LOS ANGELES, CA 90010"
LA TP,LOS ANGELES,19-0379-MP,"2121 27 E NADEAU ST,  LOS ANGELES , 90001", LOS ANGELES,90001, (213) 581-7124,"HCD - SOUTHERN AREA OFFICE, 3737 MAIN ST 400, RIVERSIDE, CA 92501","HCD - SOUTHERN AREA OFFICE, 3737 MAIN ST 400, RIVERSIDE, CA 92501",1,0,29,"JACOBS, LILLIAN, 7831 SOUTH ALAMEDA, LOS ANGELES, CA 90001"
SIMS TP,LOS ANGELES,19-0382-MP,"6305 HOLMES AVE,  LOS ANGELES , 90001", LOS ANGELES,90001, (999) 732-2147,"HCD - SOUTHERN AREA OFFICE, 3737 MAIN ST 400, RIVERSIDE, CA 92501","HCD - SOUTHERN AREA OFFICE, 3737 MAIN ST 400, RIVERSIDE, CA 92501",14,0,1,"P & J GLASS INC, C/O JIMMIE RUSSELL 2476 OVERLAND AVE SUITE 203, LOS ANGELES, CA 90064"
MACKS TRAILER LODGE,LOS ANGELES,19-0390-MP,"17524 S FIGUEROA ST,  CARSON , 90745", CARSON,90745, (213) 323-2312,"null, null","HCD - SOUTHERN AREA OFFICE, 3737 MAIN ST 400, RIVERSIDE, CA 92501",47,0,0,"BUCKLES, ROBERT, 1483 ALLENFORD AVE, LOS ANGELES, CA 90049"
CHICO AVE TRAILER CT,LOS ANGELES,19-0406-MP,"2702 CHICO AVE,  S EL MONTE , 91733", S EL MONTE,91733, (310) 866-4004,"null, null","HCD - SOUTHERN AREA OFFICE, 3737 MAIN ST 400, RIVERSIDE, CA 92501",25,0,0,"KAM LEWIS & HUEY, 8624 FAIRMONT WY, FAIR OAKS, CA 95628"
MOUNTAIN VIEW MOBILE INN,LOS ANGELES,19-0448-MP,"1930 STEWART ST,  SANTA MONICA , 90404", SANTA MONICA,90404, (310) 828-7178,"HCD - SOUTHERN AREA OFFICE, 3737 MAIN ST 400, RIVERSIDE, CA 92501","SANTA MONICA BUILDING DEPARTMENT, MOBILEHOME PARKS PROGRAM, 1685 MAIN STREET RM 111, SANTA MONICA, CA 90401",141,0,0,"CARITAS ACQUISITIONS IV LLC, 3 PARK PLAZA # 1700, IRVINE, CA 92614"
AMERICAN ADVENTURES FOREST LAKES RESORT,LOS ANGELES,19-0449-MP,"17000 ELIZABETH LAKE RD,  LAKE HUGHES , 93532", LAKE HUGHES,93532, (805) 724-1412,"null, null","HCD - SOUTHERN AREA OFFICE, 3737 MAIN ST 400, RIVERSIDE, CA 92501",0,4,252,"AMERICAN ADVENTURES, 101 INVERNESS DR EAST SUITE # 130, ENGLEWOOD, CO 80112"
CRYSTAL POOL MHP,LOS ANGELES,19-0470-MP,"1722 E HUNTINGTON DR,  DUARTE , 91010", DUARTE,91010, (818) 359-1302,"null, null","HCD - SOUTHERN AREA OFFICE, 3737 MAIN ST 400, RIVERSIDE, CA 92501",35,0,0,"HFC CONSULTING & MANAGEMENT, PO BOX 1163, SIERRA MADRE, CA 91024"
RAINBOW TP,LOS ANGELES,19-0550-MP,"31413 CASTAIC RD,  CASTAIC , 91384", CASTAIC,91384, (805) 296-2021,"COUNTY OF LOS ANGELES, 5823 RICKENBACKER RD., COMMERCE, CA 90040","HCD - SOUTHERN AREA OFFICE, 3737 MAIN ST 400, RIVERSIDE, CA 92501",10,0,0,"COWAN FAMILY GRANTOR RETAINED INCOME TRUST, 10326 TENNESSEE AVE, LOS ANGELES, CA 90064"
VILLA TRAILER PARK,LOS ANGELES,19-0553-MP,"3100 BASEBALL,  EL MONTE , 91731", EL MONTE,91731, (818) 444-2229,"COUNTY OF LOS ANGELES, 5823 RICKENBACKER RD., COMMERCE, CA 90040","HCD - SOUTHERN AREA OFFICE, 3737 MAIN ST 400, RIVERSIDE, CA 92501",10,0,0,"TARIGHAT, BIJAN, "
ROSE ACRES TP,LOS ANGELES,19-0588-MP,"9872 E RUSH ST,  S EL MONTE , 91733", S EL MONTE,91733, (818) 575-9244,"COUNTY OF LOS ANGELES, 5823 RICKENBACKER RD., COMMERCE, CA 90040","HCD - SOUTHERN AREA OFFICE, 3737 MAIN ST 400, RIVERSIDE, CA 92501",31,0,0,"JABO INVESTMENT CO INC, PO BOX 3707, SAN JUAN CAPISTRANO, CA 92690"
ROSELAND TRAILER CT,LOS ANGELES,19-0592-MP,"7443 E GARVEY AVE,  ROSEMEAD , 91770", ROSEMEAD,91770, (626) 625-9935,"COUNTY OF LOS ANGELES, 5823 RICKENBACKER RD., COMMERCE, CA 90040","HCD - SOUTHERN AREA OFFICE, 3737 MAIN ST 400, RIVERSIDE, CA 92501",19,0,0,"HAWAII PROPERTY INC, 120 E. VALLEY BLVD, SAN GABRIEL, CA 91776"
MYRTLE PARK,LOS ANGELES,19-0604-MP,"1233 S MYRTLE AVE,  INGLEWOOD , 90301", INGLEWOOD,90301, (213) 732-4200,"null, null","HCD - SOUTHERN AREA OFFICE, 3737 MAIN ST 400, RIVERSIDE, CA 92501",4,0,0,"LANDMARK WEST, 3712 W JEFFERSON BLVD, LOS ANGELES, CA 90016"
SHADY NOOK TP,LOS ANGELES,19-0635-MP,"21009 PROSPECT AVE,  CARSON , 90810", CARSON,90810, (818) 442-0383,"COUNTY OF LOS ANGELES, 5823 RICKENBACKER RD., COMMERCE, CA 90040","HCD - SOUTHERN AREA OFFICE, 3737 MAIN ST 400, RIVERSIDE, CA 92501",6,0,0,"CARLSEN, KENT, PO BOX 8321, LONG BEACH, CA 90808"
FOLLOW CAMP WEST,LOS ANGELES,19-0637-MP,"23100 E FORK RD,  AZUSA , 91702", AZUSA,91702, (818) 910-1100,"COUNTY OF LOS ANGELES, 5823 RICKENBACKER RD., COMMERCE, CA 90040","HCD - SOUTHERN AREA OFFICE, 3737 MAIN ST 400, RIVERSIDE, CA 92501",2,56,80,"FLOCHAL INC, "
TRAIL IN TP,LOS ANGELES,19-0700-MP,"14711 GARFIELD,  PARAMOUNT , 90723", PARAMOUNT,90723, (310) 630-8417,"COUNTY OF LOS ANGELES, 5823 RICKENBACKER RD., COMMERCE, CA 90040","HCD - SOUTHERN AREA OFFICE, 3737 MAIN ST 400, RIVERSIDE, CA 92501",6,0,0,"NEUMANN, HILDE, 4561 MAROON DR, LA PALMA, CA 90623"
UNIQUE TP,LOS ANGELES,19-0724-MP,"10120 FERN ST,  S EL MONTE , 91733", S EL MONTE,91733, (805) 948-3350,"null, null","HCD - SOUTHERN AREA OFFICE, 3737 MAIN ST 400, RIVERSIDE, CA 92501",17,0,0,"LEWIS, JOHN, 8624 FAIRMONT WY, FAIR OAKS, CA 95628"
SUN TP,LOS ANGELES,19-0764-MP,"2630 N SAN GABRIEL BLVD,  ROSEMEAD , 91770", ROSEMEAD,91770,,"HCD - SOUTHERN AREA OFFICE, 3737 MAIN ST 400, RIVERSIDE, CA 92501","HCD - SOUTHERN AREA OFFICE, 3737 MAIN ST 400, RIVERSIDE, CA 92501",21,0,0,"IWAHORI, TAKAHISA, 11622 SPYGLASS DR, NORTHRIDGE, CA 91326"
WHEELERS TP,LOS ANGELES,19-0766-MP,"2835 CONSOL ST,  EL MONTE , 91733", EL MONTE,91733, (310) 630-1827,"COUNTY OF LOS ANGELES, 5823 RICKENBACKER RD., COMMERCE, CA 90040","HCD - SOUTHERN AREA OFFICE, 3737 MAIN ST 400, RIVERSIDE, CA 92501",21,0,0,"CHRISMAN, NORMAN, PO BOX 1656, RANCHO SANTA FE, CA 92067"
WINTER HAVEN TP,LOS ANGELES,19-0780-MP,"7524 E GARVEY,  ROSEMEAD , 91770", ROSEMEAD,91770,,"HCD - SOUTHERN AREA OFFICE, 3737 MAIN ST 400, RIVERSIDE, CA 92501","HCD - SOUTHERN AREA OFFICE, 3737 MAIN ST 400, RIVERSIDE, CA 92501",8,0,0,"WAHNISH, TRUST, C/O NANCY SOLURI, TRUSTEE 174 W FOOTHILL BLVD #509, MONROVIA, CA 91016"
ZIEVES TRAILER PARK,LOS ANGELES,19-0791-MP,"7414 MARBRISA,  HUNTINGTON PARK , 90255", HUNTINGTON PARK,90255,,"null, null","HCD - SOUTHERN AREA OFFICE, 3737 MAIN ST 400, RIVERSIDE, CA 92501",,,,
LIVE OAK COMMUNITY PARK LLC,LOS ANGELES,19-0885-MP,"4343 E LIVE OAK AVE,  ARCADIA , 91006", ARCADIA,91006, (626) 358-8116,"COUNTY OF LOS ANGELES, 5823 RICKENBACKER RD., COMMERCE, CA 90040","HCD - SOUTHERN AREA OFFICE, 3737 MAIN ST 400, RIVERSIDE, CA 92501",56,0,0,"LIVE OAK COMMUNITY PARK LLC, 4804 LAUREL CYN BLVD #742, VALLEY VILLAGE, CA 91607"
DOWNEY TRAILER PARK,LOS ANGELES,19-0911-MP,"7540 FIRESTONE BLVD.,  DOWNEY , 90240", DOWNEY,90240,,"null, null","HCD - SOUTHERN AREA OFFICE, 3737 MAIN ST 400, RIVERSIDE, CA 92501",,,,
JIMMY MOTEL,LOS ANGELES,19-0914-MP,"10101 GARVEY AVE,  EL MONTE , 91731", EL MONTE,91731, (626) 377-5528,"COUNTY OF LOS ANGELES, 5823 RICKENBACKER RD., COMMERCE, CA 90040","HCD - SOUTHERN AREA OFFICE, 3737 MAIN ST 400, RIVERSIDE, CA 92501",5,0,0,"CHAK, LINDA, 1281 MILL LN, SAN MARINO, CA 91108"
PEPPER GROVE TP,LOS ANGELES,19-0927-MP,"4830 SAN FERNANDO RD,  GLENDALE , 91201", GLENDALE,91201, (310) 320-0361,"null, null","HCD - SOUTHERN AREA OFFICE, 3737 MAIN ST 400, RIVERSIDE, CA 92501",58,0,0,"HILLGRENS ASSOCIATION INC, 26 E COLORADO #4, PASADENA, CA 91105"
SOLEDAD TRAILER LODGE,LOS ANGELES,19-0933-MP,"18300 SOLEDAD CANYON RD,  SANTA CLARITA , 91351", SANTA CLARITA,91351, (818) 902-4423,"COUNTY OF LOS ANGELES, 5823 RICKENBACKER RD., COMMERCE, CA 90040","HCD - SOUTHERN AREA OFFICE, 3737 MAIN ST 400, RIVERSIDE, CA 92501",27,0,0,"ROBBCO PROPERTIES LLC, 27946 HENRY MAYO DR, CASTAIC, CA 91384"
SOUTH HILLS MH ESTATES,LOS ANGELES,19-0946-MP,"842 E ROUTE 66,  GLENDORA , 91740", GLENDORA,91740, (626) 335-5641,"COUNTY OF LOS ANGELES, 5823 RICKENBACKER RD., COMMERCE, CA 90040","HCD - SOUTHERN AREA OFFICE, 3737 MAIN ST 400, RIVERSIDE, CA 92501",39,0,0,"GLENDORA HOUSING INVESTORS LP, 110 PINE AVE., STE. 200, LONG BEACH, CA 90802"
VIEW PARK MOBILEHOMES,LOS ANGELES,19-0947-MP,"1235 W 134TH ST,  GARDENA , 90247", GARDENA,90247, (310) 630-4878,"COUNTY OF LOS ANGELES, 5823 RICKENBACKER RD., COMMERCE, CA 90040","HCD - SOUTHERN AREA OFFICE, 3737 MAIN ST 400, RIVERSIDE, CA 92501",25,0,0,"TARICCO, DEANE, 1235 W 134 TH ST SPACE # 20, GARDENA, CA 90247"
HIDDEN VALLEY TRAILER PARK,LOS ANGELES,19-0954-MP,"13671 E. GARVEY AVENUE,  BALDWIN PARK , 91706", BALDWIN PARK,91706,,"null, null","HCD - SOUTHERN AREA OFFICE, 3737 MAIN ST 400, RIVERSIDE, CA 92501",,,,
FRAMPTON TRAILER LODGE,LOS ANGELES,19-0973-MP,"24629 FRAMPTON AVE,  HARBOR CITY , 90710", HARBOR CITY,90710,,"null, null","HCD - SOUTHERN AREA OFFICE, 3737 MAIN ST 400, RIVERSIDE, CA 92501",,,,
PALMS MOBILE LODGE,LOS ANGELES,19-0987-MP,"4025 GRANDVIEW,  LOS ANGELES , 90066", LOS ANGELES,90066, (562) 694-0215,"HCD - SOUTHERN AREA OFFICE, 3737 MAIN ST 400, RIVERSIDE, CA 92501","HCD - SOUTHERN AREA OFFICE, 3737 MAIN ST 400, RIVERSIDE, CA 92501",20,0,0,"GRANDVIEW DEVELOPMENT LP, 218 NORTH CANON DR SUITE # C, BEVERLY HILLS, CA 90210"
CANYON BREEZE VILLAGE,LOS ANGELES,19-1003-MP,"28504 SAND CANYON RD,  SANTA CLARITA , 91387", SANTA CLARITA,91387, (661) 250-1265,"COUNTY OF LOS ANGELES, 5823 RICKENBACKER RD., COMMERCE, CA 90040","HCD - SOUTHERN AREA OFFICE, 3737 MAIN ST 400, RIVERSIDE, CA 92501",166,0,0,"SAND CYN GATEWAY LLC, 28504 SAND CYN RD #A, CANYON COUNTRY, CA 91387"
SKY TERRACE MP,LOS ANGELES,19-1034-MP,"12089 LOPEZ CANYON RD,  SAN FERNANDO , 91340", SAN FERNANDO,91340, (818) 899-5939,"COUNTY OF LOS ANGELES, 5823 RICKENBACKER RD., COMMERCE, CA 90040","HCD - SOUTHERN AREA OFFICE, 3737 MAIN ST 400, RIVERSIDE, CA 92501",63,0,0,"SE SKY SPE, LLC, DEWEY FAMILY TRUST 8447 WILSHIRE BLVD,#100, BEVERLY HILLS, CA 90211"
SANTAS VILLAGE/PARK,LOS ANGELES,19-10761-MP,"3737 MAIN ST,  AZUSA , 91702", AZUSA,91702,,"COUNTY OF LOS ANGELES, 5823 RICKENBACKER RD., COMMERCE, CA 90040","HCD - SOUTHERN AREA OFFICE, 3737 MAIN ST 400, RIVERSIDE, CA 92501",,,,
HOLLYWOOD WAY TRAILER CT,LOS ANGELES,19-1083-MP,"2240 N HOLLYWOOD WAY,  BURBANK , 91505", BURBANK,91505, (310) 390-4604,"null, null","HCD - SOUTHERN AREA OFFICE, 3737 MAIN ST 400, RIVERSIDE, CA 92501",75,0,0,"PARK OPERATOR 19-1083, C/O L D FLICKINGER CO 33338 AGUA DULCE CANYON RD #111, AGUA DULCE, CA 91350"
POMONA GARDENS,LOS ANGELES,19-1097-MP,"934 W HOLT AVE,  POMONA , 91768", POMONA,91768, (909) 623-9855,"COUNTY OF LOS ANGELES, 5823 RICKENBACKER RD., COMMERCE, CA 90040","HCD - SOUTHERN AREA OFFICE, 3737 MAIN ST 400, RIVERSIDE, CA 92501",17,21,0,"CITY OF POMONA, 6117 BROCKTON AVE SUITE # 203, RIVERSIDE, CA 92506"
CANYON COUNTRY MOBILEHOME PARK LLC,LOS ANGELES,19-11421-MP,"1394 BALMORAL DR,  GLENDALE , 91207", GLENDALE,91207,,"HCD - SOUTHERN AREA OFFICE, 3737 MAIN ST 400, RIVERSIDE, CA 92501","HCD - SOUTHERN AREA OFFICE, 3737 MAIN ST 400, RIVERSIDE, CA 92501",,,,
CANYON COUNTRY MOBILEHOME PARK LLC,LOS ANGELES,19-11422-MP,"1394 BALMORAL DR,  GLENDALE , 91207", GLENDALE,91207,,"HCD - SOUTHERN AREA OFFICE, 3737 MAIN ST 400, RIVERSIDE, CA 92501","HCD - SOUTHERN AREA OFFICE, 3737 MAIN ST 400, RIVERSIDE, CA 92501",,,,
SHADYLANE TRAILER CT,LOS ANGELES,19-1151-MP,"11400 ILEX AVE,  SAN FERNANDO , 91340", SAN FERNANDO,91340, (805) 251-5949,"HCD - SOUTHERN AREA OFFICE, 3737 MAIN ST 400, RIVERSIDE, CA 92501","HCD - SOUTHERN AREA OFFICE, 3737 MAIN ST 400, RIVERSIDE, CA 92501",35,0,0,"ADAMS, JOHN, PO BOX 10, SAN FERNANDO, CA 91341"
PACOIMA PARK,LOS ANGELES,19-1152-MP,"10641 SAND FERNANDO RD,  PACOIMA , 91331", PACOIMA,91331, (818) 899-3240,"HCD - SOUTHERN AREA OFFICE, 3737 MAIN ST 400, RIVERSIDE, CA 92501","HCD - SOUTHERN AREA OFFICE, 3737 MAIN ST 400, RIVERSIDE, CA 92501",26,0,0,"SAVANT, BARBARA, C/O MANDELBAUM & ASSOC 848 MANHATTAN BEACH BLVD, MANHATTAN BEACH, CA 90266"
STARLITE MHP,LOS ANGELES,19-1165-MP,"12159 BRANFORD AVE,  SUN VALLEY , 91352", SUN VALLEY,91352, (714) 542-6000,"HCD - SOUTHERN AREA OFFICE, 3737 MAIN ST 400, RIVERSIDE, CA 92501","HCD - SOUTHERN AREA OFFICE, 3737 MAIN ST 400, RIVERSIDE, CA 92501",41,0,0,
PARADISE TP,LOS ANGELES,19-11761-MP,"10547 STRATHMORE DR,  LOS ANGELES , 90024", LOS ANGELES,90024,,"HCD - SOUTHERN AREA OFFICE, 3737 MAIN ST 400, RIVERSIDE, CA 92501","HCD - SOUTHERN AREA OFFICE, 3737 MAIN ST 400, RIVERSIDE, CA 92501",60,0,0,
TRAILER TEL MHP,LOS ANGELES,19-1202-MP,"3300 THATCHER AVE,  MARINA DEL REY , 90292", MARINA DEL REY,90292, (213) 834-7109,"COUNTY OF LOS ANGELES, 5823 RICKENBACKER RD., COMMERCE, CA 90040","HCD - SOUTHERN AREA OFFICE, 3737 MAIN ST 400, RIVERSIDE, CA 92501",24,6,0,"AGAJANIAN, JOE, PO BOX 716, VENICE, CA 90291"
HALLMAN TP,LOS ANGELES,19-1207-MP,"614 N ATLANTIC BLVD,  MONTEREY PARK , 91754", MONTEREY PARK,91754, (818) 963-2295,"HCD - SOUTHERN AREA OFFICE, 3737 MAIN ST 400, RIVERSIDE, CA 92501","HCD - SOUTHERN AREA OFFICE, 3737 MAIN ST 400, RIVERSIDE, CA 92501",22,0,0,"ATLANTIC TIMES SQUARE, 411 E HUNTINGTON DR #305, ARCADIA, CA 91006"
BEL ABBEY MHP,LOS ANGELES,19-1234-MP,"200 E GARDENA BLVD,  CARSON , 90745", CARSON,90745, (310) 323-3073,"COUNTY OF LOS ANGELES, 5823 RICKENBACKER RD., COMMERCE, CA 90040","HCD - SOUTHERN AREA OFFICE, 3737 MAIN ST 400, RIVERSIDE, CA 92501",50,0,0,"HAPPY TRAILS, 334 GARDENA BLV., GARDENA, CA 90248"
PARK SANTA ANITA,LOS ANGELES,19-1244-MP,"1226 S. FIFTH AVENUE,  MONROVIA , 91016", MONROVIA,91016, (818) 446-9538,"null, null","HCD - SOUTHERN AREA OFFICE, 3737 MAIN ST 400, RIVERSIDE, CA 92501",,,,
SANTA ANITA VILLAGE,LOS ANGELES,19-1275-MP,"4241 E LIVE OAK,  ARCADIA , 91006", ARCADIA,91006, (626) 285-5550,"COUNTY OF LOS ANGELES, 5823 RICKENBACKER RD., COMMERCE, CA 90040","HCD - SOUTHERN AREA OFFICE, 3737 MAIN ST 400, RIVERSIDE, CA 92501",228,0,0,"PRIME ENTERPRISES LLC, 900 S SAN GABRIEL BLVD #200, SAN GABRIEL, CA 91776"
MITCHELL TP,LOS ANGELES,19-1286-MP,"9356 MABLE AVE,  S EL MONTE , 91733", S EL MONTE,91733, (805) 285-4555,"null, null","HCD - SOUTHERN AREA OFFICE, 3737 MAIN ST 400, RIVERSIDE, CA 92501",12,0,0,"TAM, THOMAS, 8427 E YARROW, ROSEMEAD, CA 91770"
DOMINGUEZ TP,LOS ANGELES,19-1311-MP,"2666 DOMINGUEZ ST,  CARSON , 90810", CARSON,90810, (310) 679-2077,"COUNTY OF LOS ANGELES, 5823 RICKENBACKER RD., COMMERCE, CA 90040","HCD - SOUTHERN AREA OFFICE, 3737 MAIN ST 400, RIVERSIDE, CA 92501",31,0,0,"CITY OF CARSON, CA, 1 CIVIC PLAZA, #500, LONG BEACH, CA 90745"
PARK SAN GABRIEL,LOS ANGELES,19-1313-MP,"3053 N SAN GABRIEL BLVD,  ROSEMEAD , 91770", ROSEMEAD,91770,,"COUNTY OF LOS ANGELES, 5823 RICKENBACKER RD., COMMERCE, CA 90040","HCD - SOUTHERN AREA OFFICE, 3737 MAIN ST 400, RIVERSIDE, CA 92501",42,0,0,"CB & A INVESTMENTS, LLC, 227 W VALLEY BLVD #308, SAN GABRIEL, CA 91776"
ASHLEY TP,LOS ANGELES,19-1316-MP,"3488 E COLORADO BLVD,  PASADENA , 91107", PASADENA,91107, (805) 533-2495,"null, null","HCD - SOUTHERN AREA OFFICE, 3737 MAIN ST 400, RIVERSIDE, CA 92501",23,0,0,"FAR EAST BANK, 977 N BROADWAY #401, LOS ANGELES, CA 90012"
OASIS PARK,LOS ANGELES,19-1319-MP,"9777 W SOLEDAD CANYON RD,  SAUGUS , 91350", SAUGUS,91350, (805) 268-1771,"COUNTY OF LOS ANGELES, 5823 RICKENBACKER RD., COMMERCE, CA 90040","HCD - SOUTHERN AREA OFFICE, 3737 MAIN ST 400, RIVERSIDE, CA 92501",10,30,20,
HORSESHOE TP,LOS ANGELES,19-1326-MP,"16337 S ATLANTIC PL,  PARAMOUNT , 90723", PARAMOUNT,90723, (818) 774-8518,"null, null","HCD - SOUTHERN AREA OFFICE, 3737 MAIN ST 400, RIVERSIDE, CA 92501",22,0,0,"NEVIUS, EUGENIA, PO BOX 2583, ORANGE, CA 92859"
LITTLE DUDE TP,LOS ANGELES,19-1327-MP,"630 E 220TH ST,  CARSON , 90745", CARSON,90745, (909) 595-8635,"COUNTY OF LOS ANGELES, 5823 RICKENBACKER RD., COMMERCE, CA 90040","HCD - SOUTHERN AREA OFFICE, 3737 MAIN ST 400, RIVERSIDE, CA 92501",12,0,0,"SHIMIZU, SIG, 630 E 220TH ST., CARSON, CA 90746"
THOUSAND TRAILS RV,LOS ANGELES,19-13506-MP,"4700 CROWN VALLEY RD,  ACTON , 93510", ACTON,93510,,"HCD - SOUTHERN AREA OFFICE, 3737 MAIN ST 400, RIVERSIDE, CA 92501","HCD - SOUTHERN AREA OFFICE, 3737 MAIN ST 400, RIVERSIDE, CA 92501",,,,
HUTTOPIA PARADISE SPRINGS,LOS ANGELES,19-13568-MP,"18101 PARADISE DR,  VALYERMO , 93563", VALYERMO,93563, (661) 944-9005,"null, null","HCD - SOUTHERN AREA OFFICE, 3737 MAIN ST 400, RIVERSIDE, CA 92501",,,,"HUTTOPIA PARADISE SPRINGS LLC, 911 RUE JEAN-TALON EST. SUITE # 324, "
OCEANS 12 RV PARK,LOS ANGELES,19-13569-MP,"1550 EAST L STREET,  WILMINGTON , 90744", WILMINGTON,90744, (310) 999-9267,"null, null","HCD - SOUTHERN AREA OFFICE, 3737 MAIN ST 400, RIVERSIDE, CA 92501",,,,"OCEANS 11 RV PARK LLC, 10645 SOLEDAD CANYON RD, SANTA CLARITA, CA 91390"
HACIENDA VASQUES,LOS ANGELES,19-1363-MP,"32590 AGUA DULCE CANYON RD,  AGUA DULCE , 91350", AGUA DULCE,91350, (714) 645-3814,"COUNTY OF LOS ANGELES, 5823 RICKENBACKER RD., COMMERCE, CA 90040","HCD - SOUTHERN AREA OFFICE, 3737 MAIN ST 400, RIVERSIDE, CA 92501",57,8,0,"SALMONSON, MITCHELL, 32590 AGUA DULCE CANYON RD, AGUA DULCE, CA 91350"
PARK SAN GABRIEL,LOS ANGELES,19-1376-MP,"3035 N SAN GABRIEL BLVD,  ROSEMEAD , 91770", ROSEMEAD,91770,,"HCD - SOUTHERN AREA OFFICE, 3737 MAIN ST 400, RIVERSIDE, CA 92501","HCD - SOUTHERN AREA OFFICE, 3737 MAIN ST 400, RIVERSIDE, CA 92501",15,0,0,"CB & A INVESTMENTS, LLC, 227 W VALLEY BLVD #308, SAN GABRIEL, CA 91776"
VASQUEZ PARADISE PARK,LOS ANGELES,19-1384-MP,"32222 AGUA DULCE CANYON RD,  SAUGUS , 91350", SAUGUS,91350, (805) 268-8734,"COUNTY OF LOS ANGELES, 5823 RICKENBACKER RD., COMMERCE, CA 90040","HCD - SOUTHERN AREA OFFICE, 3737 MAIN ST 400, RIVERSIDE, CA 92501",1,0,20,"TONG, DIANE, 32222 AGUA DULCE CANYON RD, AGUA DULCE, CA 91350"
POINSETTIA PARK,LOS ANGELES,19-1415-MP,"12329 35 POINSETTIA AVE,  EL MONTE , 91733", EL MONTE,91733, (805) 257-3333,"COUNTY OF LOS ANGELES, 5823 RICKENBACKER RD., COMMERCE, CA 90040","HCD - SOUTHERN AREA OFFICE, 3737 MAIN ST 400, RIVERSIDE, CA 92501",4,0,0,"FRANK, DORIS, 2239 PARKWAY DR #7, EL MONTE, CA 91733"
PARKWAY DRIVE,LOS ANGELES,19-1417-MP,"2239 47 PARKWAY DR,  EL MONTE , 91733", EL MONTE,91733, (805) 257-3333,"COUNTY OF LOS ANGELES, 5823 RICKENBACKER RD., COMMERCE, CA 90040","HCD - SOUTHERN AREA OFFICE, 3737 MAIN ST 400, RIVERSIDE, CA 92501",3,0,0,"FRANK, DORIS, 2239 PARKWAY DR #7, EL MONTE, CA 91733"
THE ROBINS NEST RECREATION RESORT,LOS ANGELES,19-1421-MP,"8237 SOLEDAD CANYON RD,  ACTON , 93510", ACTON,93510, (805) 268-1221,"COUNTY OF LOS ANGELES, 5823 RICKENBACKER RD., COMMERCE, CA 90040","HCD - SOUTHERN AREA OFFICE, 3737 MAIN ST 400, RIVERSIDE, CA 92501",0,46,30,"SONG, YOUNG, 8237 SOLEDAD CYN RD, ACTON, CA 93510"
FOLLOWS CAMP,LOS ANGELES,19-1437-MP,"23400 E FORK RD,  AZUSA , 91702", AZUSA,91702, (818) 910-1100,"COUNTY OF LOS ANGELES, 5823 RICKENBACKER RD., COMMERCE, CA 90040","HCD - SOUTHERN AREA OFFICE, 3737 MAIN ST 400, RIVERSIDE, CA 92501",1,39,120,
CHRONISTER PARK,LOS ANGELES,19-1470-MP,"12368 POINSETTIA,  EL MONTE , 91733", EL MONTE,91733, (619) 868-5224,"COUNTY OF LOS ANGELES, 5823 RICKENBACKER RD., COMMERCE, CA 90040","HCD - SOUTHERN AREA OFFICE, 3737 MAIN ST 400, RIVERSIDE, CA 92501",2,0,0,"CHRONISTER, LINDA, 6292 PALMDALE RD #91, PHELAN, CA 92371"
L.A -SAN FERNANDO VALLEY KOA,LOS ANGELES,19-1472-MP,"15900 OLDEN ST,  SYLMAR , 91342", SYLMAR,91342, (818) 360-3934,"null, null","HCD - SOUTHERN AREA OFFICE, 3737 MAIN ST 400, RIVERSIDE, CA 92501",,,,
PICO RIVERA MHP,LOS ANGELES,19-1485-MP,"8526 WHITTIER BLVD,  PICO RIVERA , 90660", PICO RIVERA,90660, (909) 699-9853,"COUNTY OF LOS ANGELES, 5823 RICKENBACKER RD., COMMERCE, CA 90040","HCD - SOUTHERN AREA OFFICE, 3737 MAIN ST 400, RIVERSIDE, CA 92501",34,0,0,"IMURA, MASAHARU, 32094 CAMINO GUARDA, TEMECULA, CA 92592"
VILLA CAPRI MHP,LOS ANGELES,19-1509-MP,"3427 BALDWIN PARK BLVD,  BALDWIN PARK , 91706", BALDWIN PARK,91706, (818) 960-9972,"COUNTY OF LOS ANGELES, 5823 RICKENBACKER RD., COMMERCE, CA 90040","HCD - SOUTHERN AREA OFFICE, 3737 MAIN ST 400, RIVERSIDE, CA 92501",13,0,0,"MAMONE, CLOVER, 2014 SOUTH VINE AVE., ONTARIO, CA 91762"
BALDY VIEW TP,LOS ANGELES,19-1510-MP,"13822 E GARVEY,  BALDWIN PARK , 91706", BALDWIN PARK,91706, (818) 960-9972,"HCD - SOUTHERN AREA OFFICE, 3737 MAIN ST 400, RIVERSIDE, CA 92501","HCD - SOUTHERN AREA OFFICE, 3737 MAIN ST 400, RIVERSIDE, CA 92501",46,0,0,"MERUELO, RICHARD, 6915 TURF DR, HUNTINGTON BEACH, CA 92648"
EAST SHORE RV PARK,LOS ANGELES,19-1511-MP,"1440 CAMPER VIEW RD,  SAN DIMAS , 91773", SAN DIMAS,91773, (909) 599-8355,"COUNTY OF LOS ANGELES, 5823 RICKENBACKER RD., COMMERCE, CA 90040","HCD - SOUTHERN AREA OFFICE, 3737 MAIN ST 400, RIVERSIDE, CA 92501",0,519,25,"COOK, PHYLLIS, 1440 CAMPER VIEW RD, SAN DIMAS, CA 91773"
VALENCIA MHP,LOS ANGELES,19-1526-MP,"350 W ROUTE 66,  GLENDORA , 91740", GLENDORA,91740, (818) 963-5887,"COUNTY OF LOS ANGELES, 5823 RICKENBACKER RD., COMMERCE, CA 90040","HCD - SOUTHERN AREA OFFICE, 3737 MAIN ST 400, RIVERSIDE, CA 92501",11,14,0,"ROUTE 66 INVESTMENTS,LLC, 915-C W. FOOTHILL BLVD SUITE # 422, CLAREMONT, CA 91711"
WALNUT LODGE CT,LOS ANGELES,19-1535-MP,"9515 WHITTIER BLVD,  PICO RIVERA , 90660", PICO RIVERA,90660, (562) 695-7700,"COUNTY OF LOS ANGELES, 5823 RICKENBACKER RD., COMMERCE, CA 90040","HCD - SOUTHERN AREA OFFICE, 3737 MAIN ST 400, RIVERSIDE, CA 92501",34,0,0,"KAHALA PROPERTIES INC, PO BOX 2842, LAGUNA HILLS, CA 92654"
AVOLON CARSON MH/RV PARK,LOS ANGELES,19-1565-MP,"616 E CARSON ST,  CARSON , 90745", CARSON,90745, (310) 834-3175,"COUNTY OF LOS ANGELES, 5823 RICKENBACKER RD., COMMERCE, CA 90040","HCD - SOUTHERN AREA OFFICE, 3737 MAIN ST 400, RIVERSIDE, CA 92501",67,108,0,"WONG, DARRYL, 802 N VERMONT AVE #109, LOS ANGELES, CA 90029"
AZUSA SPRINGS PARTNERS,LOS ANGELES,19-1577-MP,"100 OLD SAN GABRIEL CANYON RD,  AZUSA , 91702", AZUSA,91702, (818) 368-0933,"COUNTY OF LOS ANGELES, 5823 RICKENBACKER RD., COMMERCE, CA 90040","HCD - SOUTHERN AREA OFFICE, 3737 MAIN ST 400, RIVERSIDE, CA 92501",12,0,0,"WATERSHED CONSERVATION AUTHORITY, 900 S. FREMONT AVE ANNEX 2ND FL, ALHAMBRA, CA 91803"
