Park Name,County,Park Identifier,Park Address,City,Zip,Phone,Fire Authority,Jurisdiction,MH Spaces,RV Lots W/Drains,RV Lots W/O Drains,Operated by
IMPERIAL TRAILER PARK,LOS ANGELES,13-0018-MP,"600 N IMPERIAL AVE,  HAWTHORNE,  CA 90250", HAWTHORNE,90250,,"COUNTY OF LOS ANGELES, 5823 RICKENBACKER RD., COMMERCE, CA 90040","IMPERIAL COUNTY BUILDING DEPARTMENT, 801 MAIN STREET, EL CENTRO, CA 92243",8,0,0,"HOLCOM, BRADLEY, PO BOX 3162, SAN DIEGO, CA 92163"
CHETS TRAILER PARK,LOS ANGELES,19-0001-MP,"4630 W ROSECRANS AVE ,  LAWNDALE,  CA 90260", LAWNDALE,90260, (310) 676-0663,"COUNTY OF LOS ANGELES, 5823 RICKENBACKER RD., COMMERCE, CA 90040","HCD - SOUTHERN AREA OFFICE, 3737 MAIN ST 400, RIVERSIDE, CA 92501",49,0,0,"DOSHI, NAVINCHANDRA, 6418 SPRING PARK AVE, LOS ANGELES, CA 90056"
A & A MOBILE HOME PARK,LOS ANGELES,19-0003-MP,"7722 ATLANTIC BLVD,  CUDAHY,  CA 90201", CUDAHY,90201, (310) 676-0663,"COUNTY OF LOS ANGELES, 5823 RICKENBACKER RD., COMMERCE, CA 90040","HCD - SOUTHERN AREA OFFICE, 3737 MAIN ST 400, RIVERSIDE, CA 92501",21,0,0,"A & A MHP LLC, 26895 ALISO CREEK RD #B876, ALISO VIEJO, CA 92656"
ACE TRAILER PARK,LOS ANGELES,19-0006-MP,"6508 FLORENCE PL,  BELL GARDENS,  CA 90201", BELL GARDENS,90201, (213) 927-2868,"COUNTY OF LOS ANGELES, 5823 RICKENBACKER RD., COMMERCE, CA 90040","HCD - SOUTHERN AREA OFFICE, 3737 MAIN ST 400, RIVERSIDE, CA 92501",8,0,0,"LUELLA PERDEW REVOCABLE TRUST, PO BOX 3259, WINNETKA, CA 91396"
ACORN TP,LOS ANGELES,19-0009-MP,"2818 DURFEE AVE,  EL MONTE,  CA 91732", EL MONTE,91732, (818) 350-5235,"COUNTY OF LOS ANGELES, 5823 RICKENBACKER RD., COMMERCE, CA 90040","HCD - SOUTHERN AREA OFFICE, 3737 MAIN ST 400, RIVERSIDE, CA 92501",20,0,0,"PATTERSON, GLEN, PO BOX 1811, MYRTLE CREEK, OR 97457"
CACTUS CREEK,LOS ANGELES,19-0010-MP,"3740 SMITH ST,  ACTON,  CA 93510", ACTON,93510, (661) 618-1155,"COUNTY OF LOS ANGELES, 5823 RICKENBACKER RD., COMMERCE, CA 90040","HCD - SOUTHERN AREA OFFICE, 3737 MAIN ST 400, RIVERSIDE, CA 92501",10,0,0,"PROPERTY REPAIR SERVICES, 915 WILSHIRE BLVD, #1700, LOS ANGELES, CA 90017"
SANTI TP,LOS ANGELES,19-0012-MP,"2730 N CHICO AVE,  S EL MONTE,  CA 91733", S EL MONTE,91733, (626) 222-2290,"COUNTY OF LOS ANGELES, 5823 RICKENBACKER RD., COMMERCE, CA 90040","HCD - SOUTHERN AREA OFFICE, 3737 MAIN ST 400, RIVERSIDE, CA 92501",17,0,0,"SANTI, NORMA, 8241 E GRAVES AVE, ROSEMEAD, CA 91770"
IMPERIAL TRAILER VILLAGE,LOS ANGELES,19-0019-MP,"3905 W IMPERIAL HWY,  INGLEWOOD,  CA 90303", INGLEWOOD,90303, (310) 674-1419,"COUNTY OF LOS ANGELES, 5823 RICKENBACKER RD., COMMERCE, CA 90040","HCD - SOUTHERN AREA OFFICE, 3737 MAIN ST 400, RIVERSIDE, CA 92501",17,0,0,"RARICA, LLC, PO BOX 1753, PACIFIC PALISADES, CA 90272"
ALONDRA TRAILER PARK,LOS ANGELES,19-0021-MP,"15012 LEMOLI AVE,  GARDENA,  CA 90249", GARDENA,90249, (310) 676-9764,"COUNTY OF LOS ANGELES, 5823 RICKENBACKER RD., COMMERCE, CA 90040","HCD - SOUTHERN AREA OFFICE, 3737 MAIN ST 400, RIVERSIDE, CA 92501",23,0,0,"SALAZAR, ALFREDO, PO BOX 9023, SAN DIEGO, CA 92169"
AMBASSADOR DICKS MP,LOS ANGELES,19-0023-MP,"1422 E ROSECRANS,  COMPTON,  CA 90220", COMPTON,90220, (310) 676-9764,"COUNTY OF LOS ANGELES, 5823 RICKENBACKER RD., COMMERCE, CA 90040","HCD - SOUTHERN AREA OFFICE, 3737 MAIN ST 400, RIVERSIDE, CA 92501",42,0,0,"PPS PC PARKS LLC, PO BOX 1687, BELLFLOWER, CA 90707"
HUGHES LAKESHORE PARK,LOS ANGELES,19-0036-MP,"43667 TR. K ELIZABETH LAKE,  LAKE HUGHES,  CA 93532", LAKE HUGHES,93532, (805) 724-1845,"COUNTY OF LOS ANGELES, 5823 RICKENBACKER RD., COMMERCE, CA 90040","HCD - SOUTHERN AREA OFFICE, 3737 MAIN ST 400, RIVERSIDE, CA 92501",4,0,0,"FOSTER, LUE, PO BOX 280, LAKE HUGHES, CA 93532"
AZUSA MOBILE HOME PARK,LOS ANGELES,19-0039-MP,"812 N LOREN AVE,  AZUSA,  CA 91702", AZUSA,91702, (626) 334-2306,"COUNTY OF LOS ANGELES, 5823 RICKENBACKER RD., COMMERCE, CA 90040","HCD - SOUTHERN AREA OFFICE, 3737 MAIN ST 400, RIVERSIDE, CA 92501",46,0,0,"KENDALL AZUSA COMMUNITIES LLC, 17300 RED HILL AVE SUITE 208, IRVINE, CA 92614"
CULVER CITY TERRACE,LOS ANGELES,19-0044-MP,"11250 PLAYA ST,  CULVER CITY,  CA 90230", CULVER CITY,90230, (213) 398-3761,"HCD - SOUTHERN AREA OFFICE, 3737 MAIN ST 400, RIVERSIDE, CA 92501","HCD - SOUTHERN AREA OFFICE, 3737 MAIN ST 400, RIVERSIDE, CA 92501",117,0,0,"CULVER CITY MOBILEHOME OWNERS ASSOCIATION, C/O LES FRAME ENTERPRISES INC 1635 AVIATION BLVD, REDONDO BEACH, CA 90278"
ANTELOPE CENTER TRAILER PARK,LOS ANGELES,19-0046-MP,"8807 E PALMDALE BLVD,  PALMDALE,  CA 93550", PALMDALE,93550, (805) 944-5916,"COUNTY OF LOS ANGELES, 5823 RICKENBACKER RD., COMMERCE, CA 90040","HCD - SOUTHERN AREA OFFICE, 3737 MAIN ST 400, RIVERSIDE, CA 92501",16,0,0,"SUN VILLAGE MHP LLC, 19197 GOLDEN VALLEY ROAD #322, SANTA CLARITA, CA 91387"
GRAD'S TRAILER PARK #3,LOS ANGELES,19-0050-MP,"4345 ROSECRANS AVE,  HAWTHORNE,  CA 90250", HAWTHORNE,90250, (310) 679-0229,"COUNTY OF LOS ANGELES, 5823 RICKENBACKER RD., COMMERCE, CA 90040","HCD - SOUTHERN AREA OFFICE, 3737 MAIN ST 400, RIVERSIDE, CA 92501",14,0,0,"GRAD'S TRAILER PARK'S MARTIN GRAD & SHARON BRESSLER, 19661 GREENBRIAR DR, TARZANA, CA 91356"
BEL AIRE MH LODGE,LOS ANGELES,19-0051-MP,"2336 LEXINGTON AVE,  EL MONTE,  CA 91731", EL MONTE,91731, (310) 444-6411,"COUNTY OF LOS ANGELES, 5823 RICKENBACKER RD., COMMERCE, CA 90040","HCD - SOUTHERN AREA OFFICE, 3737 MAIN ST 400, RIVERSIDE, CA 92501",34,0,0,"WONG ASSOCIATES, 444 S FLOWER ST, LOS ANGELES, CA 90071"
BELL OAKS TP,LOS ANGELES,19-0052-MP,"9258 EAST ARTESIA BLVD,  BELLFLOWER,  CA 90706", BELLFLOWER,90706, (310) 920-8148,"COUNTY OF LOS ANGELES, 5823 RICKENBACKER RD., COMMERCE, CA 90040","HCD - SOUTHERN AREA OFFICE, 3737 MAIN ST 400, RIVERSIDE, CA 92501",28,0,0,"ASSAYAG, JACQUES, 816 CAMINO REAL # 204, REDONDO BEACH, CA 90277"
BELLFAIR TP,LOS ANGELES,19-0054-MP,"9023 E ROSE ST,  BELLFLOWER,  CA 90706", BELLFLOWER,90706, (310) 920-8148,"COUNTY OF LOS ANGELES, 5823 RICKENBACKER RD., COMMERCE, CA 90040","HCD - SOUTHERN AREA OFFICE, 3737 MAIN ST 400, RIVERSIDE, CA 92501",50,0,0,"LANO, LEO, 11985 LAMBERT, TUSTIN, CA 92782"
A-1 TRAILER PARK,LOS ANGELES,19-0057-MP,"10026 E KLENGERMAN AVE,  S EL MONTE,  CA 91733", S EL MONTE,91733, (626) 548-9030,"COUNTY OF LOS ANGELES, 5823 RICKENBACKER RD., COMMERCE, CA 90040","HCD - SOUTHERN AREA OFFICE, 3737 MAIN ST 400, RIVERSIDE, CA 92501",2,7,1,"ALVAREZ, JESUS, 3336 SEAMAN AVE, EL MONTE, CA 91733"
BONNIES TP,LOS ANGELES,19-0073-MP,"5903 HOLMES AVE,  LOS ANGELES,  CA 90001", LOS ANGELES,90001, (213) 585-8782,"HCD - SOUTHERN AREA OFFICE, 3737 MAIN ST 400, RIVERSIDE, CA 92501","HCD - SOUTHERN AREA OFFICE, 3737 MAIN ST 400, RIVERSIDE, CA 92501",8,0,0,"LO, SHAO, 9841 BROADWAY, TEMPLE CITY, CA 91780"
SHADY LANE MP,LOS ANGELES,19-0079-MP,"2532 MOUNTAIN VIEW RD,  EL MONTE,  CA 91731", EL MONTE,91731, (213) 585-8782,"COUNTY OF LOS ANGELES, 5823 RICKENBACKER RD., COMMERCE, CA 90040","HCD - SOUTHERN AREA OFFICE, 3737 MAIN ST 400, RIVERSIDE, CA 92501",20,0,0,"GHUMAN, DASH, 2532 MOUNTAIN VIEW RD, EL MONTE, CA 91731"
SHADY LANE TP,LOS ANGELES,19-0084-MP,"7221 E SOMERSET AVE #0223,  PARAMOUNT,  CA 90723", PARAMOUNT,90723, (310) 630-1602,"COUNTY OF LOS ANGELES, 5823 RICKENBACKER RD., COMMERCE, CA 90040","HCD - SOUTHERN AREA OFFICE, 3737 MAIN ST 400, RIVERSIDE, CA 92501",29,0,0,"MOBILEHOME GROUP I LLC CALIFORNIA PARTNERSHIP, 4900 SANTA ANITA AVE #2C, EL MONTE, CA 91731"
BUSCH TRAILER CT,LOS ANGELES,19-0086-MP,"7916 JABONERIA RD,  BELL GARDENS,  CA 90201", BELL GARDENS,90201, (310) 806-9284,"COUNTY OF LOS ANGELES, 5823 RICKENBACKER RD., COMMERCE, CA 90040","HCD - SOUTHERN AREA OFFICE, 3737 MAIN ST 400, RIVERSIDE, CA 92501",6,0,0,"JERVIS, DONALD, PO BOX 39970, DOWNEY, CA 90239"
VILLA VERMONT MHP,LOS ANGELES,19-0088-MP,"13713 S VERMONT,  GARDENA,  CA 90247", GARDENA,90247, (626) 377-0638,"COUNTY OF LOS ANGELES, 5823 RICKENBACKER RD., COMMERCE, CA 90040","HCD - SOUTHERN AREA OFFICE, 3737 MAIN ST 400, RIVERSIDE, CA 92501",34,0,0,"YANG, WAYNE, PO BOX 3363, CITY OF INDUSTRY, CA 91744"
GREEN ACRE TP,LOS ANGELES,19-0091-MP,"4511 CECELIA ST,  CUDAHY,  CA 90201", CUDAHY,90201, (213) 771-8352,"COUNTY OF LOS ANGELES, 5823 RICKENBACKER RD., COMMERCE, CA 90040","HCD - SOUTHERN AREA OFFICE, 3737 MAIN ST 400, RIVERSIDE, CA 92501",25,0,0,"NORTON, BILL, 24322 SANTA CLARA #4, DANA POINT, CA 92629"
CALIFORNIA TRAILER GROVE,LOS ANGELES,19-0092-MP,"222 E FOOTHILL BLVD,  POMONA,  CA 91767", POMONA,91767, (909) 596-6132,"COUNTY OF LOS ANGELES, 5823 RICKENBACKER RD., COMMERCE, CA 90040","HCD - SOUTHERN AREA OFFICE, 3737 MAIN ST 400, RIVERSIDE, CA 92501",39,47,0,"MOBILE HOME GROUP I, LLC, 4900 SANTA ANITA AVE., #2C, EL MONTE, CA 91731"
CAMP WILLIAMS,LOS ANGELES,19-0095-MP,"24210 E EAST FORK RD,  AZUSA,  CA 91702", AZUSA,91702, (909) 596-6132,"COUNTY OF LOS ANGELES, 5823 RICKENBACKER RD., COMMERCE, CA 90040","HCD - SOUTHERN AREA OFFICE, 3737 MAIN ST 400, RIVERSIDE, CA 92501",44,0,49,"LENZ, ROBERT, 3515 HIGHLAND AVE SUITE # 101, MANHATTAN BEACH, CA 90266"
LITTLE FOX TRAILER COURT,LOS ANGELES,19-0097-MP,"272 N TOPANGA CANYON BLVD,  TOPANGA,  CA 90290", TOPANGA,90290, (310) 230-2427,"COUNTY OF LOS ANGELES, 5823 RICKENBACKER RD., COMMERCE, CA 90040","HCD - SOUTHERN AREA OFFICE, 3737 MAIN ST 400, RIVERSIDE, CA 92501",1,3,0,"272 TOPANGA LLC, 16321 PACIFIC COAST HIGHWAY #C, PACIFIC PALISADES, CA 90272"
MULBERRY MOBILE HOME PARK,LOS ANGELES,19-0100-MP,"25000 HAWKBRYN AVE,  SANTA CLARITA,  CA 91321", SANTA CLARITA,91321, (661) 259-3678,"COUNTY OF LOS ANGELES, 5823 RICKENBACKER RD., COMMERCE, CA 90040","HCD - SOUTHERN AREA OFFICE, 3737 MAIN ST 400, RIVERSIDE, CA 92501",109,0,0,"JDH CAPITAL LLC, 22231 MULHOLLAND HWY #101, CALABASAS, CA 91302"
SKYLARK HAWTHORNE MP,LOS ANGELES,19-0109-MP,"3225 W ROSECRANS AVE,  HAWTHORNE,  CA 90250", HAWTHORNE,90250, (818) 284-0958,"COUNTY OF LOS ANGELES, 5823 RICKENBACKER RD., COMMERCE, CA 90040","HCD - SOUTHERN AREA OFFICE, 3737 MAIN ST 400, RIVERSIDE, CA 92501",18,0,0,"DOLORES, STOCKTON, 2049 CENTURY PARK EAST SUITE # 1200, LOS ANGELES, CA 90067"
HOLLYVIEW MOBILEHOME PARK,LOS ANGELES,19-0111-MP,"1349 1/2 WEST 135TH ST,  GARDENA,  CA 90247", GARDENA,90247, (310) 719-8736,"COUNTY OF LOS ANGELES, 5823 RICKENBACKER RD., COMMERCE, CA 90040","HCD - SOUTHERN AREA OFFICE, 3737 MAIN ST 400, RIVERSIDE, CA 92501",19,0,0,"BERNAL, AMELIA, PO BOX 3475, GARDENA, CA 90247"
WOODLAND GROVE TP,LOS ANGELES,19-0116-MP,"8614 E FLOWER,  PARAMOUNT,  CA 90723", PARAMOUNT,90723, (562) 633-6585,"COUNTY OF LOS ANGELES, 5823 RICKENBACKER RD., COMMERCE, CA 90040","HCD - SOUTHERN AREA OFFICE, 3737 MAIN ST 400, RIVERSIDE, CA 92501",29,0,0,"SMITH, EVELYN, KENNETH SMITH PO BOX 2365, BORREGO SPGS, CA 92004"
CITRUS DRIVE TRAILER PARK,LOS ANGELES,19-0117-MP,"4731 CITRUS DR,  PICO RIVERA,  CA 90660", PICO RIVERA,90660, (562) 463-0574,"COUNTY OF LOS ANGELES, 5823 RICKENBACKER RD., COMMERCE, CA 90040","HCD - SOUTHERN AREA OFFICE, 3737 MAIN ST 400, RIVERSIDE, CA 92501",28,0,0,"FLICK, FREDERICK, 18742 VAN NESS AVE, TORRANCE, CA 90504"
CERRITOS MOBILE LODGE,LOS ANGELES,19-0122-MP,"11733 166TH ST,  NORWALK,  CA 90650", NORWALK,90650, (213) 722-1061,"COUNTY OF LOS ANGELES, 5823 RICKENBACKER RD., COMMERCE, CA 90040","NORWALK BUILDING DEPARTMENT, MOBILEHOME PARKS PROGRAM, 12700 SOUTH NORWALK BLVD  RM 12, NORWALK, CA 90650",40,0,0,"CERRITOS MOBILE LODGE, 11733 E 166TH ST, NORWALK, CA 90650"
ALTA LOMA TRAILER CT,LOS ANGELES,19-0124-MP,"2449 LOMA AVE #0053,  S EL MONTE,  CA 91733", S EL MONTE,91733, (626) 575-3070,"COUNTY OF LOS ANGELES, 5823 RICKENBACKER RD., COMMERCE, CA 90040","HCD - SOUTHERN AREA OFFICE, 3737 MAIN ST 400, RIVERSIDE, CA 92501",30,0,0,"GROUP XI PICO RIVERA PROPERTIES, LP, 4900 SANTA ANITA AVE #2C, EL MONTE, CA 91731"
SANTA FE VILLAGE MHC,LOS ANGELES,19-0127-MP,"1740 N SANTA FE AVE,  COMPTON,  CA 90221", COMPTON,90221, (714) 379-4888,"COUNTY OF LOS ANGELES, 5823 RICKENBACKER RD., COMMERCE, CA 90040","HCD - SOUTHERN AREA OFFICE, 3737 MAIN ST 400, RIVERSIDE, CA 92501",44,0,0,"1740 N. SANTA FE AVE MHP, LLC, 22880 SAVI RANCH PKWY, YORBA LINDA, CA 92887"
COMPTON KNOLLS MHP,LOS ANGELES,19-0128-MP,"15021 S WADSWORTH,  COMPTON,  CA 90220", COMPTON,90220, (310) 273-4177,"COUNTY OF LOS ANGELES, 5823 RICKENBACKER RD., COMMERCE, CA 90040","HCD - SOUTHERN AREA OFFICE, 3737 MAIN ST 400, RIVERSIDE, CA 92501",28,0,0,"DANNY, DOUGLAS, 3722 AMARYLLIS DR, SAN DIEGO, CA 92106"
CONANTS TP,LOS ANGELES,19-0129-MP,"9427 E RUSH ST,  S EL MONTE,  CA 91733", S EL MONTE,91733, (818) 443-5942,"COUNTY OF LOS ANGELES, 5823 RICKENBACKER RD., COMMERCE, CA 90040","HCD - SOUTHERN AREA OFFICE, 3737 MAIN ST 400, RIVERSIDE, CA 92501",52,0,0,"ROSEMEAD HOLDING LLC, 221 N ORANGE AVE, CITY INDUSTRY, CA 91744"
COUNTRY MOBILE ESTATES,LOS ANGELES,19-0140-MP,"16754 E AVE X,  LLANO,  CA 93544", LLANO,93544, (661) 944-3434,"COUNTY OF LOS ANGELES, 5823 RICKENBACKER RD., COMMERCE, CA 90040","HCD - SOUTHERN AREA OFFICE, 3737 MAIN ST 400, RIVERSIDE, CA 92501",87,0,0,"LLANO COUNTRY MOBILE ESTATES, LLC, 1044 E PROVIDENCIA ST, BURBANK, CA 91501"
DELUXE TRAILER LODGE,LOS ANGELES,19-0164-MP,"529 E EL SEGUNDO BLVD,  COMPTON,  CA 90222", COMPTON,90222, (310) 631-6827,"COUNTY OF LOS ANGELES, 5823 RICKENBACKER RD., COMMERCE, CA 90040","HCD - SOUTHERN AREA OFFICE, 3737 MAIN ST 400, RIVERSIDE, CA 92501",55,0,0,"FINK, JERRY, 22880 SAVI RANCH PKWY, YORBA LINDA, CA 92887"
PARK SANTA FE,LOS ANGELES,19-0168-MP,"8933 S SANTA FE SPRINGS RD,  WHITTIER,  CA 90606", WHITTIER,90606, (562) 698-5224,"COUNTY OF LOS ANGELES, 5823 RICKENBACKER RD., COMMERCE, CA 90040","HCD - SOUTHERN AREA OFFICE, 3737 MAIN ST 400, RIVERSIDE, CA 92501",32,0,0,"SOLIZ, TIBURCIO, 8949 SANTA FE SPRINGS RD, WHITTIER, CA 90604"
GLEN ELM MOBILE HOMES,LOS ANGELES,19-0170-MP,"11017 33 DODSON ST,  EL MONTE,  CA 91731", EL MONTE,91731, (818) 444-4727,"COUNTY OF LOS ANGELES, 5823 RICKENBACKER RD., COMMERCE, CA 90040","HCD - SOUTHERN AREA OFFICE, 3737 MAIN ST 400, RIVERSIDE, CA 92501",34,0,0,"BAYER, DAN, 4804 LAUREL CANYON BLVD. #742, VALLEY VILLAGE, CA 91607"
TELSTAR MP,LOS ANGELES,19-0173-MP,"343 E AVE Q,  PALMDALE,  CA 93550", PALMDALE,93550, (805) 947-6633,"COUNTY OF LOS ANGELES, 5823 RICKENBACKER RD., COMMERCE, CA 90040","HCD - SOUTHERN AREA OFFICE, 3737 MAIN ST 400, RIVERSIDE, CA 92501",30,0,0,"CARMEL CENTINELA HOLDINGS, 10234 NATIONAL BLVD. #1, LOS ANGELES, CA 90034"
GARVEY TRAILER PARK,LOS ANGELES,19-0193-MP,"9561 E GARVEY AVENUE,  S EL MONTE,  CA 91733", S EL MONTE,91733, (714) 827-1252,"COUNTY OF LOS ANGELES, 5823 RICKENBACKER RD., COMMERCE, CA 90040","HCD - SOUTHERN AREA OFFICE, 3737 MAIN ST 400, RIVERSIDE, CA 92501",29,0,0,"ANENOME INDUSTRIES LLC, PO BOX 721, ROSEMEAD, CA 91770"
EL NOR TP,LOS ANGELES,19-0196-MP,"1414 W EL SEGUNDO BLVD,  GARDENA,  CA 90247", GARDENA,90247, (310) 329-7187,"COUNTY OF LOS ANGELES, 5823 RICKENBACKER RD., COMMERCE, CA 90040","HCD - SOUTHERN AREA OFFICE, 3737 MAIN ST 400, RIVERSIDE, CA 92501",41,0,0,"DZIKOWSKI, TED, LASALLE INVESTMENTS 44925 ACACIA AVE, HEMET, CA 92544"
NORWALK MOBILE LODGE,LOS ANGELES,19-0198-MP,"16341 PIONEER BLVD,  NORWALK,  CA 90650", NORWALK,90650, (310) 329-7187,"COUNTY OF LOS ANGELES, 5823 RICKENBACKER RD., COMMERCE, CA 90040","NORWALK BUILDING DEPARTMENT, MOBILEHOME PARKS PROGRAM, 12700 SOUTH NORWALK BLVD  RM 12, NORWALK, CA 90650",92,0,0,"JAMES FLESH ET AL, PO BOX 3925, ONTARIO, CA 91761"
ELMWOOD TRAILER PARK,LOS ANGELES,19-0206-MP,"8025 SORENSEN AVE,  SANTA FE SPRINGS,  CA 90670", SANTA FE SPRINGS,90670, (310) 696-3866,"HCD - SOUTHERN AREA OFFICE, 3737 MAIN ST 400, RIVERSIDE, CA 92501","HCD - SOUTHERN AREA OFFICE, 3737 MAIN ST 400, RIVERSIDE, CA 92501",19,0,0,"WALDRON, DONALD, PO BOX 92312, CITY OF INDUSTRY, CA 91715"
MARINELAND MHP,LOS ANGELES,19-0209-MP,"531 PIER AVE,  HERMOSA BEACH,  CA 90254", HERMOSA BEACH,90254, (310) 374-6161,"HCD - SOUTHERN AREA OFFICE, 3737 MAIN ST 400, RIVERSIDE, CA 92501","HCD - SOUTHERN AREA OFFICE, 3737 MAIN ST 400, RIVERSIDE, CA 92501",60,0,0,"MARINELAND COMMUNITY ASSOC INC, C/O LES FRAME MGMT 1635 AVIATION BLVD, REDONDO BEACH, CA 90278"
MID CITY MHP,LOS ANGELES,19-0210-MP,"5656 CLARA ST,  BELL GARDENS,  CA 90201", BELL GARDENS,90201, (310) 928-2392,"COUNTY OF LOS ANGELES, 5823 RICKENBACKER RD., COMMERCE, CA 90040","HCD - SOUTHERN AREA OFFICE, 3737 MAIN ST 400, RIVERSIDE, CA 92501",25,0,0,"SAVANT, BARBARA, 135 NORTHSTAR MALL, MARINA DEL REY, CA 90292"
FELIPE TP,LOS ANGELES,19-0218-MP,"12328 FELIPE ST,  EL MONTE,  CA 91732", EL MONTE,91732, (818) 448-5849,"COUNTY OF LOS ANGELES, 5823 RICKENBACKER RD., COMMERCE, CA 90040","HCD - SOUTHERN AREA OFFICE, 3737 MAIN ST 400, RIVERSIDE, CA 92501",11,0,0,"HUANG, CHU, 2440 S HACIENDA BLVD #132, HACIENDA HEIGHTS, CA 91745"
FLAMINGO TP,LOS ANGELES,19-0220-MP,"17444 S LAKEWOOD BLVD,  BELLFLOWER,  CA 90706", BELLFLOWER,90706, (714) 974-0397,"COUNTY OF LOS ANGELES, 5823 RICKENBACKER RD., COMMERCE, CA 90040","HCD - SOUTHERN AREA OFFICE, 3737 MAIN ST 400, RIVERSIDE, CA 92501",47,0,0,"J& H PROPERTIES, 22880 SAVI RANCH PKWY, YORBA LINDA, CA 92887"
PALM VISTA,LOS ANGELES,19-0221-MP,"9921 FLORA VISTA AVE,  BELLFLOWER,  CA 90706", BELLFLOWER,90706,,"COUNTY OF LOS ANGELES, 5823 RICKENBACKER RD., COMMERCE, CA 90040","HCD - SOUTHERN AREA OFFICE, 3737 MAIN ST 400, RIVERSIDE, CA 92501",15,0,0,"PALM VISTA LLC, 4820 E 2ND ST #5, LONG BEACH, CA 90803"
SERENITY ACRES MHP,LOS ANGELES,19-0225-MP,"24833 N SAN FERNANDO RD,  SANTA CLARITA,  CA 91321", SANTA CLARITA,91321, (805) 259-5536,"COUNTY OF LOS ANGELES, 5823 RICKENBACKER RD., COMMERCE, CA 90040","HCD - SOUTHERN AREA OFFICE, 3737 MAIN ST 400, RIVERSIDE, CA 92501",28,0,0,"KEENAN L BROWN, CONSERVATOR FOR RAMONA SHAW, 603-B EAST UNIVERSITY DRIVE # 311, CARSON, CA 90746"
JAY COR TP,LOS ANGELES,19-0229-MP,"5540 QUINN ST,  BELL GARDENS,  CA 90201", BELL GARDENS,90201, (310) 792-1660,"COUNTY OF LOS ANGELES, 5823 RICKENBACKER RD., COMMERCE, CA 90040","HCD - SOUTHERN AREA OFFICE, 3737 MAIN ST 400, RIVERSIDE, CA 92501",30,0,0,"GRAHAM, JOE, C/O IRMA ORTIZ (PROP MGR) P.O. BOX 1007, TORRANCE, CA 90505"
FAIR HAVEN TP,LOS ANGELES,19-0230-MP,"9235 E ARTESIA,  BELLFLOWER,  CA 90706", BELLFLOWER,90706, (310) 920-0029,"COUNTY OF LOS ANGELES, 5823 RICKENBACKER RD., COMMERCE, CA 90040","HCD - SOUTHERN AREA OFFICE, 3737 MAIN ST 400, RIVERSIDE, CA 92501",51,0,0,"CHAU FAIRHAVEN RENTALS LLC, 17031 BOLERO LANE, HUNTINGTON BEACH, CA 92649"
BRENHAVEN TP,LOS ANGELES,19-0234-MP,"13324 INGLEWOOD AVE,  HAWTHORNE,  CA 90250", HAWTHORNE,90250, (310) 547-1374,"COUNTY OF LOS ANGELES, 5823 RICKENBACKER RD., COMMERCE, CA 90040","HCD - SOUTHERN AREA OFFICE, 3737 MAIN ST 400, RIVERSIDE, CA 92501",25,0,0,"DELUNA, MANUEL, 7343 W MANCHESTER AVE, LOS ANGELES, CA 90045"
ARROW GLEN MANOR LLC,LOS ANGELES,19-0235-MP,"19850 E ARROW HWY,  COVINA,  CA 91724", COVINA,91724, (626) 331-2432,"COUNTY OF LOS ANGELES, 5823 RICKENBACKER RD., COMMERCE, CA 90040","HCD - SOUTHERN AREA OFFICE, 3737 MAIN ST 400, RIVERSIDE, CA 92501",102,0,0,"ARROW GLEN MANOR LLC, PO BOX 3370, ONTARIO, CA 91761"
ELMS MOBILE MANOR,LOS ANGELES,19-0243-MP,"13720 E VALLEY BLVD,  LA PUENTE,  CA 91746", LA PUENTE,91746, (626) 333-8112,"COUNTY OF LOS ANGELES, 5823 RICKENBACKER RD., COMMERCE, CA 90040","HCD - SOUTHERN AREA OFFICE, 3737 MAIN ST 400, RIVERSIDE, CA 92501",45,0,0,"RYU, CHUNG, PO BOX 660602, ARCADIA, CA 91006"
GARDEN TRAILER PARK,LOS ANGELES,19-0244-MP,"5825 E FLORENCE AVE,  BELL GARDENS,  CA 90201", BELL GARDENS,90201, (818) 961-1814,"COUNTY OF LOS ANGELES, 5823 RICKENBACKER RD., COMMERCE, CA 90040","HCD - SOUTHERN AREA OFFICE, 3737 MAIN ST 400, RIVERSIDE, CA 92501",27,0,0,"DESERT SPRING INN, LLC, 1626 S HILL ST, LOS ANGELES, CA 90015"
HIDE A WAY,LOS ANGELES,19-0247-MP,"12224 MAGNOLIA AVE #0058,  EL MONTE,  CA 91733", EL MONTE,91733, (818) 280-6075,"COUNTY OF LOS ANGELES, 5823 RICKENBACKER RD., COMMERCE, CA 90040","HCD - SOUTHERN AREA OFFICE, 3737 MAIN ST 400, RIVERSIDE, CA 92501",25,0,0,"GROUP XI, PICO RIVERA, PROPERTIES, LP, 4900 SANTA ANITA AVE, #2C, EL MONTE, CA 91731"
GAGE AVE TP,LOS ANGELES,19-0249-MP,"6600 E GAGE AVE,  BELL GARDENS,  CA 90201", BELL GARDENS,90201, (310) 806-9356,"COUNTY OF LOS ANGELES, 5823 RICKENBACKER RD., COMMERCE, CA 90040","HCD - SOUTHERN AREA OFFICE, 3737 MAIN ST 400, RIVERSIDE, CA 92501",16,0,0,"STEARNS, VIRGINIA, 14544 BELLFLOWER BLVD, BELLFLOWER, CA 90706"
NEW BELL ACRES MOBILE HOME PARK,LOS ANGELES,19-0252-MP,"451 S SELLERS ST,  GLENDORA,  CA 91741", GLENDORA,91741, (626) 354-4822,"COUNTY OF LOS ANGELES, 5823 RICKENBACKER RD., COMMERCE, CA 90040","HCD - SOUTHERN AREA OFFICE, 3737 MAIN ST 400, RIVERSIDE, CA 92501",52,0,0,"TANG, FRANCIS, PO BOX 80706, SAN MARINO, CA 91118"
GRANDVIEW MHP,LOS ANGELES,19-0261-MP,"24100 PENNSYLVANIA AVE,  LOMITA,  CA 90717", LOMITA,90717, (213) 539-2582,"COUNTY OF LOS ANGELES, 5823 RICKENBACKER RD., COMMERCE, CA 90040","HCD - SOUTHERN AREA OFFICE, 3737 MAIN ST 400, RIVERSIDE, CA 92501",40,0,0,"GRANDVIEW MOBILEHOME PARK INC, 24100 PENNSYLVANIA AVE SPACE 100, LOMITA, CA 90717"
VICTORY TRAILER PARK,LOS ANGELES,19-0263-MP,"11208 GARVEY AVE,  EL MONTE,  CA 91731", EL MONTE,91731, (213) 539-2582,"COUNTY OF LOS ANGELES, 5823 RICKENBACKER RD., COMMERCE, CA 90040","HCD - SOUTHERN AREA OFFICE, 3737 MAIN ST 400, RIVERSIDE, CA 92501",3,0,0,"JACKSON, CHOW, 3112 SEAMAN AVE, EL MONTE, CA 91733"
HACIENDA TRAILER PARK,LOS ANGELES,19-0274-MP,"9141 E ALONDRA BLVD,  BELLFLOWER,  CA 90706", BELLFLOWER,90706, (310) 865-4241,"COUNTY OF LOS ANGELES, 5823 RICKENBACKER RD., COMMERCE, CA 90040","HCD - SOUTHERN AREA OFFICE, 3737 MAIN ST 400, RIVERSIDE, CA 92501",39,0,0,"DOSHI, NAVIN, 6418 SPRINGPARK AVE, LOS ANGELES, CA 90056"
HACIENDA MOBILE HOME PARK,LOS ANGELES,19-0275-MP,"11825 E WASHINGTON BLVD,  WHITTIER,  CA 90606", WHITTIER,90606, (310) 696-6042,"COUNTY OF LOS ANGELES, 5823 RICKENBACKER RD., COMMERCE, CA 90040","HCD - SOUTHERN AREA OFFICE, 3737 MAIN ST 400, RIVERSIDE, CA 92501",56,0,0,"HACIENDA MHP 1, LLC, PO BOX 1919, RANCHO CUCAMONGA, CA 91729"
GARFIELD MHP,LOS ANGELES,19-0278-MP,"8422 GARFIELD,  BELL GARDENS,  CA 90201", BELL GARDENS,90201, (310) 375-4897,"COUNTY OF LOS ANGELES, 5823 RICKENBACKER RD., COMMERCE, CA 90040","HCD - SOUTHERN AREA OFFICE, 3737 MAIN ST 400, RIVERSIDE, CA 92501",33,0,0,"FRANICH, PATRICIA, 404 PASEO DEL MAR, PALOS VERDES ESTATES, CA 90274"
HARMONY LANE MP,LOS ANGELES,19-0280-MP,"5666 SHULL ST,  BELL GARDENS,  CA 90201", BELL GARDENS,90201, (310) 928-7906,"COUNTY OF LOS ANGELES, 5823 RICKENBACKER RD., COMMERCE, CA 90040","HCD - SOUTHERN AREA OFFICE, 3737 MAIN ST 400, RIVERSIDE, CA 92501",24,0,0,"MCLEMORE, STEPHEN, 4030 N MILLS AVE, CLAREMONT, CA 91711"
HERMOSA BEACH RV COURT,LOS ANGELES,19-0285-MP,"725 10TH ST,  HERMOSA BEACH,  CA 90254", HERMOSA BEACH,90254, (310) 373-8955,"HCD - SOUTHERN AREA OFFICE, 3737 MAIN ST 400, RIVERSIDE, CA 92501","HCD - SOUTHERN AREA OFFICE, 3737 MAIN ST 400, RIVERSIDE, CA 92501",0,0,19,"BREDESEN, CHRIS, 1820 S ELENA AVE SUITE # L, REDONDO BEACH, CA 90277"
HILLVIEW TRAILER CT,LOS ANGELES,19-0291-MP,"2325 LOMITA BLVD,  LOMITA,  CA 90717", LOMITA,90717, (310) 251-0577,"COUNTY OF LOS ANGELES, 5823 RICKENBACKER RD., COMMERCE, CA 90040","HCD - SOUTHERN AREA OFFICE, 3737 MAIN ST 400, RIVERSIDE, CA 92501",8,0,0,"ZAMORA, MARITSA, 16834 MERIT AVE, GARDENA, CA 90247"
L\R TP,LOS ANGELES,19-0298-MP,"14524 HAWTHORNE BLVD,  LAWNDALE,  CA 90260", LAWNDALE,90260, (310) 675-4761,"COUNTY OF LOS ANGELES, 5823 RICKENBACKER RD., COMMERCE, CA 90040","HCD - SOUTHERN AREA OFFICE, 3737 MAIN ST 400, RIVERSIDE, CA 92501",17,0,0,"CLAYTON, DAVID, 23740 HAWTHORNE BLVD 2ND FLOOR, TORRANCE, CA 90505"
SHAMROCK MHP,LOS ANGELES,19-0302-MP,"4850 DURFEE AVE,  PICO RIVERA,  CA 90660", PICO RIVERA,90660, (818) 966-7303,"COUNTY OF LOS ANGELES, 5823 RICKENBACKER RD., COMMERCE, CA 90040","HCD - SOUTHERN AREA OFFICE, 3737 MAIN ST 400, RIVERSIDE, CA 92501",11,0,0,"PEREZ, MANUEL, 3432 RANCHO DEL MONICO RD, COVINA, CA 91724"
HUB CITY MHP,LOS ANGELES,19-0309-MP,"1515 N LONG BEACH BLVD,  COMPTON,  CA 90221", COMPTON,90221, (714) 493-1199,"COUNTY OF LOS ANGELES, 5823 RICKENBACKER RD., COMMERCE, CA 90040","HCD - SOUTHERN AREA OFFICE, 3737 MAIN ST 400, RIVERSIDE, CA 92501",7,0,0,"ALPHA ASSOCIATES, PO BOX 2544 DAVID OR LOIS POWERS AGENTS, MISSION VIEJO, CA 92690"
HUMBERT TP,LOS ANGELES,19-0310-MP,"2743 N HUMBERT AVE,  S EL MONTE,  CA 91733", S EL MONTE,91733, (562) 863-9681,"COUNTY OF LOS ANGELES, 5823 RICKENBACKER RD., COMMERCE, CA 90040","HCD - SOUTHERN AREA OFFICE, 3737 MAIN ST 400, RIVERSIDE, CA 92501",10,0,0,"COLLEARY, SARA, 12646 KALNOR AVE, NORWALK, CA 90650"
LONE PALM TP,LOS ANGELES,19-0311-MP,"10923 S PRAIRIE AVE,  INGLEWOOD,  CA 90303", INGLEWOOD,90303, (310) 419-6089,"COUNTY OF LOS ANGELES, 5823 RICKENBACKER RD., COMMERCE, CA 90040","HCD - SOUTHERN AREA OFFICE, 3737 MAIN ST 400, RIVERSIDE, CA 92501",0,12,0,"PATEL, BALUBHAI, 255 S RENO ST, LOS ANGELES, CA 90057"
HAWTHORNE MHP,LOS ANGELES,19-0318-MP,"12414 INGLEWOOD AVE,  HAWTHORNE,  CA 90250", HAWTHORNE,90250, (818) 902-1003,"COUNTY OF LOS ANGELES, 5823 RICKENBACKER RD., COMMERCE, CA 90040","HCD - SOUTHERN AREA OFFICE, 3737 MAIN ST 400, RIVERSIDE, CA 92501",10,0,0,"IMPERIAL ESTATE MANAGEMENT, 18017 CHATSWORTH ST SPACE # 82, GRANADA HILLS, CA 91344"
SKYLINE HOMES,LOS ANGELES,19-0324-MP,"12201 GARVEY AVE,  EL MONTE,  CA 91733", EL MONTE,91733, (999) 442-1350,"COUNTY OF LOS ANGELES, 5823 RICKENBACKER RD., COMMERCE, CA 90040","HCD - SOUTHERN AREA OFFICE, 3737 MAIN ST 400, RIVERSIDE, CA 92501",34,0,0,"LEIAEOHA PROPERTIES INC, PO BOX 2842, LAGUNA HILLS, CA 92653"
ROYBAL CT,LOS ANGELES,19-0333-MP,"10920 KLINGERMAN,  S EL MONTE,  CA 91733", S EL MONTE,91733, (818) 334-4679,"COUNTY OF LOS ANGELES, 5823 RICKENBACKER RD., COMMERCE, CA 90040","HCD - SOUTHERN AREA OFFICE, 3737 MAIN ST 400, RIVERSIDE, CA 92501",4,0,0,"ROYBAL, FRED, PO BOX 382, AZUSA, CA 91702"
VILLAGE MOBILE HOME PARK,LOS ANGELES,19-0338-MP,"2638 MOUNTAIN VIEW RD,  EL MONTE,  CA 91732", EL MONTE,91732, (626) 279-9736,"COUNTY OF LOS ANGELES, 5823 RICKENBACKER RD., COMMERCE, CA 90040","HCD - SOUTHERN AREA OFFICE, 3737 MAIN ST 400, RIVERSIDE, CA 92501",23,0,0,"UFER LIVING TRUST, PO BOX 5684, EL MONTE, CA 91734"
COZY TRAILER PARK,LOS ANGELES,19-0343-MP,"25338 WALNUT ST,  LOMITA,  CA 90717", LOMITA,90717, (818) 789-2773,"COUNTY OF LOS ANGELES, 5823 RICKENBACKER RD., COMMERCE, CA 90040","HCD - SOUTHERN AREA OFFICE, 3737 MAIN ST 400, RIVERSIDE, CA 92501",26,0,0,"CABLE, GERTRUDE, 1036 MAGGIE LN, NIPOMO, CA 93444"
SM TP,LOS ANGELES,19-0344-MP,"9557 E ARTESIA BLVD,  BELLFLOWER,  CA 90706", BELLFLOWER,90706, (310) 866-9962,"COUNTY OF LOS ANGELES, 5823 RICKENBACKER RD., COMMERCE, CA 90040","HCD - SOUTHERN AREA OFFICE, 3737 MAIN ST 400, RIVERSIDE, CA 92501",5,0,1,"MIRI, SEYED, PO BOX 901, CULVER CITY, CA 90232"
LA PUENTE TP,LOS ANGELES,19-0352-MP,"14946 E VALLEY BLVD,  LA PUENTE,  CA 91744", LA PUENTE,91744, (310) 866-9962,"COUNTY OF LOS ANGELES, 5823 RICKENBACKER RD., COMMERCE, CA 90040","HCD - SOUTHERN AREA OFFICE, 3737 MAIN ST 400, RIVERSIDE, CA 92501",12,0,0,"RADER, ROLAND, 15021 ROCKFOLD DR, HACIENDA HEIGHTS, CA 91745"
VALLEY RANCHO MHP,LOS ANGELES,19-0354-MP,"2909 ARROW HWY,  LA VERNE,  CA 91750", LA VERNE,91750, (909) 593-1614,"COUNTY OF LOS ANGELES, 5823 RICKENBACKER RD., COMMERCE, CA 90040","HCD - SOUTHERN AREA OFFICE, 3737 MAIN ST 400, RIVERSIDE, CA 92501",89,0,0,"CITY OF LA VERNE, 1910 S. ARCHIBALD AVE SUITE # S, ONTARIO, CA 91761"
LAZY SPOKES TP,LOS ANGELES,19-0358-MP,"10931 S FIRST AVE,  WHITTIER,  CA 90603", WHITTIER,90603, (562) 947-1314,"COUNTY OF LOS ANGELES, 5823 RICKENBACKER RD., COMMERCE, CA 90040","HCD - SOUTHERN AREA OFFICE, 3737 MAIN ST 400, RIVERSIDE, CA 92501",19,12,0,"ASCHIERIS, MIKE, 1575 PALCENTIA AVE, NEWPORT BEACH, CA 92663"
BON AIR MOBILE HOME PARK,LOS ANGELES,19-0359-MP,"25615 NARBONNE AVE,  LOMITA,  CA 90717", LOMITA,90717, (310) 530-9501,"COUNTY OF LOS ANGELES, 5823 RICKENBACKER RD., COMMERCE, CA 90040","HCD - SOUTHERN AREA OFFICE, 3737 MAIN ST 400, RIVERSIDE, CA 92501",18,0,0,"LINDLEY, DAN, 1815 LOMITA BLVD, LOMITA, CA 90717"
THE ELMS PARK,LOS ANGELES,19-0362-MP,"9021 E ALONDRA BLVD,  BELLFLOWER,  CA 90706", BELLFLOWER,90706, (310) 924-7884,"COUNTY OF LOS ANGELES, 5823 RICKENBACKER RD., COMMERCE, CA 90040","HCD - SOUTHERN AREA OFFICE, 3737 MAIN ST 400, RIVERSIDE, CA 92501",0,0,8,"SUN WEST MORTGAGE CO, HARI AGARWAL P.O BOX 1052, ARTESIA, CA 90702"
HOMEWARD TRAILER CT,LOS ANGELES,19-0368-MP,"9122-9204 E ARTESIA BLVD,  BELLFLOWER,  CA 90706", BELLFLOWER,90706, (568) 867-1792,"COUNTY OF LOS ANGELES, 5823 RICKENBACKER RD., COMMERCE, CA 90040","HCD - SOUTHERN AREA OFFICE, 3737 MAIN ST 400, RIVERSIDE, CA 92501",26,0,0,"WLW INVESTMENT LP, PO BOX 6395, ALHAMBRA, CA 91802"
LOMITA LANE TP,LOS ANGELES,19-0375-MP,"1901 LOMITA BLVD,  LOMITA,  CA 90717", LOMITA,90717, (310) 530-9501,"COUNTY OF LOS ANGELES, 5823 RICKENBACKER RD., COMMERCE, CA 90040","HCD - SOUTHERN AREA OFFICE, 3737 MAIN ST 400, RIVERSIDE, CA 92501",44,0,0,"LINDLEY, DAN, 1815 LOMITA BLVD, LOMITA, CA 90717"
LONE PALM TRAILER LODGE,LOS ANGELES,19-0376-MP,"10919 S PRAIRIE AVE,  INGLEWOOD,  CA 90301", INGLEWOOD,90301, (310) 419-6089,"COUNTY OF LOS ANGELES, 5823 RICKENBACKER RD., COMMERCE, CA 90040","HCD - SOUTHERN AREA OFFICE, 3737 MAIN ST 400, RIVERSIDE, CA 92501",0,21,0,"PATEL, BALUBHAI, 255 S RENO ST, LOS ANGELES, CA 90057"
LOS ARROYOS TRAILER CT,LOS ANGELES,19-0380-MP,"8707 E GARVEY,  ROSEMEAD,  CA 91770", ROSEMEAD,91770, (626) 285-6460,"COUNTY OF LOS ANGELES, 5823 RICKENBACKER RD., COMMERCE, CA 90040","HCD - SOUTHERN AREA OFFICE, 3737 MAIN ST 400, RIVERSIDE, CA 92501",17,0,0,"WANG, DANA, 30163 VIA RIVIERA, RANCHO PALOS VERDES, CA 90275"
MEISTER,LOS ANGELES,19-0383-MP,"2666 TROY AVE.,  S EL MONTE,  CA 91733", S EL MONTE,91733, (626) 443-4141,"COUNTY OF LOS ANGELES, 5823 RICKENBACKER RD., COMMERCE, CA 90040","HCD - SOUTHERN AREA OFFICE, 3737 MAIN ST 400, RIVERSIDE, CA 92501",28,0,0,"MEISTER, DAN, 2740 N BRVIN, SOUTH EL MONTE, CA 91733"
COOKS TRAILER PARK,LOS ANGELES,19-0385-MP,"12843 GARVEY,  BALDWIN PARK,  CA 91706", BALDWIN PARK,91706, (818) 960-2187,"COUNTY OF LOS ANGELES, 5823 RICKENBACKER RD., COMMERCE, CA 90040","HCD - SOUTHERN AREA OFFICE, 3737 MAIN ST 400, RIVERSIDE, CA 92501",27,0,0,"MARTINEZ, VICTOR, PO BOX 1919, RANCHO CUCAMONGA, CA 91729"
MAGNOLIA TP,LOS ANGELES,19-0393-MP,"11949 MAGNOLIA ST,  EL MONTE,  CA 91732", EL MONTE,91732, (714) 827-1252,"COUNTY OF LOS ANGELES, 5823 RICKENBACKER RD., COMMERCE, CA 90040","HCD - SOUTHERN AREA OFFICE, 3737 MAIN ST 400, RIVERSIDE, CA 92501",39,0,0,"MAGNOLIA MHP LLC, 476 NAOMI AVE, ARCADIA, CA 91007"
SARAPAS MHP,LOS ANGELES,19-0394-MP,"12412 S MAIN ST,  LOS ANGELES,  CA 90061", LOS ANGELES,90061, (213) 777-4596,"HCD - SOUTHERN AREA OFFICE, 3737 MAIN ST 400, RIVERSIDE, CA 92501","HCD - SOUTHERN AREA OFFICE, 3737 MAIN ST 400, RIVERSIDE, CA 92501",16,0,0,"CALDWELL, ANTONIA, 12412 SOUTH MAIN ST, LOS ANGELES, CA 90061"
SHADEAIR TP,LOS ANGELES,19-0398-MP,"12239 MAGNOLIA AVE,  EL MONTE,  CA 91733", EL MONTE,91733, (818) 448-7147,"COUNTY OF LOS ANGELES, 5823 RICKENBACKER RD., COMMERCE, CA 90040","HCD - SOUTHERN AREA OFFICE, 3737 MAIN ST 400, RIVERSIDE, CA 92501",32,0,0,"ELEGANT DYNASTY USA LTD, 2122 SALTO DR, HACIENDA HEIGHTS, CA 91745"
MAYFAIR TP,LOS ANGELES,19-0403-MP,"9740 E CEDAR ST,  BELLFLOWER,  CA 90706", BELLFLOWER,90706, (310) 866-4004,"COUNTY OF LOS ANGELES, 5823 RICKENBACKER RD., COMMERCE, CA 90040","HCD - SOUTHERN AREA OFFICE, 3737 MAIN ST 400, RIVERSIDE, CA 92501",23,0,0,"PPS PC PARKS LLC, PO BOX 1687, BELLFLOWER, CA 90707"
PINES MHP,LOS ANGELES,19-0409-MP,"16118 BELLFLOWER BLVD #0009,  BELLFLOWER,  CA 90706", BELLFLOWER,90706, (626) 575-3070,"COUNTY OF LOS ANGELES, 5823 RICKENBACKER RD., COMMERCE, CA 90040","HCD - SOUTHERN AREA OFFICE, 3737 MAIN ST 400, RIVERSIDE, CA 92501",44,0,0,"GROUP XI PICO RIVERA PROPERTIES, LP, 4900 SANTA ANITA AVE #2C, EL MONTE, CA 91731"
SPRING TP,LOS ANGELES,19-0417-MP,"11433 CARSON ST,  LAKEWOOD,  CA 90715", LAKEWOOD,90715, (714) 361-0649,"COUNTY OF LOS ANGELES, 5823 RICKENBACKER RD., COMMERCE, CA 90040","HCD - SOUTHERN AREA OFFICE, 3737 MAIN ST 400, RIVERSIDE, CA 92501",13,0,0,"VANDORDRECHT, ARTHUR, 7471 RAMPANT LN, LA PALMA, CA 90623"
MIDTOWN TP,LOS ANGELES,19-0418-MP,"9614 EAST ARTESIA,  BELLFLOWER,  CA 90706", BELLFLOWER,90706, (562) 925-9593,"COUNTY OF LOS ANGELES, 5823 RICKENBACKER RD., COMMERCE, CA 90040","HCD - SOUTHERN AREA OFFICE, 3737 MAIN ST 400, RIVERSIDE, CA 92501",24,0,0,"CHAU PROPERTY RENTALS LLC, C/O PETER CHAU 17031 BOLERO LNE, HUNTINGTON BEACH, CA 92649"
ARTESIA MOBILE HOME PARK,LOS ANGELES,19-0421-MP,"9453 ARTESIA BLVD,  BELLFLOWER,  CA 90706", BELLFLOWER,90706, (949) 274-0972,"COUNTY OF LOS ANGELES, 5823 RICKENBACKER RD., COMMERCE, CA 90040","HCD - SOUTHERN AREA OFFICE, 3737 MAIN ST 400, RIVERSIDE, CA 92501",6,0,0,"MIEDEMA FAMILY TRUST C/O DAVID MIEDEMA, 1048 IRVINE AVE #407, NEWPORT BEACH, CA 92660"
MILL JACKS MHP,LOS ANGELES,19-0423-MP,"13440 S LAKEWOOD BLVD,  BELLFLOWER,  CA 90706", BELLFLOWER,90706, (310) 634-2222,"COUNTY OF LOS ANGELES, 5823 RICKENBACKER RD., COMMERCE, CA 90040","HCD - SOUTHERN AREA OFFICE, 3737 MAIN ST 400, RIVERSIDE, CA 92501",96,0,0,"MILL JACKS TRAILER PARK, LLC, 3731 SEASCAPE DR, HUNTINGTON BEACH, CA 92649"
RAY MAR TP,LOS ANGELES,19-0425-MP,"823 REALTY ST,  CARSON,  CA 90745", CARSON,90745, (999) 835-7029,"COUNTY OF LOS ANGELES, 5823 RICKENBACKER RD., COMMERCE, CA 90040","HCD - SOUTHERN AREA OFFICE, 3737 MAIN ST 400, RIVERSIDE, CA 92501",27,0,0,"PECKHAM, VICTOR, 823 REALTY ST #3, CARSON, CA 90745"
THE COACHMAN,LOS ANGELES,19-0432-MP,"5919 E FLORENCE AVE,  BELL GARDENS,  CA 90201", BELL GARDENS,90201, (213) 771-6928,"COUNTY OF LOS ANGELES, 5823 RICKENBACKER RD., COMMERCE, CA 90040","HCD - SOUTHERN AREA OFFICE, 3737 MAIN ST 400, RIVERSIDE, CA 92501",25,0,0,"STOCKTON, DOLORES, 1875 CENTURY PARK EAST SUITE # 600, LOS ANGELES, CA 90067"
BELLFLOWER TRAILER HAVEN,LOS ANGELES,19-0435-MP,"16234 S BELLFLOWER,  BELLFLOWER,  CA 90706", BELLFLOWER,90706, (310) 866-3683,"COUNTY OF LOS ANGELES, 5823 RICKENBACKER RD., COMMERCE, CA 90040","HCD - SOUTHERN AREA OFFICE, 3737 MAIN ST 400, RIVERSIDE, CA 92501",18,0,0,"WESTHOFF, DOUGLAS, PAMELA WESTHOFF P.O. BOX 4149, TORRANCE, CA 90510"
MONTEREY TRAILER PARK,LOS ANGELES,19-0436-MP,"6411 MONTEREY RD,  LOS ANGELES,  CA 90042", LOS ANGELES,90042, (213) 258-2250,"HCD - SOUTHERN AREA OFFICE, 3737 MAIN ST 400, RIVERSIDE, CA 92501","HCD - SOUTHERN AREA OFFICE, 3737 MAIN ST 400, RIVERSIDE, CA 92501",28,0,0,"6329 MONTEREY RD LLC, 150 MONTECITO SUITE # D, SIERRA MADRE, CA 91024"
MONTEREY PASS TP,LOS ANGELES,19-0437-MP,"450 S MONTEREY PASS RD,  MONTEREY PARK,  CA 91754", MONTEREY PARK,91754, (213) 628-7645,"HCD - SOUTHERN AREA OFFICE, 3737 MAIN ST 400, RIVERSIDE, CA 92501","HCD - SOUTHERN AREA OFFICE, 3737 MAIN ST 400, RIVERSIDE, CA 92501",25,0,0,"WONG, WILLARD, PO BOX 1256, MONTEREY PARK, CA 91754"
ALVAREZ TP,LOS ANGELES,19-0439-MP,"4150 MARINE AVE,  LAWNDALE,  CA 90260", LAWNDALE,90260, (818) 286-5909,"COUNTY OF LOS ANGELES, 5823 RICKENBACKER RD., COMMERCE, CA 90040","HCD - SOUTHERN AREA OFFICE, 3737 MAIN ST 400, RIVERSIDE, CA 92501",14,0,0,"ALVAREZ, DESI, PO BOX 3003, MANHATTAN BEACH, CA 90266"
CEDAR BROOK MP,LOS ANGELES,19-0442-MP,"8647 E CEDAR ST,  BELLFLOWER,  CA 90706", BELLFLOWER,90706, (562) 866-8333,"COUNTY OF LOS ANGELES, 5823 RICKENBACKER RD., COMMERCE, CA 90040","HCD - SOUTHERN AREA OFFICE, 3737 MAIN ST 400, RIVERSIDE, CA 92501",21,0,0,"MYERS, LEONA, 14607 LEAHY, BELLFLOWER, CA 90706"
STORYBOOK PARK,LOS ANGELES,19-0444-MP,"8510 ELIZABETH LAKE RD,  LEONA VALLEY,  CA 93551", LEONA VALLEY,93551, (661) 916-4318,"COUNTY OF LOS ANGELES, 5823 RICKENBACKER RD., COMMERCE, CA 90040","HCD - SOUTHERN AREA OFFICE, 3737 MAIN ST 400, RIVERSIDE, CA 92501",15,0,0,"HAMMOND FAMILY TRUST BY CARL L HAMMOND, 3400 RIDGE FORD DR, WESTLAKE VILLAGE, CA 91361"
MOUNTAIN VIEW TRAILER CT,LOS ANGELES,19-0446-MP,"2431 MOUNTAIN VIEW RD,  EL MONTE,  CA 91731", EL MONTE,91731, (626) 810-6295,"COUNTY OF LOS ANGELES, 5823 RICKENBACKER RD., COMMERCE, CA 90040","HCD - SOUTHERN AREA OFFICE, 3737 MAIN ST 400, RIVERSIDE, CA 92501",18,0,0,"CODGILL, CLETUS, 18140 GALINIETA ST, ROWLAND HEIGHTS, CA 91748"
J & J MOBILE PARK,LOS ANGELES,19-0452-MP,"5825 QUINN ST,  BELL GARDENS,  CA 90201", BELL GARDENS,90201, (626) 330-5920,"COUNTY OF LOS ANGELES, 5823 RICKENBACKER RD., COMMERCE, CA 90040","HCD - SOUTHERN AREA OFFICE, 3737 MAIN ST 400, RIVERSIDE, CA 92501",6,1,0,"GONZALEZ, JESUS, PO BOX 161, LA HABRA, CA 90631"
3 RS TP,LOS ANGELES,19-0462-MP,"9338 E ARTESIA BLVD,  BELLFLOWER,  CA 90706", BELLFLOWER,90706, (999) 867-5336,"COUNTY OF LOS ANGELES, 5823 RICKENBACKER RD., COMMERCE, CA 90040","HCD - SOUTHERN AREA OFFICE, 3737 MAIN ST 400, RIVERSIDE, CA 92501",14,0,0,"ROTTIGNI, RINO, 9338 E ARTESIA #20, BELLFLOWER, CA 90706"
MARLOW PARK,LOS ANGELES,19-0465-MP,"6818 MARLOW AVE,  BELL GARDENS,  CA 90201", BELL GARDENS,90201, (562) 335-6099,"COUNTY OF LOS ANGELES, 5823 RICKENBACKER RD., COMMERCE, CA 90040","HCD - SOUTHERN AREA OFFICE, 3737 MAIN ST 400, RIVERSIDE, CA 92501",8,0,0,"LARIOS, SALVADOR, 8438 6TH ST, DOWNEY, CA 90241"
OAK PARK ESTATES LLC,LOS ANGELES,19-0467-MP,"26006 OAK ST,  LOMITA,  CA 90717", LOMITA,90717, (310) 326-2729,"COUNTY OF LOS ANGELES, 5823 RICKENBACKER RD., COMMERCE, CA 90040","HCD - SOUTHERN AREA OFFICE, 3737 MAIN ST 400, RIVERSIDE, CA 92501",30,0,0,"SHERMAN, BRADLEY, 1737 PAC CST HWY, LOMITA, CA 90717"
OAK PARK,LOS ANGELES,19-0474-MP,"503 E OAKS AVE,  COMPTON,  CA 90221", COMPTON,90221, (310) 637-7142,"COUNTY OF LOS ANGELES, 5823 RICKENBACKER RD., COMMERCE, CA 90040","HCD - SOUTHERN AREA OFFICE, 3737 MAIN ST 400, RIVERSIDE, CA 92501",21,0,0,"HAMADE, ALIN, 7822 13TH STREET, WESTMINSTER, CA 92683"
MIDGET TP,LOS ANGELES,19-0484-MP,"9903 GARVEY AVE,  EL MONTE,  CA 91733", EL MONTE,91733, (310) 637-7142,"COUNTY OF LOS ANGELES, 5823 RICKENBACKER RD., COMMERCE, CA 90040","HCD - SOUTHERN AREA OFFICE, 3737 MAIN ST 400, RIVERSIDE, CA 92501",11,0,0,"REYES, ALICIA, 17018 COUNTRY PARK LN, HACIENDA HEIGHTS, CA 91745"
WHITTIER EAST MHP,LOS ANGELES,19-0490-MP,"16540 E WHITTIER BLVD,  WHITTIER,  CA 90603", WHITTIER,90603, (310) 943-1010,"COUNTY OF LOS ANGELES, 5823 RICKENBACKER RD., COMMERCE, CA 90040","HCD - SOUTHERN AREA OFFICE, 3737 MAIN ST 400, RIVERSIDE, CA 92501",78,0,0,
ORANGE BLOSSOM MOTEL & TRAILER PARK,LOS ANGELES,19-0492-MP,"1437 W HOLT AVE,  POMONA,  CA 91768", POMONA,91768, (909) 469-6999,"COUNTY OF LOS ANGELES, 5823 RICKENBACKER RD., COMMERCE, CA 90040","HCD - SOUTHERN AREA OFFICE, 3737 MAIN ST 400, RIVERSIDE, CA 92501",22,0,0,"ORANGE BLOSSOM MOTEL & TRAILER PARK, LLC, 1100 VIA VERDE AVE, SAN DIMAS, CA 91773"
ORANGE GROVE TP,LOS ANGELES,19-0494-MP,"19548 CYPRESS AVE,  COVINA,  CA 91724", COVINA,91724, (626) 966-0811,"COUNTY OF LOS ANGELES, 5823 RICKENBACKER RD., COMMERCE, CA 90040","HCD - SOUTHERN AREA OFFICE, 3737 MAIN ST 400, RIVERSIDE, CA 92501",45,0,0,"MARTINEZ, VICTOR, PO BOX 1919, RANCHO CUCAMONGA, CA 91729"
ORANGE GROVE MP,LOS ANGELES,19-0495-MP,"13331 LAKEWOOD BLVD,  DOWNEY,  CA 90242", DOWNEY,90242, (310) 633-0744,"HCD - SOUTHERN AREA OFFICE, 3737 MAIN ST 400, RIVERSIDE, CA 92501","HCD - SOUTHERN AREA OFFICE, 3737 MAIN ST 400, RIVERSIDE, CA 92501",49,0,0,"ECK, ELEANOR, 9955 BROOKSHIRE AVE, DOWNEY, CA 90240"
ORCHARD TRAILER PARK INC,LOS ANGELES,19-0497-MP,"25344 PENNSYLVANIA AVE,  LOMITA,  CA 90717", LOMITA,90717, (310) 326-5304,"COUNTY OF LOS ANGELES, 5823 RICKENBACKER RD., COMMERCE, CA 90040","HCD - SOUTHERN AREA OFFICE, 3737 MAIN ST 400, RIVERSIDE, CA 92501",54,0,0,"SWEYD, SIMMONE, 25852 CEDARBLUFF TERRACE, LAGUNA HILLS, CA 92653"
WESTLAND VILLAGE,LOS ANGELES,19-0498-MP,"1911 W 156TH ST,  COMPTON,  CA 90220", COMPTON,90220, (310) 639-7130,"COUNTY OF LOS ANGELES, 5823 RICKENBACKER RD., COMMERCE, CA 90040","HCD - SOUTHERN AREA OFFICE, 3737 MAIN ST 400, RIVERSIDE, CA 92501",70,0,0,"WESTLAND INDUSTRIES INC, 520 W WILLOW ST, LONG BEACH, CA 90806"
CAPRI PARK,LOS ANGELES,19-0499-MP,"4513 CLARA ST,  CUDAHY,  CA 90201", CUDAHY,90201, (310) 639-7130,"COUNTY OF LOS ANGELES, 5823 RICKENBACKER RD., COMMERCE, CA 90040","HCD - SOUTHERN AREA OFFICE, 3737 MAIN ST 400, RIVERSIDE, CA 92501",24,0,0,"B & D NORTON PROPERTIES INC, 112 ARISTA, SAN CLEMENTE, CA 92673"
PALMS TRAILER PARK,LOS ANGELES,19-0505-MP,"1851 W.  LOMITA BLVD,  LOMITA,  CA 90717", LOMITA,90717, (909) 945-8990,"COUNTY OF LOS ANGELES, 5823 RICKENBACKER RD., COMMERCE, CA 90040","HCD - SOUTHERN AREA OFFICE, 3737 MAIN ST 400, RIVERSIDE, CA 92501",32,0,0,"MICCOLIS, IDA, PO BOX 1919, RANCHO CUCAMONGA, CA 91729"
PALM MOBILE HOME PARK,LOS ANGELES,19-0506-MP,"720 E COMPTON,  COMPTON,  CA 90220", COMPTON,90220, (310) 515-6022,"COUNTY OF LOS ANGELES, 5823 RICKENBACKER RD., COMMERCE, CA 90040","HCD - SOUTHERN AREA OFFICE, 3737 MAIN ST 400, RIVERSIDE, CA 92501",66,0,0,"PALM MHP, LLC, 9123 PISCATAWAY RD UNIT # 999, CLINTON, MD 20735"
FLORENCE PALMS MOBILE HOME PARK,LOS ANGELES,19-0508-MP,"5317 FLORENCE AVE,  BELL,  CA 90201", BELL,90201, (508) 542-0047,"COUNTY OF LOS ANGELES, 5823 RICKENBACKER RD., COMMERCE, CA 90040","HCD - SOUTHERN AREA OFFICE, 3737 MAIN ST 400, RIVERSIDE, CA 92501",3,16,0,"INVERSIONES CALIFORNIA LLC, 8350 FLORENCE AVE SUITE # 900, DOWNEY, CA 90241"
TRI CITY MOBILE LODGE,LOS ANGELES,19-0509-MP,"13441 LAKEWOOD BLVD,  DOWNEY,  CA 90242", DOWNEY,90242, (562) 633-6919,"HCD - SOUTHERN AREA OFFICE, 3737 MAIN ST 400, RIVERSIDE, CA 92501","HCD - SOUTHERN AREA OFFICE, 3737 MAIN ST 400, RIVERSIDE, CA 92501",41,0,0,"ECK, ELEANOR, 9955 BROOKSHIRE AVE, DOWNEY, CA 90240"
MIRACLE TP,LOS ANGELES,19-0510-MP,"1600 W 134TH ST,  GARDENA,  CA 90249", GARDENA,90249, (310) 740-0698,"COUNTY OF LOS ANGELES, 5823 RICKENBACKER RD., COMMERCE, CA 90040","HCD - SOUTHERN AREA OFFICE, 3737 MAIN ST 400, RIVERSIDE, CA 92501",29,0,0,"MIRACLE OWNERS ASSOCIATION, INC., 1600 W. 134TH STREET #3, GARDENA, CA 90249"
PARADISE COVE MHP,LOS ANGELES,19-0515-MP,"28128 PACIFIC COAST HWY,  MALIBU,  CA 90265", MALIBU,90265, (310) 457-2511,"COUNTY OF LOS ANGELES, 5823 RICKENBACKER RD., COMMERCE, CA 90040","HCD - SOUTHERN AREA OFFICE, 3737 MAIN ST 400, RIVERSIDE, CA 92501",262,0,0,"THE KISSEL COMPANY, 28128 PACIFIC COAST HWY, MALIBU, CA 90265"
PARAMOUNT MOBILE HOME PARK,LOS ANGELES,19-0517-MP,"16511 GARFIELD AVE.,  PARAMOUNT,  CA 90723", PARAMOUNT,90723, (562) 531-8594,"COUNTY OF LOS ANGELES, 5823 RICKENBACKER RD., COMMERCE, CA 90040","HCD - SOUTHERN AREA OFFICE, 3737 MAIN ST 400, RIVERSIDE, CA 92501",118,0,0,"PARMOUNT MOBILE HOME PARK LLC, 12625 HIGH BLUFF DR #310, SAN DIEGO, CA 92130"
GOLDEN PACIFIC PROPERTIES,LOS ANGELES,19-0528-MP,"8834 E GARVEY AVE  #12,  ROSEMEAD,  CA 91770", ROSEMEAD,91770, (626) 374-8888,"COUNTY OF LOS ANGELES, 5823 RICKENBACKER RD., COMMERCE, CA 90040","HCD - SOUTHERN AREA OFFICE, 3737 MAIN ST 400, RIVERSIDE, CA 92501",41,0,0,"CHUONG, FA, 6942 FERNCROFT AVE, SAN GABRIEL, CA 91775"
PETES TP,LOS ANGELES,19-0535-MP,"14306 FIRMONA,  LAWNDALE,  CA 90260", LAWNDALE,90260, (310) 676-7026,"COUNTY OF LOS ANGELES, 5823 RICKENBACKER RD., COMMERCE, CA 90040","HCD - SOUTHERN AREA OFFICE, 3737 MAIN ST 400, RIVERSIDE, CA 92501",12,0,0,"WILSON, JAMES, 17252 HAWTHORNE BOULEVARD #415, TORRANCE, CA 90504"
J & E TRAILER PARK,LOS ANGELES,19-0537-MP,"2150 DURFEE AVE,  EL MONTE,  CA 91732", EL MONTE,91732, (626) 442-7837,"COUNTY OF LOS ANGELES, 5823 RICKENBACKER RD., COMMERCE, CA 90040","HCD - SOUTHERN AREA OFFICE, 3737 MAIN ST 400, RIVERSIDE, CA 92501",16,0,0,"GOMEZ, ELVIRA, 2218 DURFEE AVE, EL MONTE, CA 91732"
"EL GARDENA PARKS, LLC",LOS ANGELES,19-0540-MP,"1604 W EL SEGUNDO BLVD,  GARDENA,  CA 90249", GARDENA,90249, (310) 327-4432,"COUNTY OF LOS ANGELES, 5823 RICKENBACKER RD., COMMERCE, CA 90040","HCD - SOUTHERN AREA OFFICE, 3737 MAIN ST 400, RIVERSIDE, CA 92501",29,0,0,"LIEN VU & SON NGUYEN, 3483 CANYON CREEK DR., SAN JOSE, CA 95132"
PALM GARDENS MHP,LOS ANGELES,19-0542-MP,"5629 GOTHAM AVE,  BELL GARDENS,  CA 90201", BELL GARDENS,90201, (310) 792-1660,"COUNTY OF LOS ANGELES, 5823 RICKENBACKER RD., COMMERCE, CA 90040","HCD - SOUTHERN AREA OFFICE, 3737 MAIN ST 400, RIVERSIDE, CA 92501",17,0,0,"DANNY, DOUGLAS, 3722 AMARYLLIS DR, SAN DIEGO, CA 92106"
RAINBOW TRAILER CAMP,LOS ANGELES,19-0548-MP,"8305 ATLANTIC AVE,  CUDAHY,  CA 90201", CUDAHY,90201, (310) 792-1660,"COUNTY OF LOS ANGELES, 5823 RICKENBACKER RD., COMMERCE, CA 90040","HCD - SOUTHERN AREA OFFICE, 3737 MAIN ST 400, RIVERSIDE, CA 92501",28,0,0,"RECTOR, JO, PO BOX 5046, DOWNEY, CA 90241"
RAINBOW MHP,LOS ANGELES,19-0549-MP,"14710 LAKEWOOD BLVD,  BELLFLOWER,  CA 90706", BELLFLOWER,90706, (310) 602-0401,"COUNTY OF LOS ANGELES, 5823 RICKENBACKER RD., COMMERCE, CA 90040","HCD - SOUTHERN AREA OFFICE, 3737 MAIN ST 400, RIVERSIDE, CA 92501",35,0,0,"ASSAYAG, J, 816 CAMINO REAL 204, REDONDO BEACH, CA 90277"
RANCHO MHP,LOS ANGELES,19-0552-MP,"5654 SHULL,  BELL GARDENS,  CA 90201", BELL GARDENS,90201, (310) 927-4253,"COUNTY OF LOS ANGELES, 5823 RICKENBACKER RD., COMMERCE, CA 90040","HCD - SOUTHERN AREA OFFICE, 3737 MAIN ST 400, RIVERSIDE, CA 92501",38,0,0,"WM H STEARNS ET AL, 14544 BELLFLOWER BLVD, BELLFLOWER, CA 90706"
RANCHO LOS CERRITOS TP,LOS ANGELES,19-0555-MP,"14834 LAKEWOOD BLVD #0118,  BELLFLOWER,  CA 90706", BELLFLOWER,90706, (818) 444-2229,"COUNTY OF LOS ANGELES, 5823 RICKENBACKER RD., COMMERCE, CA 90040","HCD - SOUTHERN AREA OFFICE, 3737 MAIN ST 400, RIVERSIDE, CA 92501",25,0,0,"MOBILE HOME GROUP I LLC, 4900 SANTA ANITA #2C, EL MONTE, CA 91731"
LEE TRAILER PARK,LOS ANGELES,19-0560-MP,"2710 N LEE AVE,  S EL MONTE,  CA 91733", S EL MONTE,91733, (626) 812-6484,"COUNTY OF LOS ANGELES, 5823 RICKENBACKER RD., COMMERCE, CA 90040","HCD - SOUTHERN AREA OFFICE, 3737 MAIN ST 400, RIVERSIDE, CA 92501",22,0,0,"DIAZ, CONRAD, 1729 BASELINE RD, LA VERNE, CA 91750"
EL ROVIA MHP,LOS ANGELES,19-0573-MP,"4849 PECK RD,  EL MONTE,  CA 91732", EL MONTE,91732, (626) 448-4234,"COUNTY OF LOS ANGELES, 5823 RICKENBACKER RD., COMMERCE, CA 90040","HCD - SOUTHERN AREA OFFICE, 3737 MAIN ST 400, RIVERSIDE, CA 92501",76,0,0,"EL ROVIA MOBILE HOME PARK, LLC, 3461 BROOKSIDE RD SUITE # C, STOCKTON, CA 95219"
TROPIC TRAILER PARK PARTNERSHIP,LOS ANGELES,19-0585-MP,"8819 PARK ST,  BELLFLOWER,  CA 90706", BELLFLOWER,90706, (714) 717-4524,"COUNTY OF LOS ANGELES, 5823 RICKENBACKER RD., COMMERCE, CA 90040","HCD - SOUTHERN AREA OFFICE, 3737 MAIN ST 400, RIVERSIDE, CA 92501",18,0,0,"TROPICAL VILLA INVESTMENT LLC, 2478 STEVENS AVE, ROSEMEAD, CA 91770"
ROSEMEAD TP,LOS ANGELES,19-0594-MP,"9736 E VALLEY BLVD,  ROSEMEAD,  CA 91770", ROSEMEAD,91770,,"COUNTY OF LOS ANGELES, 5823 RICKENBACKER RD., COMMERCE, CA 90040","HCD - SOUTHERN AREA OFFICE, 3737 MAIN ST 400, RIVERSIDE, CA 92501",33,0,0,"D WONG & ASSOCIATES LLC, 1200 QUAIL ST #235, NEWPORT BEACH, CA 92660"
ROYAL TP,LOS ANGELES,19-0596-MP,"24630 ESHELMAN,  LOMITA,  CA 90717", LOMITA,90717, (310) 534-3118,"COUNTY OF LOS ANGELES, 5823 RICKENBACKER RD., COMMERCE, CA 90040","HCD - SOUTHERN AREA OFFICE, 3737 MAIN ST 400, RIVERSIDE, CA 92501",32,0,0,"GEBHARDT, LEROY, C/O MERIDIAN PROPERTY MGMT P.O. BOX 1007, TORRANCE, CA 90505"
FLAMINGO GARDENS TP,LOS ANGELES,19-0597-MP,"520 E CARSON ST,  CARSON,  CA 90745", CARSON,90745, (310) 530-3302,"COUNTY OF LOS ANGELES, 5823 RICKENBACKER RD., COMMERCE, CA 90040","HCD - SOUTHERN AREA OFFICE, 3737 MAIN ST 400, RIVERSIDE, CA 92501",39,0,0,"FERNANDEZ, IRENE, 25618 AMBERLEAF RD, TORRANCE, CA 90505"
SALT LAKE AVE TRAILER PARK,LOS ANGELES,19-0602-MP,"6631 SALT LAKE AVE,  BELL,  CA 90201", BELL,90201, (213) 587-4479,"COUNTY OF LOS ANGELES, 5823 RICKENBACKER RD., COMMERCE, CA 90040","HCD - SOUTHERN AREA OFFICE, 3737 MAIN ST 400, RIVERSIDE, CA 92501",65,0,0,"ROE, FRED, 25 FLOSSMOOR, DOVE CANYON, CA 92679"
"PETER PAN, MHP",LOS ANGELES,19-0606-MP,"1100 W ALONDRA BLVD,  COMPTON,  CA 90220", COMPTON,90220, (213) 732-4200,"COUNTY OF LOS ANGELES, 5823 RICKENBACKER RD., COMMERCE, CA 90040","HCD - SOUTHERN AREA OFFICE, 3737 MAIN ST 400, RIVERSIDE, CA 92501",54,0,0,"PARK MANAGEMENT & INVESTMENTS, 2141 E BROADWAY RD SUITE #105, TEMPE, AZ 85282"
SANTA FE MHP,LOS ANGELES,19-0609-MP,"2300 NADEAU ST,  HUNTINGTON PARK,  CA 90255", HUNTINGTON PARK,90255, (323) 262-6428,"COUNTY OF LOS ANGELES, 5823 RICKENBACKER RD., COMMERCE, CA 90040","HCD - SOUTHERN AREA OFFICE, 3737 MAIN ST 400, RIVERSIDE, CA 92501",24,0,0,"SANTA FE MANUFACTURED HOUSING COMMUNITY LLC, 6653 EMBARCADERO DR SUITE C, STOCKTON, CA 95219"
KINNEN MHP,LOS ANGELES,19-0622-MP,"23830 NEWHALL AVE,  SANTA CLARITA,  CA 91321", SANTA CLARITA,91321, (805) 259-7140,"COUNTY OF LOS ANGELES, 5823 RICKENBACKER RD., COMMERCE, CA 90040","HCD - SOUTHERN AREA OFFICE, 3737 MAIN ST 400, RIVERSIDE, CA 92501",55,0,0,"KINNEN, MARIA, 8020 W. CLAYVALE RD, AGUA DULCE, CA 91390"
PEPPER TREE TP,LOS ANGELES,19-0629-MP,"2150 E 87TH ST,  LOS ANGELES,  CA 90002", LOS ANGELES,90002, (310) 378-5353,"HCD - SOUTHERN AREA OFFICE, 3737 MAIN ST 400, RIVERSIDE, CA 92501","HCD - SOUTHERN AREA OFFICE, 3737 MAIN ST 400, RIVERSIDE, CA 92501",0,18,0,"SAVANT, C, C/O MANDELBAUM & ASSOC 901 MANHATTAN BEACH BLVD., MANHATTAN BEACH, CA 90266"
SHADYLANE TP,LOS ANGELES,19-0631-MP,"2826 MEEKER AVE,  EL MONTE,  CA 91732", EL MONTE,91732, (714) 827-1252,"COUNTY OF LOS ANGELES, 5823 RICKENBACKER RD., COMMERCE, CA 90040","HCD - SOUTHERN AREA OFFICE, 3737 MAIN ST 400, RIVERSIDE, CA 92501",17,0,0,"STAUCH, DOROTHY, PO BOX 1053, LOS ALAMITOS, CA 90720"
SHADY LANE TRAILER PARK,LOS ANGELES,19-0632-MP,"4523 CECELIA ST,  CUDAHY,  CA 90201", CUDAHY,90201, (818) 442-0383,"COUNTY OF LOS ANGELES, 5823 RICKENBACKER RD., COMMERCE, CA 90040","HCD - SOUTHERN AREA OFFICE, 3737 MAIN ST 400, RIVERSIDE, CA 92501",26,0,0,"4523 CECELIA STREET LLC, PO BOX 21357, EL CAJON, CA 92021"
EDWARDS TRAILER CT,LOS ANGELES,19-0642-MP,"2621 NEVADA ST,  EL MONTE,  CA 91733", EL MONTE,91733, (818) 910-1100,"COUNTY OF LOS ANGELES, 5823 RICKENBACKER RD., COMMERCE, CA 90040","HCD - SOUTHERN AREA OFFICE, 3737 MAIN ST 400, RIVERSIDE, CA 92501",13,0,0,"TAN, ZAKA, PO BOX 5722, HACIENDA HEIGHTS, CA 91745"
RAINBOW,LOS ANGELES,19-0644-MP,"10124 GARVEY AVE,  EL MONTE,  CA 91731", EL MONTE,91731, (909) 278-2494,"COUNTY OF LOS ANGELES, 5823 RICKENBACKER RD., COMMERCE, CA 90040","HCD - SOUTHERN AREA OFFICE, 3737 MAIN ST 400, RIVERSIDE, CA 92501",40,0,0,"BRAXTON JEANS INC., 1026 SINGING WOOD DR, ARCADIA, CA 91006"
SKYLINE MOTEL\MP,LOS ANGELES,19-0652-MP,"1451 W HOLT AVE,  POMONA,  CA 91768", POMONA,91768, (818) 910-1100,"COUNTY OF LOS ANGELES, 5823 RICKENBACKER RD., COMMERCE, CA 90040","HCD - SOUTHERN AREA OFFICE, 3737 MAIN ST 400, RIVERSIDE, CA 92501",21,0,0,"LEGACY GROUP INVESTMENTS LLC, 516 N DIAMOND BAR BLVD #10, DIAMOND BAR, CA 91765"
SMITHY TP,LOS ANGELES,19-0659-MP,"735 N LOREN AVE,  AZUSA,  CA 91702", AZUSA,91702, (626) 339-8369,"COUNTY OF LOS ANGELES, 5823 RICKENBACKER RD., COMMERCE, CA 90040","HCD - SOUTHERN AREA OFFICE, 3737 MAIN ST 400, RIVERSIDE, CA 92501",18,0,0,"CMF PARTNERSHIP LLC, 530 N FIRST AVE, COVINA, CA 91723"
RETREAT TP,LOS ANGELES,19-0661-MP,"25841 WALNUT ST,  LOMITA,  CA 90717", LOMITA,90717, (310) 530-9501,"COUNTY OF LOS ANGELES, 5823 RICKENBACKER RD., COMMERCE, CA 90040","HCD - SOUTHERN AREA OFFICE, 3737 MAIN ST 400, RIVERSIDE, CA 92501",41,0,0,"LINDLEY, DAN, 1815 LOMITA BLVD, LOMITA, CA 90717"
WESTLAND SANTA FE MHP,LOS ANGELES,19-0664-MP,"1680 TARTAR LN,  COMPTON,  CA 90221", COMPTON,90221, (310) 639-7130,"COUNTY OF LOS ANGELES, 5823 RICKENBACKER RD., COMMERCE, CA 90040","HCD - SOUTHERN AREA OFFICE, 3737 MAIN ST 400, RIVERSIDE, CA 92501",42,0,0,"57TH SAGA LLC, 520 W WILLOW ST, LONG BEACH, CA 90806"
STARLITE TP,LOS ANGELES,19-0673-MP,"21926 S VERMONT,  TORRANCE,  CA 90502", TORRANCE,90502, (310) 618-1740,"COUNTY OF LOS ANGELES, 5823 RICKENBACKER RD., COMMERCE, CA 90040","HCD - SOUTHERN AREA OFFICE, 3737 MAIN ST 400, RIVERSIDE, CA 92501",75,0,0,"RIGLIN, KAROLIN, 2336 SANTA FE AVE, TORRANCE, CA 90501"
SUNNYSIDE TRAILER PARK,LOS ANGELES,19-0680-MP,"404 S CENTRAL,  COMPTON,  CA 90220", COMPTON,90220, (562) 866-2289,"COUNTY OF LOS ANGELES, 5823 RICKENBACKER RD., COMMERCE, CA 90040","HCD - SOUTHERN AREA OFFICE, 3737 MAIN ST 400, RIVERSIDE, CA 92501",19,0,0,"BAKER, EUNICE, 16410 CHICAGO AVE, BELLFLOWER, CA 90706"
SUNSET MHP,LOS ANGELES,19-0682-MP,"13418 S LAKEWOOD BLVD,  BELLFLOWER,  CA 90706", BELLFLOWER,90706, (310) 633-1884,"COUNTY OF LOS ANGELES, 5823 RICKENBACKER RD., COMMERCE, CA 90040","HCD - SOUTHERN AREA OFFICE, 3737 MAIN ST 400, RIVERSIDE, CA 92501",30,0,0,"SMITH, ELMER, C /O MERIDIAN PROP, MGMT P.O. BOX 1007, TORRANCE, CA 90505"
JOHNSONS MP,LOS ANGELES,19-0683-MP,"723 W AVE I,  LANCASTER,  CA 93534", LANCASTER,93534, (310) 633-1884,"COUNTY OF LOS ANGELES, 5823 RICKENBACKER RD., COMMERCE, CA 90040","HOUSING AND NEIGHBORHOOD REVITALIZATION, MOBILEHOME PARKS PROGRAM, 44933 NORTH FERN AVENUE, LANCASTER, CA 93534",87,0,0,"WESTERN MHC MANAGEMENT, 185 E SIERRA MADRE BLVD, SIERRA MADRE, CA 91024"
TEDS TP,LOS ANGELES,19-0684-MP,"15828 E WHITTIER BLVD,  WHITTIER,  CA 90603", WHITTIER,90603, (999) 947-1219,"COUNTY OF LOS ANGELES, 5823 RICKENBACKER RD., COMMERCE, CA 90040","HCD - SOUTHERN AREA OFFICE, 3737 MAIN ST 400, RIVERSIDE, CA 92501",9,0,0,"BOELTL, LANNING, 14262 EASTRIDGE DR, WHITTIER, CA 90602"
THRIFTY TP,LOS ANGELES,19-0688-MP,"12703 S SAN PEDRO ST,  LOS ANGELES,  CA 90061", LOS ANGELES,90061, (866) 953-6112,"HCD - SOUTHERN AREA OFFICE, 3737 MAIN ST 400, RIVERSIDE, CA 92501","HCD - SOUTHERN AREA OFFICE, 3737 MAIN ST 400, RIVERSIDE, CA 92501",35,0,0,"CASTROBRAN, ERIC, PO BOX 70220, PASADENA, CA 91117"
TOKTAGOD FARMS,LOS ANGELES,19-0690-MP,"10107 GARVEY AVE,  EL MONTE,  CA 91731", EL MONTE,91731, (213) 777-9175,"COUNTY OF LOS ANGELES, 5823 RICKENBACKER RD., COMMERCE, CA 90040","HCD - SOUTHERN AREA OFFICE, 3737 MAIN ST 400, RIVERSIDE, CA 92501",30,0,0,"WU, CHAO, 401 E LEMON AVE, ARCADIA, CA 91006"
TOLER AVENUE TP,LOS ANGELES,19-0692-MP,"7248 TOLER AVE,  BELL GARDENS,  CA 90201", BELL GARDENS,90201, (310) 928-0049,"COUNTY OF LOS ANGELES, 5823 RICKENBACKER RD., COMMERCE, CA 90040","HCD - SOUTHERN AREA OFFICE, 3737 MAIN ST 400, RIVERSIDE, CA 92501",5,0,0,"SANDOVAL, HERMINIO, PO BOX 1063, DOWNEY, CA 90240"
EL RANCHO MHP,LOS ANGELES,19-0694-MP,"16002 S ATLANTIC,  COMPTON,  CA 90221", COMPTON,90221, (602) 632-7555,"COUNTY OF LOS ANGELES, 5823 RICKENBACKER RD., COMMERCE, CA 90040","HCD - SOUTHERN AREA OFFICE, 3737 MAIN ST 400, RIVERSIDE, CA 92501",157,0,0,"EL RANCHO MHP LLC, 2141 E. BROADWAY ROAD # 105, TEMPE, AZ 85282"
ABC MHP,LOS ANGELES,19-0696-MP,"8006 S ATLANTIC AVE,  CUDAHY,  CA 90201", CUDAHY,90201, (310) 632-7555,"COUNTY OF LOS ANGELES, 5823 RICKENBACKER RD., COMMERCE, CA 90040","HCD - SOUTHERN AREA OFFICE, 3737 MAIN ST 400, RIVERSIDE, CA 92501",68,0,0,"B & D NORTON PROPERTIES INC, 112 ARISTA, SAN CLEMENTE, CA 92673"
TOWN AND COUNTRY TRAILER PARK,LOS ANGELES,19-0697-MP,"375 E SAN BERNARDINO RD,  COVINA,  CA 91723", COVINA,91723, (818) 915-1344,"COUNTY OF LOS ANGELES, 5823 RICKENBACKER RD., COMMERCE, CA 90040","HCD - SOUTHERN AREA OFFICE, 3737 MAIN ST 400, RIVERSIDE, CA 92501",21,0,0,"BROWNSTEIN, PETER, PO BOX 266, TEMPLE CITY, CA 91780"
TRAILERLAND TRAILER PARK,LOS ANGELES,19-0702-MP,"7233 SOMERSET BLVD,  PARAMOUNT,  CA 90723", PARAMOUNT,90723, (714) 391-3932,"COUNTY OF LOS ANGELES, 5823 RICKENBACKER RD., COMMERCE, CA 90040","HCD - SOUTHERN AREA OFFICE, 3737 MAIN ST 400, RIVERSIDE, CA 92501",21,0,0,"TGG HOLDINGS LLC, 13356 ROWEN CT, EASTVALE, CA 92880"
ELMS MOBILE ESTATES,LOS ANGELES,19-0707-MP,"8527 WHITTIER BLVD,  PICO RIVERA,  CA 90660", PICO RIVERA,90660, (310) 948-3755,"COUNTY OF LOS ANGELES, 5823 RICKENBACKER RD., COMMERCE, CA 90040","HCD - SOUTHERN AREA OFFICE, 3737 MAIN ST 400, RIVERSIDE, CA 92501",25,0,0,"DIAZ, IRENE, 7128 FARMLAND AVE, PICO RIVERA, CA 90660"
ROSE TERRACE MP,LOS ANGELES,19-0713-MP,"9522 GIOVANE ST,  S EL MONTE,  CA 91733", S EL MONTE,91733, (818) 448-2810,"COUNTY OF LOS ANGELES, 5823 RICKENBACKER RD., COMMERCE, CA 90040","HCD - SOUTHERN AREA OFFICE, 3737 MAIN ST 400, RIVERSIDE, CA 92501",46,0,0,"SO EL MONTE INVESTMENT LLC, 3592 ROSEMEAD BLVD #199, ROSEMEAD, CA 91770"
BLUE SKIES MHP,LOS ANGELES,19-0714-MP,"1717 E AVE I,  LANCASTER,  CA 93535", LANCASTER,93535, (661) 794-3673,"COUNTY OF LOS ANGELES, 5823 RICKENBACKER RD., COMMERCE, CA 90040","HOUSING AND NEIGHBORHOOD REVITALIZATION, MOBILEHOME PARKS PROGRAM, 44933 NORTH FERN AVENUE, LANCASTER, CA 93534",101,0,0,"SILVER VALLEY INVESTMENT LLC, 2478 STEVENS AVE., ROSEMEAD, CA 91770"
HALLDALE MHP,LOS ANGELES,19-0715-MP,"1515 W 135TH ST,  GARDENA,  CA 90249", GARDENA,90249, (805) 942-7625,"COUNTY OF LOS ANGELES, 5823 RICKENBACKER RD., COMMERCE, CA 90040","HCD - SOUTHERN AREA OFFICE, 3737 MAIN ST 400, RIVERSIDE, CA 92501",35,0,0,"HALLDALE TRAILER PARK LLC, PO BOX 3388, MANHATTAN BEACH, CA 90266"
GARDENA MHP,LOS ANGELES,19-0716-MP,"13801 S VERMONT AVE,  GARDENA,  CA 90247", GARDENA,90247, (213) 487-0800,"COUNTY OF LOS ANGELES, 5823 RICKENBACKER RD., COMMERCE, CA 90040","HCD - SOUTHERN AREA OFFICE, 3737 MAIN ST 400, RIVERSIDE, CA 92501",66,0,0,"GARDENA MHP LLC, 3511 DEL PASO RD, SUITE 160147, SACRAMENTO, CA 95835"
BELL GARDENS TRAILER PARK,LOS ANGELES,19-0717-MP,"5943 CECILA,  BELL GARDENS,  CA 90201", BELL GARDENS,90201, (310) 927-4972,"COUNTY OF LOS ANGELES, 5823 RICKENBACKER RD., COMMERCE, CA 90040","HCD - SOUTHERN AREA OFFICE, 3737 MAIN ST 400, RIVERSIDE, CA 92501",20,0,0,"SAVANT, BARBARA, 135 NORTHSTAR MALL, MARINA DEL REY, CA 90292"
SHADY ELMS MOBILE HOME & RV PARK,LOS ANGELES,19-0718-MP,"43155 N SIERRA HWY,  LANCASTER,  CA 93534", LANCASTER,93534, (661) 948-3350,"COUNTY OF LOS ANGELES, 5823 RICKENBACKER RD., COMMERCE, CA 90040","HOUSING AND NEIGHBORHOOD REVITALIZATION, MOBILEHOME PARKS PROGRAM, 44933 NORTH FERN AVENUE, LANCASTER, CA 93534",64,0,3,"LOW MAC,LLC, PO BOX 3025, VISALIA, CA 93278"
VAGABOND VILLA PARK,LOS ANGELES,19-0727-MP,"10037 GARVEY AVE,  EL MONTE,  CA 91731", EL MONTE,91731, (999) 442-6170,"COUNTY OF LOS ANGELES, 5823 RICKENBACKER RD., COMMERCE, CA 90040","HCD - SOUTHERN AREA OFFICE, 3737 MAIN ST 400, RIVERSIDE, CA 92501",48,0,0,"THESING, MICHAEL, 30291 VIA BRISA, TEMECULA, CA 92590"
TREELANE COMMUNITY PARK LLC,LOS ANGELES,19-0728-MP,"1020 BRADBOURNE AVE,  DUARTE,  CA 91010", DUARTE,91010, (818) 358-8116,"COUNTY OF LOS ANGELES, 5823 RICKENBACKER RD., COMMERCE, CA 90040","HCD - SOUTHERN AREA OFFICE, 3737 MAIN ST 400, RIVERSIDE, CA 92501",91,0,0,"TREELANE COMMUNITY PARK LLC, 4804 LAUREL CYN BL  #742, VALLEY VILLAGE, CA 91607"
ROBINS PARK,LOS ANGELES,19-0740-MP,"17820 LAKEWOOD BLVD,  BELLFLOWER,  CA 90706", BELLFLOWER,90706, (310) 920-0161,"COUNTY OF LOS ANGELES, 5823 RICKENBACKER RD., COMMERCE, CA 90040","HCD - SOUTHERN AREA OFFICE, 3737 MAIN ST 400, RIVERSIDE, CA 92501",38,0,0,"EICHE, DENNIS, 24040 CAMINO DEL AVION #PMB 293, MONARCH BEACH, CA 92629"
GARVEY MHP,LOS ANGELES,19-0743-MP,"9540 E GARVEY AVE #0036,  S EL MONTE,  CA 91733", S EL MONTE,91733, (626) 575-3070,"COUNTY OF LOS ANGELES, 5823 RICKENBACKER RD., COMMERCE, CA 90040","HCD - SOUTHERN AREA OFFICE, 3737 MAIN ST 400, RIVERSIDE, CA 92501",35,0,0,"GROUP XI PICO RIVERA PROPERTIES, LP, 4900 SANTA ANITA AVE #2C, EL MONTE, CA 91731"
SOMERSET PARK,LOS ANGELES,19-0744-MP,"7530  SOMERSET BLVD,  PARAMOUNT,  CA 90723", PARAMOUNT,90723, (310) 633-6263,"COUNTY OF LOS ANGELES, 5823 RICKENBACKER RD., COMMERCE, CA 90040","HCD - SOUTHERN AREA OFFICE, 3737 MAIN ST 400, RIVERSIDE, CA 92501",21,0,0,"GREB, MARIE, 13701 ANANADALE DR 13G, SEAL BEACH, CA 90740"
VILLAGE TRAILER PARK,LOS ANGELES,19-0745-MP,"2930 COLORADO AVE,  SANTA MONICA,  CA 90404", SANTA MONICA,90404, (310) 458-8355,"HCD - SOUTHERN AREA OFFICE, 3737 MAIN ST 400, RIVERSIDE, CA 92501","SANTA MONICA BUILDING DEPARTMENT, MOBILEHOME PARKS PROGRAM, 1685 MAIN STREET RM 111, SANTA MONICA, CA 90401",10,0,0,"MILLENNIUM SANTA MONICA, LLC, 1010 SOUTH COAST HIGHWAY SUITE # 106, ENCINITAS, CA 92024"
WALNUT GROVE MP,LOS ANGELES,19-0751-MP,"2548 S PECK RD,  MONROVIA,  CA 91016", MONROVIA,91016, (818) 358-1566,"HCD - SOUTHERN AREA OFFICE, 3737 MAIN ST 400, RIVERSIDE, CA 92501","HCD - SOUTHERN AREA OFFICE, 3737 MAIN ST 400, RIVERSIDE, CA 92501",51,0,0,"MONROVIA 50 LLC, PO BOX 1919, RANCHO CUCAMONGA, CA 91729"
WALNUT MHP,LOS ANGELES,19-0752-MP,"9022 S PAINTER AVE,  WHITTIER,  CA 90602", WHITTIER,90602, (310) 696-4541,"COUNTY OF LOS ANGELES, 5823 RICKENBACKER RD., COMMERCE, CA 90040","HCD - SOUTHERN AREA OFFICE, 3737 MAIN ST 400, RIVERSIDE, CA 92501",35,0,0,"WALNUT PARK PARTNERSHIP, 17300 RED HILL AVE SUITE # 280, IRVINE, CA 92614"
WESTMONT CT,LOS ANGELES,19-0760-MP,"1622 EL SEGUNDO BLVD,  GARDENA,  CA 90247", GARDENA,90247, (310) 696-4541,"COUNTY OF LOS ANGELES, 5823 RICKENBACKER RD., COMMERCE, CA 90040","HCD - SOUTHERN AREA OFFICE, 3737 MAIN ST 400, RIVERSIDE, CA 92501",13,0,0,"COATES, JEFFREY, 1860 W PAGE AVE, FULLERTON, CA 92833"
WHEEL TP,LOS ANGELES,19-0765-MP,"15523 LAKEWOOD BLVD,  PARAMOUNT,  CA 90723", PARAMOUNT,90723, (310) 630-1827,"COUNTY OF LOS ANGELES, 5823 RICKENBACKER RD., COMMERCE, CA 90040","HCD - SOUTHERN AREA OFFICE, 3737 MAIN ST 400, RIVERSIDE, CA 92501",29,0,0,"COLE, SUSIE, 15523 LAKEWOOD BLVD, PARAMOUNT, CA 90723"
WHITMAN TP,LOS ANGELES,19-0771-MP,"13515 S. MARIPOSA AVE.,  GARDENA,  CA 90247", GARDENA,90247, (310) 212-6660,"COUNTY OF LOS ANGELES, 5823 RICKENBACKER RD., COMMERCE, CA 90040","HCD - SOUTHERN AREA OFFICE, 3737 MAIN ST 400, RIVERSIDE, CA 92501",9,0,0,"TRACEY, JACQUELYN, 2515 SONOMA ST, TORRANCE, CA 90503"
OAKGROVE FAMILY PARK LLC,LOS ANGELES,19-0776-MP,"12753 W SIERRA HWY,  AGUA DULCE,  CA 91350", AGUA DULCE,91350, (818) 881-6633,"COUNTY OF LOS ANGELES, 5823 RICKENBACKER RD., COMMERCE, CA 90040","HCD - SOUTHERN AREA OFFICE, 3737 MAIN ST 400, RIVERSIDE, CA 92501",37,0,0,"THE ROGERS FAMILY TRUST, MATTHEW ROGERS 17216 SATICOY ST., #361, VAN NUYS, CA 91406"
VIRGILS MHP,LOS ANGELES,19-0777-MP,"17604 08 S LAKEWOOD BLVD,  BELLFLOWER,  CA 90706", BELLFLOWER,90706, (562) 925-5982,"COUNTY OF LOS ANGELES, 5823 RICKENBACKER RD., COMMERCE, CA 90040","HCD - SOUTHERN AREA OFFICE, 3737 MAIN ST 400, RIVERSIDE, CA 92501",24,0,0,"ESTATE OF VIRGIL J. CUCULICI, 420 MCKINLEY STREET, STE. 111-368, CORONA, CA 92879"
BELLWOOD MHP,LOS ANGELES,19-0784-MP,"15717 S WOODRUFF AVE,  BELLFLOWER,  CA 90706", BELLFLOWER,90706, (562) 866-1813,"COUNTY OF LOS ANGELES, 5823 RICKENBACKER RD., COMMERCE, CA 90040","HCD - SOUTHERN AREA OFFICE, 3737 MAIN ST 400, RIVERSIDE, CA 92501",47,0,0,"HALE, JOHN, 1635 AVIATION BLVD, REDONDO BEACH, CA 90278"
WRIGHTS TP,LOS ANGELES,19-0786-MP,"9339 ARTESIA BLVD,  BELLFLOWER,  CA 90706", BELLFLOWER,90706, (818) 284-9590,"COUNTY OF LOS ANGELES, 5823 RICKENBACKER RD., COMMERCE, CA 90040","HCD - SOUTHERN AREA OFFICE, 3737 MAIN ST 400, RIVERSIDE, CA 92501",8,0,0,"PPS PC PARKS LLC, PO BOX 1687, BELLFLOWER, CA 90707"
CARAVAN TRAILER LODGE,LOS ANGELES,19-0789-MP,"13007 YUKON AVE,  HAWTHORNE,  CA 90250", HAWTHORNE,90250, (310) 406-2200,"COUNTY OF LOS ANGELES, 5823 RICKENBACKER RD., COMMERCE, CA 90040","HCD - SOUTHERN AREA OFFICE, 3737 MAIN ST 400, RIVERSIDE, CA 92501",19,0,0,"BARKER, ROD, 2699 PACIFIC COAST HWY SUITE 100, HERMOSA BEACH, CA 90254"
JOSHUA VIEW MHP,LOS ANGELES,19-0792-MP,"6150 E AVE T,  PALMDALE,  CA 93552", PALMDALE,93552, (626) 533-3300,"COUNTY OF LOS ANGELES, 5823 RICKENBACKER RD., COMMERCE, CA 90040","HCD - SOUTHERN AREA OFFICE, 3737 MAIN ST 400, RIVERSIDE, CA 92501",76,0,0,"INCOME ESTATES LLC, 449 W FOOTHILL BLVD STE 149, GLENDORA, CA 91741"
PIONEER TP,LOS ANGELES,19-0794-MP,"11713 FIRESTONE BLVD,  NORWALK,  CA 90650", NORWALK,90650, (805) 533-3300,"COUNTY OF LOS ANGELES, 5823 RICKENBACKER RD., COMMERCE, CA 90040","NORWALK BUILDING DEPARTMENT, MOBILEHOME PARKS PROGRAM, 12700 SOUTH NORWALK BLVD  RM 12, NORWALK, CA 90650",20,0,0,"CHEN, ZUEIHWA, 5 TURNBERRY, NEWPORT BEACH, CA 92660"
ZEPHYR MHP,LOS ANGELES,19-0795-MP,"11143 S PRAIRIE AVE,  INGLEWOOD,  CA 90303", INGLEWOOD,90303, (310) 673-7140,"COUNTY OF LOS ANGELES, 5823 RICKENBACKER RD., COMMERCE, CA 90040","HCD - SOUTHERN AREA OFFICE, 3737 MAIN ST 400, RIVERSIDE, CA 92501",12,0,0,"PATEL, RAMESH, 11143 S. PRAIRIE AVENUE, INGLEWOOD, CA 90303"
PARADISE TP,LOS ANGELES,19-0796-MP,"8069 E GARVEY AVE,  ROSEMEAD,  CA 91770", ROSEMEAD,91770, (626) 280-4711,"COUNTY OF LOS ANGELES, 5823 RICKENBACKER RD., COMMERCE, CA 90040","HCD - SOUTHERN AREA OFFICE, 3737 MAIN ST 400, RIVERSIDE, CA 92501",60,0,0,"SAN GARVEY INVESTMENTS, LLC, 227 W. VALLEY BLVD. #308, SAN GABRIEL, CA 91776"
HILLVIEW MOBILE HOME COMMUNITIES,LOS ANGELES,19-0799-MP,"3825 W VALLEY BLVD,  POMONA,  CA 91765", POMONA,91765, (909) 595-3246,"COUNTY OF LOS ANGELES, 5823 RICKENBACKER RD., COMMERCE, CA 90040","HCD - SOUTHERN AREA OFFICE, 3737 MAIN ST 400, RIVERSIDE, CA 92501",59,0,0,"HILLVIEW MHC LLC, 6653 EMBARCADERO DR SUITE # C, STOCKTON, CA 95219"
EL RANCHO MHP,LOS ANGELES,19-0803-MP,"44122 N 20TH ST EAST,  LANCASTER,  CA 93535", LANCASTER,93535, (805) 942-2417,"COUNTY OF LOS ANGELES, 5823 RICKENBACKER RD., COMMERCE, CA 90040","HOUSING AND NEIGHBORHOOD REVITALIZATION, MOBILEHOME PARKS PROGRAM, 44933 NORTH FERN AVENUE, LANCASTER, CA 93534",75,0,0,"KARMA LLC, PO BOX 915, TUSTIN, CA 92781"
ADOBE MHP,LOS ANGELES,19-0804-MP,"9329 E ARTESIA BLVD,  BELLFLOWER,  CA 90706", BELLFLOWER,90706, (805) 942-2417,"COUNTY OF LOS ANGELES, 5823 RICKENBACKER RD., COMMERCE, CA 90040","HCD - SOUTHERN AREA OFFICE, 3737 MAIN ST 400, RIVERSIDE, CA 92501",13,0,0,"PPS PC PARKS LLC, PO BOX 1687, BELLFLOWER, CA 90707"
ADOBE MHP,LOS ANGELES,19-0805-MP,"1424 W 135TH ST,  GARDENA,  CA 90249", GARDENA,90249, (424) 256-4598,"COUNTY OF LOS ANGELES, 5823 RICKENBACKER RD., COMMERCE, CA 90040","HCD - SOUTHERN AREA OFFICE, 3737 MAIN ST 400, RIVERSIDE, CA 92501",53,0,0,"ADOBE OWNERS ASSOCIATION, INC., 1424 W 135TH STREET #C22, GARDENA, CA 90249"
SUNWEST MANUFACTURED HOUSING COMMUNITY,LOS ANGELES,19-0806-MP,"13525 S VERMONT AVE,  GARDENA,  CA 90247", GARDENA,90247, (310) 329-4007,"COUNTY OF LOS ANGELES, 5823 RICKENBACKER RD., COMMERCE, CA 90040","HCD - SOUTHERN AREA OFFICE, 3737 MAIN ST 400, RIVERSIDE, CA 92501",38,0,0,"SUNWEST MANUFACTURED HOUSING COMMUNITY LLC, 6653 EMBARCADERO DR SUITE C, STOCKTON, CA 95219"
SHULL GARDENS MHP,LOS ANGELES,19-0808-MP,"5678 SHULL ST,  BELL GARDENS,  CA 90201", BELL GARDENS,90201, (310) 927-1818,"COUNTY OF LOS ANGELES, 5823 RICKENBACKER RD., COMMERCE, CA 90040","HCD - SOUTHERN AREA OFFICE, 3737 MAIN ST 400, RIVERSIDE, CA 92501",38,0,0,"SHULL GARDENS MOBILEHOME PARK, 5678 SHULL ST #12, BELL GARDENS, CA 90201"
NORMANDIE MOBILEHOME PARK,LOS ANGELES,19-0810-MP,"21104 S NORMANDIE AVE,  TORRANCE,  CA 90502", TORRANCE,90502, (626) 377-0638,"COUNTY OF LOS ANGELES, 5823 RICKENBACKER RD., COMMERCE, CA 90040","HCD - SOUTHERN AREA OFFICE, 3737 MAIN ST 400, RIVERSIDE, CA 92501",54,0,0,"YANG, WAYNE, PO BOX 3363, CITY OF INDUSTRY, CA 91744"
WESTERN SKIES,LOS ANGELES,19-0814-MP,"3157 E AVE I,  LANCASTER,  CA 93535", LANCASTER,93535, (661) 946-4161,"COUNTY OF LOS ANGELES, 5823 RICKENBACKER RD., COMMERCE, CA 90040","HOUSING AND NEIGHBORHOOD REVITALIZATION, MOBILEHOME PARKS PROGRAM, 44933 NORTH FERN AVENUE, LANCASTER, CA 93534",60,0,0,"CBA SILVER INC, JIM ANDERS 1244 E. ORANGETHORPE, FULLERTON, CA 92831"
SUN TRAILER PARK,LOS ANGELES,19-0815-MP,"12532 LAKEWOOD BLVD,  DOWNEY,  CA 90242", DOWNEY,90242, (562) 862-0119,"HCD - SOUTHERN AREA OFFICE, 3737 MAIN ST 400, RIVERSIDE, CA 92501","HCD - SOUTHERN AREA OFFICE, 3737 MAIN ST 400, RIVERSIDE, CA 92501",30,0,0,"DOSHI, NAVINCHANDRA, 6418 SPRING PARK AVE, LOS ANGELES, CA 90056"
ROLLINGS HILLS TP,LOS ANGELES,19-0819-MP,"24725 PENNSYLVANIA AVE,  LOMITA,  CA 90717", LOMITA,90717, (310) 530-9501,"COUNTY OF LOS ANGELES, 5823 RICKENBACKER RD., COMMERCE, CA 90040","HCD - SOUTHERN AREA OFFICE, 3737 MAIN ST 400, RIVERSIDE, CA 92501",72,0,0,"LINDLEY, DAN, 1815 LOMITA BLVD, LOMITA, CA 90717"
RIO PUENTE TP,LOS ANGELES,19-0820-MP,"6656 ROSECRANS,  PARAMOUNT,  CA 90723", PARAMOUNT,90723, (714) 988-4167,"COUNTY OF LOS ANGELES, 5823 RICKENBACKER RD., COMMERCE, CA 90040","HCD - SOUTHERN AREA OFFICE, 3737 MAIN ST 400, RIVERSIDE, CA 92501",87,0,0,"HOMEWOOD REALTY INC, 1121 E PHILADELPHIA ST, ONTARIO, CA 91761"
VANS MOBILEHOME PARK,LOS ANGELES,19-0821-MP,"8723 ARTESIA BLVD RESIDENT LOT #41,  BELLFLOWER,  CA 90706", BELLFLOWER,90706, (310) 633-4424,"COUNTY OF LOS ANGELES, 5823 RICKENBACKER RD., COMMERCE, CA 90040","HCD - SOUTHERN AREA OFFICE, 3737 MAIN ST 400, RIVERSIDE, CA 92501",90,0,0,"VANS MHP LLC/C, 17300 RED HILL AVE., #280, IRVINE, CA 92614"
CRESTVIEW MHP,LOS ANGELES,19-0822-MP,"1449 E AVE I,  LANCASTER,  CA 93535", LANCASTER,93535, (805) 942-3487,"COUNTY OF LOS ANGELES, 5823 RICKENBACKER RD., COMMERCE, CA 90040","HOUSING AND NEIGHBORHOOD REVITALIZATION, MOBILEHOME PARKS PROGRAM, 44933 NORTH FERN AVENUE, LANCASTER, CA 93534",101,0,0,"STEELE, WILLIAM, C/O TOWER MANAGEMENT 80 S LAKE AVE SUITE 719, PASADENA, CA 91101"
CASA MH COP,LOS ANGELES,19-0823-MP,"7000 E GAGE AVE #7,  BELL GARDENS,  CA 90201", BELL GARDENS,90201, (310) 927-1235,"COUNTY OF LOS ANGELES, 5823 RICKENBACKER RD., COMMERCE, CA 90040","HCD - SOUTHERN AREA OFFICE, 3737 MAIN ST 400, RIVERSIDE, CA 92501",56,0,0,"CASA MOBILEHOME CO-OP, ATTN TREASURER 7000 E GAGE AVE SP #29, BELL GARDENS, CA 90201"
ROSELAKE MOBILODGE,LOS ANGELES,19-0826-MP,"9097 E ROSECRANS AVE,  BELLFLOWER,  CA 90706", BELLFLOWER,90706, (714) 480-6828,"COUNTY OF LOS ANGELES, 5823 RICKENBACKER RD., COMMERCE, CA 90040","HCD - SOUTHERN AREA OFFICE, 3737 MAIN ST 400, RIVERSIDE, CA 92501",23,0,0,"CONNORS FAMILY TRUST, PO BOX 11427, SANTA ANA, CA 92711"
DESERT PALMS MHP,LOS ANGELES,19-0827-MP,"2515 E AVE I,  LANCASTER,  CA 93535", LANCASTER,93535, (805) 251-2723,"COUNTY OF LOS ANGELES, 5823 RICKENBACKER RD., COMMERCE, CA 90040","HOUSING AND NEIGHBORHOOD REVITALIZATION, MOBILEHOME PARKS PROGRAM, 44933 NORTH FERN AVENUE, LANCASTER, CA 93534",56,0,0,"MILANA VIII/LLC, 2445 STANLEY, TUSTIN, CA 92782"
PLACERITA CANYON MHP,LOS ANGELES,19-0829-MP,"21515 PLACERITA CANYON RD,  SANTA CLARITA,  CA 91321", SANTA CLARITA,91321, (805) 259-2571,"COUNTY OF LOS ANGELES, 5823 RICKENBACKER RD., COMMERCE, CA 90040","HCD - SOUTHERN AREA OFFICE, 3737 MAIN ST 400, RIVERSIDE, CA 92501",30,0,0,"LANG, JOHN, 29236 ORION LN, SANTA CLARITA, CA 91390"
MOUNTAIN VIEW,LOS ANGELES,19-0831-MP,"34415 METTER COURT,  PEARBLOSSOM,  CA 93553", PEARBLOSSOM,93553, (661) 723-0077,"COUNTY OF LOS ANGELES, 5823 RICKENBACKER RD., COMMERCE, CA 90040","HCD - SOUTHERN AREA OFFICE, 3737 MAIN ST 400, RIVERSIDE, CA 92501",11,0,0,"METTER, KEITH, PO BOX 605, LANCASTER, CA 93584"
SKYLARK MHP,LOS ANGELES,19-0834-MP,"9113 E ROSECRANS,  BELLFLOWER,  CA 90706", BELLFLOWER,90706, (562) 633-5049,"COUNTY OF LOS ANGELES, 5823 RICKENBACKER RD., COMMERCE, CA 90040","HCD - SOUTHERN AREA OFFICE, 3737 MAIN ST 400, RIVERSIDE, CA 92501",44,0,0,"SKYPARK MHP LP, 2141 E BROADWAY RD #105, TEMPE, AZ 85282"
DANA TP,LOS ANGELES,19-0835-MP,"5550 CLARA ST,  BELL GARDENS,  CA 90201", BELL GARDENS,90201, (999) 630-5666,"COUNTY OF LOS ANGELES, 5823 RICKENBACKER RD., COMMERCE, CA 90040","HCD - SOUTHERN AREA OFFICE, 3737 MAIN ST 400, RIVERSIDE, CA 92501",10,0,1,"GUERARA, JESUS, 21849 SALMON AVE, CARSON, CA 90810"
THE VILLAGERS MOBILE HOME PARK,LOS ANGELES,19-0837-MP,"38525 E 90TH ST,  PALMDALE,  CA 93550", PALMDALE,93550, (661) 946-1472,"COUNTY OF LOS ANGELES, 5823 RICKENBACKER RD., COMMERCE, CA 90040","HCD - SOUTHERN AREA OFFICE, 3737 MAIN ST 400, RIVERSIDE, CA 92501",14,0,0,"RAD-ZIN INVESTMENT LLC, 837 18TH STREET #6, SANTA MONICA, CA 90403"
SUNNY SKIES MHP,LOS ANGELES,19-0839-MP,"45415 28TH ST EAST,  LANCASTER,  CA 93535", LANCASTER,93535, (661) 946-1877,"COUNTY OF LOS ANGELES, 5823 RICKENBACKER RD., COMMERCE, CA 90040","HOUSING AND NEIGHBORHOOD REVITALIZATION, MOBILEHOME PARKS PROGRAM, 44933 NORTH FERN AVENUE, LANCASTER, CA 93534",72,0,0,"MARICOL, LLC, PO BOX 915, TUSTIN, CA 92781"
ELMS MHP,LOS ANGELES,19-0842-MP,"2101 W 245TH ST,  LOMITA,  CA 90717", LOMITA,90717, (310) 534-1750,"COUNTY OF LOS ANGELES, 5823 RICKENBACKER RD., COMMERCE, CA 90040","HCD - SOUTHERN AREA OFFICE, 3737 MAIN ST 400, RIVERSIDE, CA 92501",29,0,0,"SHERMAN, AMELIA, 1737 PAC C ST HWY, LOMITA, CA 90717"
THE GARVEY TP,LOS ANGELES,19-0843-MP,"12214 GARVEY AVE,  EL MONTE,  CA 91731", EL MONTE,91731, (818) 448-1313,"COUNTY OF LOS ANGELES, 5823 RICKENBACKER RD., COMMERCE, CA 90040","HCD - SOUTHERN AREA OFFICE, 3737 MAIN ST 400, RIVERSIDE, CA 92501",13,0,0,"ALCO INVESTMENT INC, PO BOX 572007, TARZANA, CA 91357"
CRESTVIEW LODGE,LOS ANGELES,19-0844-MP,"2350 W 250TH ST,  LOMITA,  CA 90717", LOMITA,90717, (909) 823-1000,"COUNTY OF LOS ANGELES, 5823 RICKENBACKER RD., COMMERCE, CA 90040","HCD - SOUTHERN AREA OFFICE, 3737 MAIN ST 400, RIVERSIDE, CA 92501",58,0,0,"DONNELLY TRUST - GEOFF CLARK -ACTING TRUSTEE, PO BOX 158, UPLAND, CA 91785"
PALMDALE MHP,LOS ANGELES,19-0845-MP,"38015 65TH ST EAST,  PALMDALE,  CA 93550", PALMDALE,93550, (818) 991-6629,"COUNTY OF LOS ANGELES, 5823 RICKENBACKER RD., COMMERCE, CA 90040","HCD - SOUTHERN AREA OFFICE, 3737 MAIN ST 400, RIVERSIDE, CA 92501",45,0,0,"PALMDALE MOBILE PARK ,LLC, 31826 VILLAGE CENTER RD SUITE # C, WESTLAKE VILLAGE, CA 91361"
CARSON GARDENS TRAILER LODGE,LOS ANGELES,19-0847-MP,"437 W CARSON ST,  CARSON,  CA 90745", CARSON,90745, (310) 328-0600,"COUNTY OF LOS ANGELES, 5823 RICKENBACKER RD., COMMERCE, CA 90040","HCD - SOUTHERN AREA OFFICE, 3737 MAIN ST 400, RIVERSIDE, CA 92501",97,0,0,"CARSON MHP ASSOCIATES LP, 320 N PARK VISTA ST, ANAHEIM, CA 92806"
RALPHS TP,LOS ANGELES,19-0848-MP,"4503 CLARA ST,  CUDAHY,  CA 90201", CUDAHY,90201, (310) 328-0600,"COUNTY OF LOS ANGELES, 5823 RICKENBACKER RD., COMMERCE, CA 90040","HCD - SOUTHERN AREA OFFICE, 3737 MAIN ST 400, RIVERSIDE, CA 92501",15,0,0,"GUIDO FAMILY LLC, PO BOX 1919, RANCHO CUCAMONGA, CA 91729"
LITTLE GEM TRAILER PARK,LOS ANGELES,19-0850-MP,"4555 CECELIA ST,  CUDAHY,  CA 90201", CUDAHY,90201, (310) 328-0600,"COUNTY OF LOS ANGELES, 5823 RICKENBACKER RD., COMMERCE, CA 90040","HCD - SOUTHERN AREA OFFICE, 3737 MAIN ST 400, RIVERSIDE, CA 92501",25,0,0,"4555 CECELIA STREET LLC, PO BOX 21357, EL CAJON, CA 92021"
ANTELOPE DESERT TP,LOS ANGELES,19-0851-MP,"37855 90TH ST EAST,  LITTLEROCK,  CA 93543", LITTLEROCK,93543, (805) 944-1335,"COUNTY OF LOS ANGELES, 5823 RICKENBACKER RD., COMMERCE, CA 90040","HCD - SOUTHERN AREA OFFICE, 3737 MAIN ST 400, RIVERSIDE, CA 92501",15,0,0,"JONES, MATTHEW, 37855 90TH ST EAST, LITTLEROCK, CA 93543"
ABOO TP,LOS ANGELES,19-0855-MP,"4423 N ROSEMEAD BLVD,  ROSEMEAD,  CA 91770", ROSEMEAD,91770, (626) 319-2077,"COUNTY OF LOS ANGELES, 5823 RICKENBACKER RD., COMMERCE, CA 90040","HCD - SOUTHERN AREA OFFICE, 3737 MAIN ST 400, RIVERSIDE, CA 92501",0,13,0,"PIERCE, DAVID, 1759 CHELSEA RD, SAN MARINO, CA 91108"
MAXSON PINES MOBILE MANOR,LOS ANGELES,19-0856-MP,"3335 MAXSON RD,  EL MONTE,  CA 91733", EL MONTE,91733, (818) 591-1386,"COUNTY OF LOS ANGELES, 5823 RICKENBACKER RD., COMMERCE, CA 90040","HCD - SOUTHERN AREA OFFICE, 3737 MAIN ST 400, RIVERSIDE, CA 92501",56,0,0,"JDH CAPITAL LLC, 22231 MULHOLLAND HWY #101, CALABASAS, CA 91302"
ORCHARD GREEN MHP,LOS ANGELES,19-0857-MP,"35959 N 77TH ST EAST,  LITTLEROCK,  CA 93543", LITTLEROCK,93543, (805) 944-1013,"COUNTY OF LOS ANGELES, 5823 RICKENBACKER RD., COMMERCE, CA 90040","HCD - SOUTHERN AREA OFFICE, 3737 MAIN ST 400, RIVERSIDE, CA 92501",44,0,0,"TTATSUO TANAMACHI FAMILY TRUST, 200 EL RANCHO DRIVE, LA HABRA, CA 90631"
MONTEBELLO MHP,LOS ANGELES,19-0859-MP,"525 S GREENWOOD AVE,  MONTEBELLO,  CA 90640", MONTEBELLO,90640, (323) 721-4112,"HCD - SOUTHERN AREA OFFICE, 3737 MAIN ST 400, RIVERSIDE, CA 92501","HCD - SOUTHERN AREA OFFICE, 3737 MAIN ST 400, RIVERSIDE, CA 92501",46,0,0,"MONTEBELLO MHP, 17300 RED HILL AVE SUITE # 280, IRVINE, CA 92614"
SIERRA PARK LLC,LOS ANGELES,19-0860-MP,"18204 SOLEDAD CANYON RD,  SANTA CLARITA,  CA 91351", SANTA CLARITA,91351, (805) 252-3028,"COUNTY OF LOS ANGELES, 5823 RICKENBACKER RD., COMMERCE, CA 90040","HCD - SOUTHERN AREA OFFICE, 3737 MAIN ST 400, RIVERSIDE, CA 92501",76,0,0,"SIERRA MHP ASSOCIATES LP, 320 N PARK VISTA ST, ANAHEIM, CA 92806"
AIR LANE MHP,LOS ANGELES,19-0864-MP,"45446 N 7TH ST EAST,  LANCASTER,  CA 93535", LANCASTER,93535, (805) 252-3028,"COUNTY OF LOS ANGELES, 5823 RICKENBACKER RD., COMMERCE, CA 90040","HOUSING AND NEIGHBORHOOD REVITALIZATION, MOBILEHOME PARKS PROGRAM, 44933 NORTH FERN AVENUE, LANCASTER, CA 93534",52,0,0,"DECEMBER 2ND, LLC, PO BOX 915, TUSTIN, CA 92781"
ACE MOBILE HOME PARK,LOS ANGELES,19-0869-MP,"12265 WOODRUFF,  DOWNEY,  CA 90241", DOWNEY,90241, (562) 803-6115,"HCD - SOUTHERN AREA OFFICE, 3737 MAIN ST 400, RIVERSIDE, CA 92501","HCD - SOUTHERN AREA OFFICE, 3737 MAIN ST 400, RIVERSIDE, CA 92501",70,0,0,"PROFESSIONAL BUSINESS SERVICES INC, 520 W WILLOW ST, LONG BEACH, CA 90806"
CROCKERS TRAILER CT,LOS ANGELES,19-0870-MP,"1548 N TOPANGA BLVD,  TOPANGA,  CA 90290", TOPANGA,90290, (310) 455-0112,"COUNTY OF LOS ANGELES, 5823 RICKENBACKER RD., COMMERCE, CA 90040","HCD - SOUTHERN AREA OFFICE, 3737 MAIN ST 400, RIVERSIDE, CA 92501",13,0,0,"KIM, HAKSE, 1548 N TOPANGA CANYON BLVD #15, TOPANGA, CA 90290"
FOREST TP,LOS ANGELES,19-0872-MP,"16493 SIERRA HWY,  CANYON COUNTRY,  CA 91351", CANYON COUNTRY,91351, (661) 268-7434,"COUNTY OF LOS ANGELES, 5823 RICKENBACKER RD., COMMERCE, CA 90040","HCD - SOUTHERN AREA OFFICE, 3737 MAIN ST 400, RIVERSIDE, CA 92501",7,0,3,"RONDONI, ROBBIE, 29712 ARLINE ST, CANYON COUNTRY, CA 91351"
BELLFLOWER TRAILER HAVEN,LOS ANGELES,19-0876-MP,"9847 FLORA VISTA,  BELLFLOWER,  CA 90706", BELLFLOWER,90706, (310) 866-3683,"COUNTY OF LOS ANGELES, 5823 RICKENBACKER RD., COMMERCE, CA 90040","HCD - SOUTHERN AREA OFFICE, 3737 MAIN ST 400, RIVERSIDE, CA 92501",37,0,0,"WESTHOFF, DOUGLAS, PAMELA WESTHOFF P.O. BOX 4149, TORRANCE, CA 90510"
SHERWOOD MHP,LOS ANGELES,19-0877-MP,"3753 E AVE I,  LANCASTER,  CA 93535", LANCASTER,93535, (916) 772-4918,"COUNTY OF LOS ANGELES, 5823 RICKENBACKER RD., COMMERCE, CA 90040","HOUSING AND NEIGHBORHOOD REVITALIZATION, MOBILEHOME PARKS PROGRAM, 44933 NORTH FERN AVENUE, LANCASTER, CA 93534",182,0,0,"SHERWOOD MHP LLC, 500 GIUSEPPE CT SUITE # 2, ROSEVILLE, CA 95678"
RAYS MHP,LOS ANGELES,19-0879-MP,"7814 ATLANTIC AVE,  CUDAHY,  CA 90201", CUDAHY,90201, (310) 866-3683,"COUNTY OF LOS ANGELES, 5823 RICKENBACKER RD., COMMERCE, CA 90040","HCD - SOUTHERN AREA OFFICE, 3737 MAIN ST 400, RIVERSIDE, CA 92501",26,0,0,"DELORME, JOHN, 3199 COUNTRY CLUB DR, COSTA MESA, CA 92626"
MOBILEAIRE ESTATES,LOS ANGELES,19-0880-MP,"716 N GRAND AVE,  COVINA,  CA 91724", COVINA,91724, (818) 331-2717,"COUNTY OF LOS ANGELES, 5823 RICKENBACKER RD., COMMERCE, CA 90040","HCD - SOUTHERN AREA OFFICE, 3737 MAIN ST 400, RIVERSIDE, CA 92501",103,0,0,"COVINA MHP ASSOCIATES, LP, 320 N. PARK VISTA ST., ANAHEIM, CA 92806"
ROYAL PALMS TRAILER LODGE,LOS ANGELES,19-0883-MP,"15040 E VALLEY BLVD,  LA PUENTE,  CA 91746", LA PUENTE,91746, (818) 336-9845,"COUNTY OF LOS ANGELES, 5823 RICKENBACKER RD., COMMERCE, CA 90040","HCD - SOUTHERN AREA OFFICE, 3737 MAIN ST 400, RIVERSIDE, CA 92501",38,1,0,"WELCH PROPERTIES II, PO BOX 3402, CITY OF INDUSTRY, CA 91744"
RANCH INN MHP,LOS ANGELES,19-0886-MP,"338 W AVE J8,  LANCASTER,  CA 93534", LANCASTER,93534, (818) 446-4781,"COUNTY OF LOS ANGELES, 5823 RICKENBACKER RD., COMMERCE, CA 90040","HOUSING AND NEIGHBORHOOD REVITALIZATION, MOBILEHOME PARKS PROGRAM, 44933 NORTH FERN AVENUE, LANCASTER, CA 93534",66,0,0,"RANCH INN MHP LLC, PO BOX 605, LANCASTER, CA 93584"
PETER PAN MOBILE VILLAGE,LOS ANGELES,19-0890-MP,"1140 W ALONDRA BLVD,  COMPTON,  CA 90220", COMPTON,90220, (818) 446-4781,"COUNTY OF LOS ANGELES, 5823 RICKENBACKER RD., COMMERCE, CA 90040","HCD - SOUTHERN AREA OFFICE, 3737 MAIN ST 400, RIVERSIDE, CA 92501",48,0,0,"PARK MANAGEMENT INC, WHICH WILL DO BUSINESS IN CALIFORNIA AS MANUFACTURED HOME COMMUNITY MANAGEMENT, INC, 2141 E BROADWAY RD #105, TEMPE, AZ 85282"
GARDEN STATE TP,LOS ANGELES,19-0891-MP,"22325 S VERMONT,  TORRANCE,  CA 90502", TORRANCE,90502, (310) 645-8230,"COUNTY OF LOS ANGELES, 5823 RICKENBACKER RD., COMMERCE, CA 90040","HCD - SOUTHERN AREA OFFICE, 3737 MAIN ST 400, RIVERSIDE, CA 92501",20,0,0,"CELTIC PARTNERS, 200 NO, LARCHMONT BLVD, LOS ANGELES, CA 90004"
VILLA CAPRI TP,LOS ANGELES,19-0892-MP,"1428 BEACH ST,  MONTEBELLO,  CA 90640", MONTEBELLO,90640, (323) 721-1395,"HCD - SOUTHERN AREA OFFICE, 3737 MAIN ST 400, RIVERSIDE, CA 92501","HCD - SOUTHERN AREA OFFICE, 3737 MAIN ST 400, RIVERSIDE, CA 92501",54,0,0,"CLIFFSIDE ENTERPRISES, 430 S. DIMAS AVE., SAN DIMAS, CA 91773"
"EL GARDENA PARKS, LLC",LOS ANGELES,19-0893-MP,"1614 W EL SEGUNDO BLVD,  GARDENA,  CA 90249", GARDENA,90249, (310) 327-4432,"COUNTY OF LOS ANGELES, 5823 RICKENBACKER RD., COMMERCE, CA 90040","HCD - SOUTHERN AREA OFFICE, 3737 MAIN ST 400, RIVERSIDE, CA 92501",11,0,0,"LIEN VU & SON NGUYEN, 3483 CANYON CREEK DR., SAN JOSE, CA 95132"
ATLANTIC TRAILER VILLAGE,LOS ANGELES,19-0894-MP,"7735 ATLANTIC AVE,  CUDAHY,  CA 90201", CUDAHY,90201, (310) 327-4432,"COUNTY OF LOS ANGELES, 5823 RICKENBACKER RD., COMMERCE, CA 90040","HCD - SOUTHERN AREA OFFICE, 3737 MAIN ST 400, RIVERSIDE, CA 92501",102,0,0,"ALBERT APPEL ET AL, 3771 SEASCAPE DR, HUNTINGTON BEACH, CA 92649"
N\V TP,LOS ANGELES,19-0896-MP,"10118 GARVEY AVE,  EL MONTE,  CA 91733", EL MONTE,91733, (818) 442-8284,"COUNTY OF LOS ANGELES, 5823 RICKENBACKER RD., COMMERCE, CA 90040","HCD - SOUTHERN AREA OFFICE, 3737 MAIN ST 400, RIVERSIDE, CA 92501",8,0,0,"WONG, GLORIA, 10116 GARVEY AVE, EL MONTE, CA 91731"
L\J MHP,LOS ANGELES,19-0897-MP,"1425 W 132ND ST,  GARDENA,  CA 90249", GARDENA,90249, (310) 329-7754,"COUNTY OF LOS ANGELES, 5823 RICKENBACKER RD., COMMERCE, CA 90040","HCD - SOUTHERN AREA OFFICE, 3737 MAIN ST 400, RIVERSIDE, CA 92501",17,0,0,"MARENCIK, JOHN, 2434 SOLAR DR, LOS ANGELES, CA 90046"
BLUE STAR MOBILE HOME PARK,LOS ANGELES,19-0900-MP,"12401 FILMORE ST,  SYLMAR,  CA 91342", SYLMAR,91342, (818) 896-7100,"HCD - SOUTHERN AREA OFFICE, 3737 MAIN ST 400, RIVERSIDE, CA 92501","HCD - SOUTHERN AREA OFFICE, 3737 MAIN ST 400, RIVERSIDE, CA 92501",186,0,0,"BLUE STAR MOBILE HOME PARK ASSOCIATES, LP, ATTENTION: CORPORATE OFFICE 320 NORTH PARK VISTA ST, ANAHEIM, CA 92806"
LAKELAND VILLA,LOS ANGELES,19-0902-MP,"12147 E LAKELAND RD,  SANTA FE SPRINGS,  CA 90670", SANTA FE SPRINGS,90670, (562) 944-6500,"HCD - SOUTHERN AREA OFFICE, 3737 MAIN ST 400, RIVERSIDE, CA 92501","HCD - SOUTHERN AREA OFFICE, 3737 MAIN ST 400, RIVERSIDE, CA 92501",99,0,0,"LAKELAND VILLA, LLC, 31201 HOLLY DRIVE, LAGUNA BEACH, CA 92651"
TERRA NOVA MOBILE HOME PARK,LOS ANGELES,19-0905-MP,"1617 E AVENUE  I,  LANCASTER,  CA 93535", LANCASTER,93535, (661) 946-8499,"COUNTY OF LOS ANGELES, 5823 RICKENBACKER RD., COMMERCE, CA 90040","HOUSING AND NEIGHBORHOOD REVITALIZATION, MOBILEHOME PARKS PROGRAM, 44933 NORTH FERN AVENUE, LANCASTER, CA 93534",75,0,0,"ROSEIAN, I LLC, PO BOX 915, TUSTIN, CA 92781"
GRANADA VILLA MHP,LOS ANGELES,19-0907-MP,"18540 SOLEDAD CANYON RD,  CANYON COUNTRY,  CA 91351", CANYON COUNTRY,91351, (661) 252-3515,"COUNTY OF LOS ANGELES, 5823 RICKENBACKER RD., COMMERCE, CA 90040","HCD - SOUTHERN AREA OFFICE, 3737 MAIN ST 400, RIVERSIDE, CA 92501",179,0,0,"GRANADA VILLA, LP, 320 N PARK VISTA ST, ANAHEIM, CA 92806"
CLEAR SKIES MOBILE RANCH,LOS ANGELES,19-0909-MP,"1304 E AVE I,  LANCASTER,  CA 93535", LANCASTER,93535, (805) 252-3515,"COUNTY OF LOS ANGELES, 5823 RICKENBACKER RD., COMMERCE, CA 90040","HOUSING AND NEIGHBORHOOD REVITALIZATION, MOBILEHOME PARKS PROGRAM, 44933 NORTH FERN AVENUE, LANCASTER, CA 93534",47,0,0,"MALKA LLC, PO BOX 915, TUSTIN, CA 92781"
SUNRISE ESTATES,LOS ANGELES,19-0910-MP,"45131 N 28TH ST EAST,  LANCASTER,  CA 93535", LANCASTER,93535, (805) 252-3515,"COUNTY OF LOS ANGELES, 5823 RICKENBACKER RD., COMMERCE, CA 90040","HOUSING AND NEIGHBORHOOD REVITALIZATION, MOBILEHOME PARKS PROGRAM, 44933 NORTH FERN AVENUE, LANCASTER, CA 93534",28,0,0,"HARRIS, DEONNA, 45446 7TH ST EAST #21, LANCASTER, CA 93535"
GRANDVIEW MHP,LOS ANGELES,19-0912-MP,"1436 W 130TH ST,  GARDENA,  CA 90249", GARDENA,90249, (310) 329-7754,"COUNTY OF LOS ANGELES, 5823 RICKENBACKER RD., COMMERCE, CA 90040","HCD - SOUTHERN AREA OFFICE, 3737 MAIN ST 400, RIVERSIDE, CA 92501",15,0,0,"MARENCIK, JOHN, 2434 SOLAR DR, LOS ANGELES, CA 90046"
DESERT PARADISE MHP,LOS ANGELES,19-0913-MP,"45541 N 30TH ST EAST,  LANCASTER,  CA 93535", LANCASTER,93535, (323) 845-0909,"COUNTY OF LOS ANGELES, 5823 RICKENBACKER RD., COMMERCE, CA 90040","HOUSING AND NEIGHBORHOOD REVITALIZATION, MOBILEHOME PARKS PROGRAM, 44933 NORTH FERN AVENUE, LANCASTER, CA 93534",50,0,0,"DAM & M INVESTMENTS LLC, PO BOX 10541, GLENDALE, CA 91209"
CINDERELLA MHP,LOS ANGELES,19-0916-MP,"8600 CONTRERAS,  PARAMOUNT,  CA 90723", PARAMOUNT,90723, (562) 602-0696,"COUNTY OF LOS ANGELES, 5823 RICKENBACKER RD., COMMERCE, CA 90040","HCD - SOUTHERN AREA OFFICE, 3737 MAIN ST 400, RIVERSIDE, CA 92501",79,0,0,"BOGGS KENDALL & STEELE, 80 S LAKE AVE SUITE # 719, PASADENA, CA 91101"
SUNCREST MHP,LOS ANGELES,19-0917-MP,"1331 W 135TH ST,  GARDENA,  CA 90247", GARDENA,90247, (310) 325-0125,"COUNTY OF LOS ANGELES, 5823 RICKENBACKER RD., COMMERCE, CA 90040","HCD - SOUTHERN AREA OFFICE, 3737 MAIN ST 400, RIVERSIDE, CA 92501",18,0,0,"DOSHI, NAVINCHANDRA, 6418 SPRING PARK AVE, LOS ANGELES, CA 90056"
CLOVERLEAF TP,LOS ANGELES,19-0918-MP,"5908 E GAGE AVE,  BELL GARDENS,  CA 90201", BELL GARDENS,90201, (562) 235-3582,"COUNTY OF LOS ANGELES, 5823 RICKENBACKER RD., COMMERCE, CA 90040","HCD - SOUTHERN AREA OFFICE, 3737 MAIN ST 400, RIVERSIDE, CA 92501",13,0,0,"VICTORIA S B TRUST, C/O: TRUSTEE COMMUNICATIONS 119 E 7TH ST, LONG BEACH, CA 90813"
LOS FLAMINGOS LODGE,LOS ANGELES,19-0919-MP,"1618 W 132ND,  GARDENA,  CA 90249", GARDENA,90249, (310) 273-4177,"COUNTY OF LOS ANGELES, 5823 RICKENBACKER RD., COMMERCE, CA 90040","HCD - SOUTHERN AREA OFFICE, 3737 MAIN ST 400, RIVERSIDE, CA 92501",21,0,0,"DANNY, DOUGLAS, 3722 AMARYLLIS DR, SAN DIEGO, CA 92106"
THE LIDO MHP,LOS ANGELES,19-0920-MP,"45125 N 30TH ST EAST,  LANCASTER,  CA 93535", LANCASTER,93535, (213) 773-2296,"COUNTY OF LOS ANGELES, 5823 RICKENBACKER RD., COMMERCE, CA 90040","HOUSING AND NEIGHBORHOOD REVITALIZATION, MOBILEHOME PARKS PROGRAM, 44933 NORTH FERN AVENUE, LANCASTER, CA 93534",54,0,0,"SANDBURG FAMILY TRUST, C/O PETERSON JONES PROPERTIES 3251 EAST 19TH STREET, EAST LONG BEACH, CA 90804"
"MITCHELL'S AVENUE E PARK, INC.",LOS ANGELES,19-0922-MP,"721 WEST AVE EAST,  LANCASTER,  CA 93534", LANCASTER,93534, (818) 381-7649,"COUNTY OF LOS ANGELES, 5823 RICKENBACKER RD., COMMERCE, CA 90040","HCD - SOUTHERN AREA OFFICE, 3737 MAIN ST 400, RIVERSIDE, CA 92501",24,0,0,"NORRIS, CHARLESPATRICIA, 1024 DELAWARE ROAD, BURBANK, CA 91504"
S K MHP,LOS ANGELES,19-0923-MP,"22335 S VERMONT AVE,  TORRANCE,  CA 90502", TORRANCE,90502, (310) 320-0361,"COUNTY OF LOS ANGELES, 5823 RICKENBACKER RD., COMMERCE, CA 90040","HCD - SOUTHERN AREA OFFICE, 3737 MAIN ST 400, RIVERSIDE, CA 92501",44,0,0,"KAJIKAWA, SADAO, 22335 S VERMONT AVE APT. # 26, TORRANCE, CA 90502"
GOLDEN SANDS MHP,LOS ANGELES,19-0924-MP,"2059 E AVE I,  LANCASTER,  CA 93535", LANCASTER,93535, (310) 320-0361,"COUNTY OF LOS ANGELES, 5823 RICKENBACKER RD., COMMERCE, CA 90040","HOUSING AND NEIGHBORHOOD REVITALIZATION, MOBILEHOME PARKS PROGRAM, 44933 NORTH FERN AVENUE, LANCASTER, CA 93534",152,0,0,"PARK OPERATOR 19-0924, C/O L D FLICKINGER CO PO BOX 989, ACTON, CA 93510"
LYNWOOD MOBILE LODGE,LOS ANGELES,19-0929-MP,"5300 CORTLAND ST.,  LYNWOOD,  CA 90262", LYNWOOD,90262, (310) 632-3950,"COUNTY OF LOS ANGELES, 5823 RICKENBACKER RD., COMMERCE, CA 90040","LYNWOOD BUILDING DEPARTMENT, MOBILEHOME PARKS PROGRAM, 11330 BULLIS ROAD, LYNWOOD, CA 90262",35,15,0,"HOOK, JOHN, PEGGY HOOK 105 S EL CAMINO REAL, SAN CLEMENTE, CA 92672"
ROLLINGS HOMES TP,LOS ANGELES,19-0930-MP,"2606 SANTA ANITA AVE,  EL MONTE,  CA 91733", EL MONTE,91733, (626) 350-0093,"COUNTY OF LOS ANGELES, 5823 RICKENBACKER RD., COMMERCE, CA 90040","HCD - SOUTHERN AREA OFFICE, 3737 MAIN ST 400, RIVERSIDE, CA 92501",19,0,0,"GUERNSEY, DARIUS, 16033 VALLEY VISTA BLVD, ENCINO, CA 91436"
LAMPLIGHTER TP,LOS ANGELES,19-0931-MP,"2662 MOUNTAIN VIEW RD,  EL MONTE,  CA 91731", EL MONTE,91731, (818) 350-0093,"COUNTY OF LOS ANGELES, 5823 RICKENBACKER RD., COMMERCE, CA 90040","HCD - SOUTHERN AREA OFFICE, 3737 MAIN ST 400, RIVERSIDE, CA 92501",21,0,0,"GKL PROPERTIES, LLC, 6 STRAWBERRY CIRCLE, SANTA FE, NM 87506"
LOMA LINDA TP,LOS ANGELES,19-0934-MP,"12730 PEARBLOSSOM HWY,  PEARBLOSSOM,  CA 93553", PEARBLOSSOM,93553, (661) 944-3291,"COUNTY OF LOS ANGELES, 5823 RICKENBACKER RD., COMMERCE, CA 90040","HCD - SOUTHERN AREA OFFICE, 3737 MAIN ST 400, RIVERSIDE, CA 92501",19,10,0,"WILLIAMS, JACK, 12025 BANIS RD, AGUA DULCE, CA 91350"
K.A.K. MOBILE HOME PARK LLC,LOS ANGELES,19-0935-MP,"17197 SIERRA HWY,  CANYON COUNTRY,  CA 91351", CANYON COUNTRY,91351,,"COUNTY OF LOS ANGELES, 5823 RICKENBACKER RD., COMMERCE, CA 90040","HCD - SOUTHERN AREA OFFICE, 3737 MAIN ST 400, RIVERSIDE, CA 92501",40,0,0,"KOREN, KATHLEEN, PO BOX 371125, LAS VEGAS, NV 89137"
PARK AVALON MOBILE ESTATES,LOS ANGELES,19-0937-MP,"750 E CARSON ST,  CARSON,  CA 90745", CARSON,90745, (310) 834-2039,"COUNTY OF LOS ANGELES, 5823 RICKENBACKER RD., COMMERCE, CA 90040","HCD - SOUTHERN AREA OFFICE, 3737 MAIN ST 400, RIVERSIDE, CA 92501",133,0,0,"PARK AVALON CARSON LLC, 425 N WHISMAN RD # 600, MOUNTAIN VIEW, CA 94043"
CENTINELA AUTO COURT,LOS ANGELES,19-0938-MP,"414 E STEPNEY ST,  INGLEWOOD,  CA 90302", INGLEWOOD,90302, (858) 759-9149,"COUNTY OF LOS ANGELES, 5823 RICKENBACKER RD., COMMERCE, CA 90040","HCD - SOUTHERN AREA OFFICE, 3737 MAIN ST 400, RIVERSIDE, CA 92501",37,0,0,"CENTINELA INCOME PROPERTIES LIMITED PARTNERSHIP, 44104 ROYAL TROON DR, INDIO, CA 92201"
HILLCREST MHP,LOS ANGELES,19-0939-MP,"39820 N 145TH ST EAST,  PALMDALE,  CA 93550", PALMDALE,93550, (805) 264-2252,"COUNTY OF LOS ANGELES, 5823 RICKENBACKER RD., COMMERCE, CA 90040","HCD - SOUTHERN AREA OFFICE, 3737 MAIN ST 400, RIVERSIDE, CA 92501",18,0,0,"THE MARQUIS GROUP INC, PO BOX 605, LANCASTER, CA 93584"
PARADISE TRAILER LODGE,LOS ANGELES,19-0940-MP,"21900 S MARTIN ST,  CARSON,  CA 90745", CARSON,90745, (310) 835-2082,"COUNTY OF LOS ANGELES, 5823 RICKENBACKER RD., COMMERCE, CA 90040","HCD - SOUTHERN AREA OFFICE, 3737 MAIN ST 400, RIVERSIDE, CA 92501",84,0,0,"KLEEGE, BRUCE, 12625 HIGH BLUFF DR SUITE # 310, SAN DIEGO, CA 92130"
BEST EVER MHP,LOS ANGELES,19-0943-MP,"1265- 1307  W 134TH ST,  GARDENA,  CA 90247", GARDENA,90247, (408) 254-3698,"COUNTY OF LOS ANGELES, 5823 RICKENBACKER RD., COMMERCE, CA 90040","HCD - SOUTHERN AREA OFFICE, 3737 MAIN ST 400, RIVERSIDE, CA 92501",35,0,0,"NGUYEN, SON, 3483 CANYON CREEK DR, SAN JOSE, CA 95132"
VAN DIEST TRAILER PARK,LOS ANGELES,19-0944-MP,"9160 SONRISA ST,  BELLFLOWER,  CA 90706", BELLFLOWER,90706, (310) 630-4878,"COUNTY OF LOS ANGELES, 5823 RICKENBACKER RD., COMMERCE, CA 90040","HCD - SOUTHERN AREA OFFICE, 3737 MAIN ST 400, RIVERSIDE, CA 92501",39,0,0,"VAN DIEST ENTERPRISES INC., PO BOX 890205, TEMECULA, CA 92589"
CAPRI GARDENS,LOS ANGELES,19-0949-MP,"3541 BALDWIN,  EL MONTE,  CA 91731", EL MONTE,91731, (818) 443-5017,"COUNTY OF LOS ANGELES, 5823 RICKENBACKER RD., COMMERCE, CA 90040","HCD - SOUTHERN AREA OFFICE, 3737 MAIN ST 400, RIVERSIDE, CA 92501",57,0,0,"RICBERAY INC, 150 E MONTECITO AVE #F, SIERRA MADRE, CA 91024"
NORWALK VILLAGE,LOS ANGELES,19-0950-MP,"12737 ROSECRANS AVE,  NORWALK,  CA 90650", NORWALK,90650, (818) 443-5017,"COUNTY OF LOS ANGELES, 5823 RICKENBACKER RD., COMMERCE, CA 90040","NORWALK BUILDING DEPARTMENT, MOBILEHOME PARKS PROGRAM, 12700 SOUTH NORWALK BLVD  RM 12, NORWALK, CA 90650",103,0,0,"YOUNG, CAROLYN, 12737 ROSECRANS AVE, NORWALK, CA 90650"
LITTLE OAK TP,LOS ANGELES,19-0952-MP,"5259 LIVE OAK ST,  BELL,  CA 90201", BELL,90201, (213) 560-8787,"COUNTY OF LOS ANGELES, 5823 RICKENBACKER RD., COMMERCE, CA 90040","HCD - SOUTHERN AREA OFFICE, 3737 MAIN ST 400, RIVERSIDE, CA 92501",12,0,0,"SHELBY, ALLEN, 4877 YUCCA MESA RD, YUCCA VALLEY, CA 92284"
SAN ANTONIO TP,LOS ANGELES,19-0958-MP,"9020 SOMERSET BLVD,  BELLFLOWER,  CA 90706", BELLFLOWER,90706, (714) 846-2636,"COUNTY OF LOS ANGELES, 5823 RICKENBACKER RD., COMMERCE, CA 90040","HCD - SOUTHERN AREA OFFICE, 3737 MAIN ST 400, RIVERSIDE, CA 92501",20,0,0,"MARTIN, VINCENTE, 16835 ALGONQUIN ST SUITE # 485, HUNTINGTON BEACH, CA 92649"
ROSEWOOD MHP,LOS ANGELES,19-0959-MP,"14325 MCNAB AVE,  BELLFLOWER,  CA 90706", BELLFLOWER,90706,,"COUNTY OF LOS ANGELES, 5823 RICKENBACKER RD., COMMERCE, CA 90040","HCD - SOUTHERN AREA OFFICE, 3737 MAIN ST 400, RIVERSIDE, CA 92501",99,0,0,"ROSEWOOD LAND CO, C/O ROSEWOOD LAND CO. 14325 MCNAB AVE, BELLFLOWER, CA 90706"
GREEN LANTERN PARK,LOS ANGELES,19-0960-MP,"4631 ELIZABETH ST,  CUDAHY,  CA 90201", CUDAHY,90201, (310) 867-3227,"COUNTY OF LOS ANGELES, 5823 RICKENBACKER RD., COMMERCE, CA 90040","HCD - SOUTHERN AREA OFFICE, 3737 MAIN ST 400, RIVERSIDE, CA 92501",15,0,0,"DANNY, DOUGLAS, 3722 AMARYLLIS DR, SAN DIEGO, CA 92106"
SYLVAN VILLA MHP,LOS ANGELES,19-0961-MP,"830 S AZUSA AVE,  AZUSA,  CA 91702", AZUSA,91702, (626) 334-4210,"COUNTY OF LOS ANGELES, 5823 RICKENBACKER RD., COMMERCE, CA 90040","HCD - SOUTHERN AREA OFFICE, 3737 MAIN ST 400, RIVERSIDE, CA 92501",65,0,0,"SYLVAN VILLAS, LLC, 122 W IMPERIAL AVE, EL SEGUNDO, CA 90245"
IMPERIAL VILLAGE,LOS ANGELES,19-0962-MP,"11101 IMPERIAL HWY,  NORWALK,  CA 90650", NORWALK,90650, (818) 334-4210,"COUNTY OF LOS ANGELES, 5823 RICKENBACKER RD., COMMERCE, CA 90040","NORWALK BUILDING DEPARTMENT, MOBILEHOME PARKS PROGRAM, 12700 SOUTH NORWALK BLVD  RM 12, NORWALK, CA 90650",134,0,0,"WATT, MANAGEMENT, 2716 N. OCEAN PARK BLVD, SANTA MONICA, CA 90405"
MAPLE ESTATES TP,LOS ANGELES,19-0963-MP,"710 S MAPLE AVE,  MONTEBELLO,  CA 90640", MONTEBELLO,90640, (213) 722-7122,"HCD - SOUTHERN AREA OFFICE, 3737 MAIN ST 400, RIVERSIDE, CA 92501","HCD - SOUTHERN AREA OFFICE, 3737 MAIN ST 400, RIVERSIDE, CA 92501",32,0,0,"TEWASART, SUTHIN, SURAPHI TEWASART 903 W OLYMPIC BLVD, MONTEBELLO, CA 90640"
THE COPACABANA,LOS ANGELES,19-0964-MP,"2717 ARROW HWY,  LA VERNE,  CA 91750", LA VERNE,91750, (909) 593-2044,"COUNTY OF LOS ANGELES, 5823 RICKENBACKER RD., COMMERCE, CA 90040","HCD - SOUTHERN AREA OFFICE, 3737 MAIN ST 400, RIVERSIDE, CA 92501",173,0,0,"MILLENIUM HOUSING INC, C/O BESSIRE & CASENHISER INC 430 S SAN DIMAS AVE, SAN DIMAS, CA 91773"
TUMBLING WATERS MHP,LOS ANGELES,19-0965-MP,"1380 N CITRUS,  COVINA,  CA 91722", COVINA,91722, (818) 331-2143,"COUNTY OF LOS ANGELES, 5823 RICKENBACKER RD., COMMERCE, CA 90040","HCD - SOUTHERN AREA OFFICE, 3737 MAIN ST 400, RIVERSIDE, CA 92501",113,0,0,"TUMBLING WATERS LLC, 22880 SAVI RANCH PKWY, YORBA LINDA, CA 92887"
HOLIDAY LODGE MHP,LOS ANGELES,19-0966-MP,"1661 PUENTE AVE,  BALDWIN PARK,  CA 91706", BALDWIN PARK,91706, (818) 338-2967,"COUNTY OF LOS ANGELES, 5823 RICKENBACKER RD., COMMERCE, CA 90040","HCD - SOUTHERN AREA OFFICE, 3737 MAIN ST 400, RIVERSIDE, CA 92501",98,0,0,"HOLIDAY LODGE MOBILE HOME PARK, LLC, PO BOX 28507, SANTA ANA, CA 92799"
RANCHO SAN JOSE M.H.C.,LOS ANGELES,19-0967-MP,"21310 E COVINA BLVD,  COVINA,  CA 91724", COVINA,91724, (626) 331-4094,"COUNTY OF LOS ANGELES, 5823 RICKENBACKER RD., COMMERCE, CA 90040","HCD - SOUTHERN AREA OFFICE, 3737 MAIN ST 400, RIVERSIDE, CA 92501",61,0,0,"WHEELER, ROGER, 21310 EAST COVINA BLVD ATTENTION:  JOE SPACE # 5, COVINA, CA 91724"
SHANGRI LODGE MHP,LOS ANGELES,19-0968-MP,"21834 S GRACE AVE,  CARSON,  CA 90745", CARSON,90745, (310) 530-1237,"COUNTY OF LOS ANGELES, 5823 RICKENBACKER RD., COMMERCE, CA 90040","HCD - SOUTHERN AREA OFFICE, 3737 MAIN ST 400, RIVERSIDE, CA 92501",46,0,0,"DZIKOWSKI, STANISLAW, PO BOX 2038, LOMITA, CA 90717"
PARK GRANADA,LOS ANGELES,19-0969-MP,"218 W CARSON ST,  CARSON,  CA 90745", CARSON,90745, (310) 835-1424,"COUNTY OF LOS ANGELES, 5823 RICKENBACKER RD., COMMERCE, CA 90040","HCD - SOUTHERN AREA OFFICE, 3737 MAIN ST 400, RIVERSIDE, CA 92501",26,0,0,"R44 LENDING GROUP, 621 W ROSECRANS, GARDENA, CA 90249"
ANDERSON TRAILER PARK,LOS ANGELES,19-0971-MP,"7520 26 ATLANTIC AVE,  CUDAHY,  CA 90201", CUDAHY,90201, (626) 716-0112,"COUNTY OF LOS ANGELES, 5823 RICKENBACKER RD., COMMERCE, CA 90040","HCD - SOUTHERN AREA OFFICE, 3737 MAIN ST 400, RIVERSIDE, CA 92501",6,0,0,"CUDAHY ATLANTIC LLC, 6068 GOLDEN VISTA DR, SAN JOSE, CA 95123"
TRAMMELS MHP,LOS ANGELES,19-0975-MP,"10917 WEAVER ST,  S EL MONTE,  CA 91733", S EL MONTE,91733, (310) 835-1424,"COUNTY OF LOS ANGELES, 5823 RICKENBACKER RD., COMMERCE, CA 90040","HCD - SOUTHERN AREA OFFICE, 3737 MAIN ST 400, RIVERSIDE, CA 92501",9,0,0,"VILLALOBOS, IRENE, PO BOX 1919, RANCHO CUCAMONGA, CA 91729"
LAKEWOOD MOBILE ESTATES,LOS ANGELES,19-0976-MP,"12550 E CARSON BLVD,  HAWAIIAN GARDENS,  CA 90716", HAWAIIAN GARDENS,90716, (562) 421-4982,"COUNTY OF LOS ANGELES, 5823 RICKENBACKER RD., COMMERCE, CA 90040","HCD - SOUTHERN AREA OFFICE, 3737 MAIN ST 400, RIVERSIDE, CA 92501",200,0,0,"LAKEWOOD MOBILE ESTATES, LLC, 22880 SAVI RANCH PKWY, YORBA LINDA, CA 92887"
TORRANCE GARDENS MHP,LOS ANGELES,19-0977-MP,"22516 S NORMANDIE AVE,  TORRANCE,  CA 90502", TORRANCE,90502, (949) 752-5181,"COUNTY OF LOS ANGELES, 5823 RICKENBACKER RD., COMMERCE, CA 90040","HCD - SOUTHERN AREA OFFICE, 3737 MAIN ST 400, RIVERSIDE, CA 92501",62,0,0,"TORRANCE PARK LLC, 2723 WEST COAST HIGHWAY, NEWPORT BEACH, CA 92663"
PARK MONTEREY,LOS ANGELES,19-0979-MP,"7433 GARVEY AVE,  ROSEMEAD,  CA 91770", ROSEMEAD,91770, (626) 625-9935,"COUNTY OF LOS ANGELES, 5823 RICKENBACKER RD., COMMERCE, CA 90040","HCD - SOUTHERN AREA OFFICE, 3737 MAIN ST 400, RIVERSIDE, CA 92501",39,0,0,"BIG ISLAND PROPERTY, 120 E VALLEY BLVD, SAN GABRIEL, CA 91776"
PALOS VISTA MHP,LOS ANGELES,19-0983-MP,"2355 LOMITA BLVD,  LOMITA,  CA 90717", LOMITA,90717, (310) 530-2808,"COUNTY OF LOS ANGELES, 5823 RICKENBACKER RD., COMMERCE, CA 90040","HCD - SOUTHERN AREA OFFICE, 3737 MAIN ST 400, RIVERSIDE, CA 92501",21,0,0,"GUNDLACH, KATHERINE, PO BOX 1919, RANCHO CUCAMONGA, CA 91729"
FOOTHILL VISTA MHP,LOS ANGELES,19-0984-MP,"840 E FOOTHILL,  AZUSA,  CA 91702", AZUSA,91702, (818) 334-1134,"COUNTY OF LOS ANGELES, 5823 RICKENBACKER RD., COMMERCE, CA 90040","HCD - SOUTHERN AREA OFFICE, 3737 MAIN ST 400, RIVERSIDE, CA 92501",205,0,0,"GORLICK USLANER MATZNER & FREED, 430 S. SAN DIMAS AVE., SAN DIMAS, CA 91773"
CARAVILLA MHP,LOS ANGELES,19-0988-MP,"18035 SOLEDAD CANYON RD,  SANTA CLARITA,  CA 91351", SANTA CLARITA,91351, (805) 252-2200,"COUNTY OF LOS ANGELES, 5823 RICKENBACKER RD., COMMERCE, CA 90040","HCD - SOUTHERN AREA OFFICE, 3737 MAIN ST 400, RIVERSIDE, CA 92501",84,0,0,"NEWPORT PACIFIC CARAVILLA LIMITED, 17300 RED HILL AVE #280, IRVINE, CA 92614"
BEL AIRE PARK,LOS ANGELES,19-0989-MP,"21425 S AVALON BLVD,  CARSON,  CA 90745", CARSON,90745, (310) 834-1240,"COUNTY OF LOS ANGELES, 5823 RICKENBACKER RD., COMMERCE, CA 90040","HCD - SOUTHERN AREA OFFICE, 3737 MAIN ST 400, RIVERSIDE, CA 92501",81,0,0,"WANG, PETER, 425 N WHISMAN RD #600, MOUNTAIN VIEW, CA 94043"
TRADE WINDS MOBILE ESTATES,LOS ANGELES,19-0990-MP,"3107 N SAN GABRIEL BLVD,  ROSEMEAD,  CA 91770", ROSEMEAD,91770, (310) 320-3454,"COUNTY OF LOS ANGELES, 5823 RICKENBACKER RD., COMMERCE, CA 90040","HCD - SOUTHERN AREA OFFICE, 3737 MAIN ST 400, RIVERSIDE, CA 92501",19,0,0,"TRADE WINDS MOBILE ASSOCIATES LLC, 14751 PLAZA DR SUITE # H, TUSTIN, CA 92780"
STARLITE MOBILE ESTATES PARK,LOS ANGELES,19-0993-MP,"1045 N AZUSA AVE,  COVINA,  CA 91722", COVINA,91722, (626) 331-5927,"COUNTY OF LOS ANGELES, 5823 RICKENBACKER RD., COMMERCE, CA 90040","HCD - SOUTHERN AREA OFFICE, 3737 MAIN ST 400, RIVERSIDE, CA 92501",248,0,0,"HOMEWOOD REALTY INC, 1121 E PHILADELPHIA ST, ONTARIO, CA 91761"
L.A. YOUNG-NAK PRESBYTERIAN RETREAT CENTER,LOS ANGELES,19-0994-MP,"24100 PINE CANYON RD,  LAKE HUGHES,  CA 93532", LAKE HUGHES,93532, (323) 227-4093,"COUNTY OF LOS ANGELES, 5823 RICKENBACKER RD., COMMERCE, CA 90040","HCD - SOUTHERN AREA OFFICE, 3737 MAIN ST 400, RIVERSIDE, CA 92501",17,4,0,"LA YOUNG-NAK PRESBYTERIAN CHURCH, 1721 N BROADWAY, LOS ANGELES, CA 90031"
"MINT CANYON MOBILE MANOR, LLC",LOS ANGELES,19-0995-MP,"16408 SIERRA HWY,  CANYON COUNTRY,  CA 91351", CANYON COUNTRY,91351, (805) 388-2829,"COUNTY OF LOS ANGELES, 5823 RICKENBACKER RD., COMMERCE, CA 90040","HCD - SOUTHERN AREA OFFICE, 3737 MAIN ST 400, RIVERSIDE, CA 92501",27,0,0,"SMITH, GREGORY & JAMES, PO BOX 716, CAMARILLO, CA 93011"
GOLDEN STATE MOBILE LODGE,LOS ANGELES,19-0996-MP,"22600 S NORMANDIE AVE,  TORRANCE,  CA 90502", TORRANCE,90502, (310) 320-3454,"COUNTY OF LOS ANGELES, 5823 RICKENBACKER RD., COMMERCE, CA 90040","HCD - SOUTHERN AREA OFFICE, 3737 MAIN ST 400, RIVERSIDE, CA 92501",53,0,0,"GOLDEN STATE MOBILE LODGE LP, 14751 PLAZA DR SUITE # H, TUSTIN, CA 92780"
BAR G INN,LOS ANGELES,19-0997-MP,"14815 CERRITOS AVE,  BELLFLOWER,  CA 90706", BELLFLOWER,90706, (310) 529-8870,"COUNTY OF LOS ANGELES, 5823 RICKENBACKER RD., COMMERCE, CA 90040","HCD - SOUTHERN AREA OFFICE, 3737 MAIN ST 400, RIVERSIDE, CA 92501",50,0,0,"MOLLER, FRITZ, 14815 CERRITOS AVE #B, BELLFLOWER, CA 90706"
GLENAIR MHP,LOS ANGELES,19-0998-MP,"1700 S GLENDORA AVE,  GLENDORA,  CA 91740", GLENDORA,91740, (626) 963-1015,"COUNTY OF LOS ANGELES, 5823 RICKENBACKER RD., COMMERCE, CA 90040","HCD - SOUTHERN AREA OFFICE, 3737 MAIN ST 400, RIVERSIDE, CA 92501",50,0,0,"STEPHANIE SCOTT RESIDENCE TRUST, 320 N. PARK VISTA ST. - OFFICE, ANAHEIM, CA 92806"
CANDLEWOOD,LOS ANGELES,19-0999-MP,"10745 VICTORIA AVE,  WHITTIER,  CA 90604", WHITTIER,90604, (562) 941-0170,"COUNTY OF LOS ANGELES, 5823 RICKENBACKER RD., COMMERCE, CA 90040","HCD - SOUTHERN AREA OFFICE, 3737 MAIN ST 400, RIVERSIDE, CA 92501",91,0,0,"JOHN A. DEFALCO MANAGMENT CO., 842 S. WUCLID ST, FULLERTON, CA 92832"
EL MONTE MOBILE AIR,LOS ANGELES,19-1001-MP,"1517 MERCED AVENUE,  EL MONTE,  CA 91733", EL MONTE,91733, (818) 350-6367,"COUNTY OF LOS ANGELES, 5823 RICKENBACKER RD., COMMERCE, CA 90040","HCD - SOUTHERN AREA OFFICE, 3737 MAIN ST 400, RIVERSIDE, CA 92501",77,0,0,"D H PROPERTIES LLC, C/O COMMUNITY ASSET MGMT PO BOX 3670, ONTARIO, CA 91761"
CANYON PALMS MHP,LOS ANGELES,19-1002-MP,"18323 SOLEDAD CANYON RD,  SANTA CLARITA,  CA 91351", SANTA CLARITA,91351, (805) 252-2770,"COUNTY OF LOS ANGELES, 5823 RICKENBACKER RD., COMMERCE, CA 90040","HCD - SOUTHERN AREA OFFICE, 3737 MAIN ST 400, RIVERSIDE, CA 92501",45,0,0,"MAHONEY, MICHAEL, 2041 SAN REMO, LAGUNA BEACH, CA 92651"
YAWATA MOBILE HOME PARK,LOS ANGELES,19-1004-MP,"1212 W 135TH ST,  GARDENA,  CA 90247", GARDENA,90247, (213) 770-3177,"COUNTY OF LOS ANGELES, 5823 RICKENBACKER RD., COMMERCE, CA 90040","HCD - SOUTHERN AREA OFFICE, 3737 MAIN ST 400, RIVERSIDE, CA 92501",10,0,0,"AMUSEMENT INDUSTRY INC, 520 W WILLOW ST, LONG BEACH, CA 90806"
IDLE WHEELS TP,LOS ANGELES,19-1005-MP,"1201 W 228TH ST,  TORRANCE,  CA 90502", TORRANCE,90502, (310) 378-5743,"COUNTY OF LOS ANGELES, 5823 RICKENBACKER RD., COMMERCE, CA 90040","HCD - SOUTHERN AREA OFFICE, 3737 MAIN ST 400, RIVERSIDE, CA 92501",20,0,0,"228 TP LLC, 3850 TIFFANY LANE, TORRANCE, CA 90505"
FOX MHP,LOS ANGELES,19-1008-MP,"14904 LAKEWOOD BLVD,  BELLFLOWER,  CA 90706", BELLFLOWER,90706, (562) 434-1671,"COUNTY OF LOS ANGELES, 5823 RICKENBACKER RD., COMMERCE, CA 90040","HCD - SOUTHERN AREA OFFICE, 3737 MAIN ST 400, RIVERSIDE, CA 92501",17,0,0,"STEWART, JASON, 1129 GAVIOTA AVE, LONG BEACH, CA 90813"
WELCOME GARDENS MOBILE HOME PARK,LOS ANGELES,19-1009-MP,"630 S MAPLE AVE,  MONTEBELLO,  CA 90640", MONTEBELLO,90640, (323) 728-5748,"HCD - SOUTHERN AREA OFFICE, 3737 MAIN ST 400, RIVERSIDE, CA 92501","HCD - SOUTHERN AREA OFFICE, 3737 MAIN ST 400, RIVERSIDE, CA 92501",67,0,0,"GGK, LLC, PO BOX 1919, RANCHO CUCAMONGA, CA 91729"
VILLA PARK MOBILE ESTATES,LOS ANGELES,19-1011-MP,"6475 ATLANTIC AVE,  LONG BEACH,  CA 90805", LONG BEACH,90805, (562) 422-3140,"HCD - SOUTHERN AREA OFFICE, 3737 MAIN ST 400, RIVERSIDE, CA 92501","HCD - SOUTHERN AREA OFFICE, 3737 MAIN ST 400, RIVERSIDE, CA 92501",432,0,0,"LB VILLA PARK, LLC, C/O LES FRAME MANAGEMENT, INC 1635 AVIATION BLVD, REDONDO BEACH, CA 90278"
ARROW PINES MOBILE ESTATES,LOS ANGELES,19-1012-MP,"1081 W. ARROW HIGHWAY,  AZUSA,  CA 91702", AZUSA,91702, (626) 334-4427,"COUNTY OF LOS ANGELES, 5823 RICKENBACKER RD., COMMERCE, CA 90040","HCD - SOUTHERN AREA OFFICE, 3737 MAIN ST 400, RIVERSIDE, CA 92501",103,0,0,"ARROW PINES ASSET PARTNERS LP, PO BOX 2308, LAGUNA HILLS, CA 92654"
CAPRI MHP,LOS ANGELES,19-1013-MP,"2436 W LOMITA BLVD,  LOMITA,  CA 90717", LOMITA,90717, (714) 248-0554,"COUNTY OF LOS ANGELES, 5823 RICKENBACKER RD., COMMERCE, CA 90040","HCD - SOUTHERN AREA OFFICE, 3737 MAIN ST 400, RIVERSIDE, CA 92501",20,0,0,"EICHE, DENNIS, 24040 CAMINO DEL AVION #A293, MONARCH BEACH, CA 92629"
POLYNESIAN MHP,LOS ANGELES,19-1014-MP,"23450 NEWHALL AVE,  NEWHALL,  CA 91321", NEWHALL,91321, (805) 259-2101,"COUNTY OF LOS ANGELES, 5823 RICKENBACKER RD., COMMERCE, CA 90040","HCD - SOUTHERN AREA OFFICE, 3737 MAIN ST 400, RIVERSIDE, CA 92501",144,0,0,"POLYENSIAN MOBILE HOME PARK LLC, 23450 NEWHALL AVE, NEWHALL, CA 91321"
VAN SETTEN MHP,LOS ANGELES,19-1015-MP,"9045 E ALONDRA BLVD,  BELLFLOWER,  CA 90706", BELLFLOWER,90706, (310) 866-3334,"COUNTY OF LOS ANGELES, 5823 RICKENBACKER RD., COMMERCE, CA 90040","HCD - SOUTHERN AREA OFFICE, 3737 MAIN ST 400, RIVERSIDE, CA 92501",8,0,0,"VANSETTEN, LOLA, 9621 CLOVERWOOD ST, BELLFLOWER, CA 90706"
BALDWIN MP,LOS ANGELES,19-1016-MP,"13972 E FRANCISQUITO AVE,  BALDWIN PARK,  CA 91706", BALDWIN PARK,91706, (818) 338-9318,"COUNTY OF LOS ANGELES, 5823 RICKENBACKER RD., COMMERCE, CA 90040","HCD - SOUTHERN AREA OFFICE, 3737 MAIN ST 400, RIVERSIDE, CA 92501",29,0,0,"DENNIS EICHE ENT, 24040 CAMINO DEL AVION PMB 293, MONARCH BEACH, CA 92629"
ARBOR MOBILE VILLAGE,LOS ANGELES,19-1017-MP,"300 E ARBOR ST,  LONG BEACH,  CA 90805", LONG BEACH,90805, (310) 422-3666,"HCD - SOUTHERN AREA OFFICE, 3737 MAIN ST 400, RIVERSIDE, CA 92501","HCD - SOUTHERN AREA OFFICE, 3737 MAIN ST 400, RIVERSIDE, CA 92501",64,0,0,"STEELE BOGGS KENDALL & FABECK, 80 S LAKE AVE SUITE # 719, PASADENA, CA 91101"
BELMONT SHORES MOBILE ESTATES,LOS ANGELES,19-1019-MP,"6230 MARINA VIEW DRIVE,  LONG BEACH,  CA 90803", LONG BEACH,90803, (562) 431-4132,"HCD - SOUTHERN AREA OFFICE, 3737 MAIN ST 400, RIVERSIDE, CA 92501","HCD - SOUTHERN AREA OFFICE, 3737 MAIN ST 400, RIVERSIDE, CA 92501",347,0,0,"WESSEX INVESTMENTS LLC, 2716 OCEAN PARK BLVD SUITE # 2025, SANTA MONICA, CA 90405"
ROYAL OAKS MHP,LOS ANGELES,19-1020-MP,"18145 W SOLEDAD CANYON RD,  SANTA CLARITA,  CA 91351", SANTA CLARITA,91351, (805) 252-1626,"COUNTY OF LOS ANGELES, 5823 RICKENBACKER RD., COMMERCE, CA 90040","HCD - SOUTHERN AREA OFFICE, 3737 MAIN ST 400, RIVERSIDE, CA 92501",87,0,0,"WEISS, HENRY, 18145 SOLEDAD CANYON RD, CANYON COUNTRY, CA 91351"
CREST MOBILE MANOR,LOS ANGELES,19-1023-MP,"3727 N EQUATION RD,  POMONA,  CA 91767", POMONA,91767, (909) 593-5031,"COUNTY OF LOS ANGELES, 5823 RICKENBACKER RD., COMMERCE, CA 90040","HCD - SOUTHERN AREA OFFICE, 3737 MAIN ST 400, RIVERSIDE, CA 92501",141,0,0,"WORLEY, RICHARD, 625 ESPLANADE #53, REDONDO BEACH, CA 90277"
HARBOR TP,LOS ANGELES,19-1024-MP,"22503 MEYLER ST,  TORRANCE,  CA 90502", TORRANCE,90502, (909) 593-5031,"COUNTY OF LOS ANGELES, 5823 RICKENBACKER RD., COMMERCE, CA 90040","HCD - SOUTHERN AREA OFFICE, 3737 MAIN ST 400, RIVERSIDE, CA 92501",34,0,0,"DZIKOWSKI, STANISLAW, PO BOX 1265, LOMITA, CA 90717"
SANTA FE MOBILE HOME PARK,LOS ANGELES,19-1026-MP,"10484 VALLEY BLVD,  EL MONTE,  CA 91731", EL MONTE,91731, (626) 625-5977,"COUNTY OF LOS ANGELES, 5823 RICKENBACKER RD., COMMERCE, CA 90040","HCD - SOUTHERN AREA OFFICE, 3737 MAIN ST 400, RIVERSIDE, CA 92501",93,0,0,"JDH CAPITAL LLC, 22231 MULHOLLAND HWY #101, CALABASAS, CA 91302"
POMONA ISLANDER,LOS ANGELES,19-1027-MP,"3667 W VALLEY BLVD,  POMONA,  CA 91768", POMONA,91768, (909) 595-2121,"COUNTY OF LOS ANGELES, 5823 RICKENBACKER RD., COMMERCE, CA 90040","HCD - SOUTHERN AREA OFFICE, 3737 MAIN ST 400, RIVERSIDE, CA 92501",227,0,0,"POMONA ISLANDER LP, 478 NEPTUNE, ENCINITAS, CA 92024"
BEST TRAILER PARK,LOS ANGELES,19-1029-MP,"5602 LONG BEACH BLVD,  LONG BEACH,  CA 90805", LONG BEACH,90805, (562) 422-5757,"HCD - SOUTHERN AREA OFFICE, 3737 MAIN ST 400, RIVERSIDE, CA 92501","HCD - SOUTHERN AREA OFFICE, 3737 MAIN ST 400, RIVERSIDE, CA 92501",169,7,0,"DZIKOWSKI INVESTMENTS LLC, 33175 TEMECULA PKWY, STE A #343, TEMECULA, CA 92592"
LAS BRISAS I,LOS ANGELES,19-1030-MP,"400 E ARBOR STREET,  LONG BEACH,  CA 90805", LONG BEACH,90805, (562) 423-5267,"HCD - SOUTHERN AREA OFFICE, 3737 MAIN ST 400, RIVERSIDE, CA 92501","HCD - SOUTHERN AREA OFFICE, 3737 MAIN ST 400, RIVERSIDE, CA 92501",80,0,0,"SHEPHERD, DONALD, 400 EAST ARBOR STREET ATTN:OFFICE, LONG BEACH, CA 90805"
STAR MOBILEHOMES,LOS ANGELES,19-1033-MP,"356 W REDONDO BEACH BLVD,  GARDENA,  CA 90248", GARDENA,90248, (310) 323-3563,"COUNTY OF LOS ANGELES, 5823 RICKENBACKER RD., COMMERCE, CA 90040","HCD - SOUTHERN AREA OFFICE, 3737 MAIN ST 400, RIVERSIDE, CA 92501",30,0,0,"KAJIKAWA, SADAO, 3601 MICHELLE DR, TORRANCE, CA 90503"
GOLDEN STATE MOBILE HOME PARK,LOS ANGELES,19-1035-MP,"16601 S GARFIELD AVE,  PARAMOUNT,  CA 90723", PARAMOUNT,90723, (562) 634-2109,"COUNTY OF LOS ANGELES, 5823 RICKENBACKER RD., COMMERCE, CA 90040","HCD - SOUTHERN AREA OFFICE, 3737 MAIN ST 400, RIVERSIDE, CA 92501",108,0,0,"GOLDEN STATE MHP, LLC, 2723 W COAST HWY, NEWPORT BEACH, CA 92663"
WESTLAND TRAILER CITY,LOS ANGELES,19-1036-MP,"6665 LONG BEACH BLVD,  LONG BEACH,  CA 90815", LONG BEACH,90815, (310) 639-7130,"HCD - SOUTHERN AREA OFFICE, 3737 MAIN ST 400, RIVERSIDE, CA 92501","HCD - SOUTHERN AREA OFFICE, 3737 MAIN ST 400, RIVERSIDE, CA 92501",106,99,0,"ALEVY WESTLAND MHP LLC, 520 W WILLOW ST, LONG BEACH, CA 90806"
HI LEA VILLAGE MOBILE HOME PARK,LOS ANGELES,19-1037-MP,"1560 S OTTERBEIN,  ROWLAND HEIGHTS,  CA 91748", ROWLAND HEIGHTS,91748, (626) 964-4515,"COUNTY OF LOS ANGELES, 5823 RICKENBACKER RD., COMMERCE, CA 90040","HCD - SOUTHERN AREA OFFICE, 3737 MAIN ST 400, RIVERSIDE, CA 92501",188,0,0,"STODDARD, RICHARD, 478 NEPTUNE AVE, ENCINITAS, CA 92024"
COAST MHP,LOS ANGELES,19-1038-MP,"24815 S NORMANDIE,  HARBOR CITY,  CA 90710", HARBOR CITY,90710, (310) 325-1500,"HCD - SOUTHERN AREA OFFICE, 3737 MAIN ST 400, RIVERSIDE, CA 92501","HCD - SOUTHERN AREA OFFICE, 3737 MAIN ST 400, RIVERSIDE, CA 92501",95,0,0,"DZIKOWSKI, TED, 33175 TEMECULA PKWY STE A #343, TEMECULA, CA 92592"
CHARTER OAK MOBILE ESTATES,LOS ANGELES,19-1040-MP,"801 W COVINA BLVD,  SAN DIMAS,  CA 91773", SAN DIMAS,91773, (909) 599-2939,"COUNTY OF LOS ANGELES, 5823 RICKENBACKER RD., COMMERCE, CA 90040","HCD - SOUTHERN AREA OFFICE, 3737 MAIN ST 400, RIVERSIDE, CA 92501",185,0,0,"CITY OF SAN DIMAS, 245 EAST BONITA AVENUE, SAN DIMAS, CA 91773"
LILY OF THE VALLEY,LOS ANGELES,19-1041-MP,"29021 BOUQUET CANYON RD,  SAUGUS,  CA 91350", SAUGUS,91350, (805) 296-8540,"COUNTY OF LOS ANGELES, 5823 RICKENBACKER RD., COMMERCE, CA 90040","HCD - SOUTHERN AREA OFFICE, 3737 MAIN ST 400, RIVERSIDE, CA 92501",181,0,0,"BOGGS, KENDALL, AND STEELE, 80 SO LAKE AVE 719, PASADENA, CA 91101"
ALLSTATE TRAILER VILLAGE CT,LOS ANGELES,19-1042-MP,"1925 CRENSHAW BLVD,  TORRANCE,  CA 90501", TORRANCE,90501, (805) 296-8540,"CITY OF TORRANCE FIRE DEPARTMENT, 3031 TORRANCE BLVD., TORRANCE, CA 90503","HCD - SOUTHERN AREA OFFICE, 3737 MAIN ST 400, RIVERSIDE, CA 92501",27,0,0,"FRANICH, PATRICIA, 404 PASEO DEL MAR, PALOS VERDES ESTATES, CA 90274"
SKYLARK TORRANCE MHP,LOS ANGELES,19-1044-MP,"1820 TORRANCE BLVD,  TORRANCE,  CA 90501", TORRANCE,90501, (310) 328-6381,"CITY OF TORRANCE FIRE DEPARTMENT, 3031 TORRANCE BLVD., TORRANCE, CA 90503","HCD - SOUTHERN AREA OFFICE, 3737 MAIN ST 400, RIVERSIDE, CA 92501",33,0,0,"STOCKTON, DOLORES, 1875 CENTURY PARK EAST #600, LOS ANGELES, CA 90067"
KNOLLS LODGE,LOS ANGELES,19-1047-MP,"23701 WESTERN AVE,  TORRANCE,  CA 90501", TORRANCE,90501, (310) 326-1000,"CITY OF TORRANCE FIRE DEPARTMENT, 3031 TORRANCE BLVD., TORRANCE, CA 90503","HCD - SOUTHERN AREA OFFICE, 3737 MAIN ST 400, RIVERSIDE, CA 92501",257,0,0,"KNOLLS LODGE, LP, KNOLLS LODGE, LP 320 N. PARK VISTA ST., ANAHEIM, CA 92806"
SKYLINE MP,LOS ANGELES,19-1050-MP,"2550 PACIFIC COAST HWY,  TORRANCE,  CA 90505", TORRANCE,90505, (805) 296-8540,"CITY OF TORRANCE FIRE DEPARTMENT, 3031 TORRANCE BLVD., TORRANCE, CA 90503","HCD - SOUTHERN AREA OFFICE, 3737 MAIN ST 400, RIVERSIDE, CA 92501",265,0,0,"SKYLINE MOBILE PARK, GENERAL PARTNERSHIP, 2550 PACIFIC COAST HWY, TORRANCE, CA 90505"
SOUTHWOOD MOBILE ESTATES,LOS ANGELES,19-1051-MP,"20550 S EARL ST,  TORRANCE,  CA 90503", TORRANCE,90503, (310) 371-5444,"CITY OF TORRANCE FIRE DEPARTMENT, 3031 TORRANCE BLVD., TORRANCE, CA 90503","HCD - SOUTHERN AREA OFFICE, 3737 MAIN ST 400, RIVERSIDE, CA 92501",48,0,0,"COMMISO, RALPH, 20550 S EARL ST #13, TORRANCE, CA 90503"
SOUTH BAY MOBILE ESTATES,LOS ANGELES,19-1052-MP,"18801 HAWTHORNE BLVD,  TORRANCE,  CA 90503", TORRANCE,90503, (310) 518-5220,"CITY OF TORRANCE FIRE DEPARTMENT, 3031 TORRANCE BLVD., TORRANCE, CA 90503","HCD - SOUTHERN AREA OFFICE, 3737 MAIN ST 400, RIVERSIDE, CA 92501",99,0,0,"18801 HAWTHORNE, LLC, 2716 OCEAN PARK BLVD., #2014, SANTA MONICA, CA 90405"
TORRANCE MOBILEHOME PARK,LOS ANGELES,19-1053-MP,"1900   ARTESIA BLVD,  TORRANCE,  CA 90504", TORRANCE,90504, (310) 329-1674,"CITY OF TORRANCE FIRE DEPARTMENT, 3031 TORRANCE BLVD., TORRANCE, CA 90503","HCD - SOUTHERN AREA OFFICE, 3737 MAIN ST 400, RIVERSIDE, CA 92501",66,0,0,"TORRANCE MHP, 2141 E. BROADWAY RD #105, TEMPE, AZ 85282"
DEL AMO TP,LOS ANGELES,19-1058-MP,"4895 OREGON AVE,  LONG BEACH,  CA 90805", LONG BEACH,90805, (310) 422-2884,"HCD - SOUTHERN AREA OFFICE, 3737 MAIN ST 400, RIVERSIDE, CA 92501","HCD - SOUTHERN AREA OFFICE, 3737 MAIN ST 400, RIVERSIDE, CA 92501",146,0,0,"LES FRAME ENTERPIRSES, INC, 1635 AVIATION BLVD, REDONDO BEACH, CA 90278"
SHADY ACRES MHP #315,LOS ANGELES,19-1059-MP,"5533 LONG BEACH BLVD,  LONG BEACH,  CA 90805", LONG BEACH,90805, (562) 423-0540,"HCD - SOUTHERN AREA OFFICE, 3737 MAIN ST 400, RIVERSIDE, CA 92501","HCD - SOUTHERN AREA OFFICE, 3737 MAIN ST 400, RIVERSIDE, CA 92501",107,0,0,"MOBILE HOME GROUP II, LP, 4900 SANTA ANITA AVE SUITE # 2C, EL MONTE, CA 91731"
WAYSIDE TP,LOS ANGELES,19-1060-MP,"234 E 47TH ST,  LONG BEACH,  CA 90805", LONG BEACH,90805, (310) 428-0633,"HCD - SOUTHERN AREA OFFICE, 3737 MAIN ST 400, RIVERSIDE, CA 92501","HCD - SOUTHERN AREA OFFICE, 3737 MAIN ST 400, RIVERSIDE, CA 92501",50,0,0,"DIVERSIFIED INCOME PROPERTIES L.P, 44104 ROYAL TROON DR, INDIO, CA 92201"
GRANDVIEW MOBILEHOME PARK,LOS ANGELES,19-1062-MP,"4071 GRANDVIEW BLVD,  LOS ANGELES,  CA 90066", LOS ANGELES,90066, (310) 559-2671,"HCD - SOUTHERN AREA OFFICE, 3737 MAIN ST 400, RIVERSIDE, CA 92501","HCD - SOUTHERN AREA OFFICE, 3737 MAIN ST 400, RIVERSIDE, CA 92501",24,0,0,"MATSUAOKA, ROY, 4080 HURON AVE, CULVER CITY, CA 90232"
BRADBURY VISTA MHP,LOS ANGELES,19-1063-MP,"1030 BRADBOURNE AVE,  DUARTE,  CA 91008", DUARTE,91008, (310) 390-4604,"COUNTY OF LOS ANGELES, 5823 RICKENBACKER RD., COMMERCE, CA 90040","HCD - SOUTHERN AREA OFFICE, 3737 MAIN ST 400, RIVERSIDE, CA 92501",44,0,0,"DUARTE HOME PARK LLC, 19 ALLYSSUM, RANCHO SANTA MARGARITA, CA 92688"
BIGS MHP INC,LOS ANGELES,19-1093-MP,"1461 W MISSION BLVD,  POMONA,  CA 91766", POMONA,91766, (714) 974-0397,"COUNTY OF LOS ANGELES, 5823 RICKENBACKER RD., COMMERCE, CA 90040","HCD - SOUTHERN AREA OFFICE, 3737 MAIN ST 400, RIVERSIDE, CA 92501",113,0,0,"BIG S PARTNERS, 22880 SAVI RANCH PARKWAY, YORBA LINDA, CA 92887"
ROSE VILLA MHP,LOS ANGELES,19-1094-MP,"1329 W MISSION BLVD,  POMONA,  CA 91766", POMONA,91766, (626) 377-0638,"COUNTY OF LOS ANGELES, 5823 RICKENBACKER RD., COMMERCE, CA 90040","HCD - SOUTHERN AREA OFFICE, 3737 MAIN ST 400, RIVERSIDE, CA 92501",34,0,0,"YANG, WAYNE, PO BOX 3363, CITY OF INDUSTRY, CA 91744"
POMONA MOBILE ESTATES,LOS ANGELES,19-1095-MP,"1052 E MISSION BLVD.,  POMONA,  CA 91766", POMONA,91766, (909) 720-4649,"COUNTY OF LOS ANGELES, 5823 RICKENBACKER RD., COMMERCE, CA 90040","HCD - SOUTHERN AREA OFFICE, 3737 MAIN ST 400, RIVERSIDE, CA 92501",71,0,0,"WUO, KATHY, PO BOX 734, CORONA DEL MAR, CA 92625"
HI FI MH PLAZA,LOS ANGELES,19-1096-MP,"1010 W HOLT BLVD,  POMONA,  CA 91768", POMONA,91768, (909) 629-6907,"COUNTY OF LOS ANGELES, 5823 RICKENBACKER RD., COMMERCE, CA 90040","HCD - SOUTHERN AREA OFFICE, 3737 MAIN ST 400, RIVERSIDE, CA 92501",98,0,0,"APPEL, ALBERT, 3771 SEASCAPE DR, HUNTINGTON BEACH, CA 92649"
WOODLAWN MOBILE HOME PARK,LOS ANGELES,19-1098-MP,"1096 E MISSION BLVD,  POMONA,  CA 91765", POMONA,91765, (626) 387-9886,"COUNTY OF LOS ANGELES, 5823 RICKENBACKER RD., COMMERCE, CA 90040","HCD - SOUTHERN AREA OFFICE, 3737 MAIN ST 400, RIVERSIDE, CA 92501",31,0,0,"MISSION TRUST/INCOME ESTATES LLC, 449 W. FOOTHILL BLVD. STE. 149, GLENDORA, CA 91741"
THUNDERBIRD MP,LOS ANGELES,19-1099-MP,"1761 E MISSION BLVD,  POMONA,  CA 91766", POMONA,91766, (909) 720-4649,"COUNTY OF LOS ANGELES, 5823 RICKENBACKER RD., COMMERCE, CA 90040","HCD - SOUTHERN AREA OFFICE, 3737 MAIN ST 400, RIVERSIDE, CA 92501",61,0,0,"WUO, KATHY, PO BOX 734, CORONA DEL MAR, CA 92625"
VALLEY CENTER TRAILER ESTATES,LOS ANGELES,19-1100-MP,"1111 PRICE AVE,  POMONA,  CA 91767", POMONA,91767, (909) 469-2798,"COUNTY OF LOS ANGELES, 5823 RICKENBACKER RD., COMMERCE, CA 90040","HCD - SOUTHERN AREA OFFICE, 3737 MAIN ST 400, RIVERSIDE, CA 92501",59,0,0,"STEEN, DICK, 1635 AVIATION BLVD, REDONDO BEACH, CA 90278"
LOS AMIGOS MOBILE ESTATES,LOS ANGELES,19-1101-MP,"20806 S GRIDLEY RD,  LAKEWOOD,  CA 90715", LAKEWOOD,90715, (310) 860-0205,"COUNTY OF LOS ANGELES, 5823 RICKENBACKER RD., COMMERCE, CA 90040","HCD - SOUTHERN AREA OFFICE, 3737 MAIN ST 400, RIVERSIDE, CA 92501",71,0,0,"THE MARY MITSUUCHI TRUST, C/O LES FRAME MANAGEMENT, INC 1635 AVIATION BLVD, REDONDO BEACH, CA 90278"
PACIFIC PALISADES BOWL MOBILE ESTATES,LOS ANGELES,19-1103-MP,"16321 PACIFIC COAST HWY,  PACIFIC PALISADES,  CA 90272", PACIFIC PALISADES,90272, (310) 454-2515,"HCD - SOUTHERN AREA OFFICE, 3737 MAIN ST 400, RIVERSIDE, CA 92501","HCD - SOUTHERN AREA OFFICE, 3737 MAIN ST 400, RIVERSIDE, CA 92501",173,0,0,"PACIFIC PALISADES BOWL MOBILE ESTATES, 4341 ABERNATHY RD., FAIRFIELD, CA 94534"
SIERRA SPRINGS VILLAGE DE LLC,LOS ANGELES,19-1104-MP,"7560 WOODMAN PL,  VAN NUYS,  CA 91405", VAN NUYS,91405, (818) 785-6266,"HCD - SOUTHERN AREA OFFICE, 3737 MAIN ST 400, RIVERSIDE, CA 92501","HCD - SOUTHERN AREA OFFICE, 3737 MAIN ST 400, RIVERSIDE, CA 92501",148,0,0,"WILLIAMSON, DANIEL, PO BOX 13643, CHANDLER, AZ 85248"
TAHITIAN TERRACE,LOS ANGELES,19-1105-MP,"16001 PACIFIC COAST HWY,  PACIFIC PALISADES,  CA 90272", PACIFIC PALISADES,90272, (310) 454-7557,"HCD - SOUTHERN AREA OFFICE, 3737 MAIN ST 400, RIVERSIDE, CA 92501","HCD - SOUTHERN AREA OFFICE, 3737 MAIN ST 400, RIVERSIDE, CA 92501",158,0,0,"AZUL PACIFICO INC, 16001 PACIFIC COAST HWY, PACIFIC PALISADES, CA 90272"
SHELTER ISLE MOBILE ESTATES,LOS ANGELES,19-1107-MP,"10965 GLENOAKS,  PACOIMA,  CA 91331", PACOIMA,91331, (818) 896-1400,"HCD - SOUTHERN AREA OFFICE, 3737 MAIN ST 400, RIVERSIDE, CA 92501","HCD - SOUTHERN AREA OFFICE, 3737 MAIN ST 400, RIVERSIDE, CA 92501",260,0,0,"HELMS-HOWARD INC, 127 W. ORTEGA STREET, SANTA BARBARA, CA 93101"
TAHITIAN MHP,LOS ANGELES,19-1108-MP,"15445 COLBALT AVE,  SYLMAR,  CA 91342", SYLMAR,91342, (818) 367-7100,"HCD - SOUTHERN AREA OFFICE, 3737 MAIN ST 400, RIVERSIDE, CA 92501","HCD - SOUTHERN AREA OFFICE, 3737 MAIN ST 400, RIVERSIDE, CA 92501",236,0,0,"TAHITIAN PARTNERS LLC, 320 N PARK VISTA STREET, ANAHEIM, CA 92806"
SUNBURST MOBILE HOME ESTATES,LOS ANGELES,19-1109-MP,"21001 PLUMMER ST,  CHATSWORTH,  CA 91311", CHATSWORTH,91311, (818) 341-3737,"HCD - SOUTHERN AREA OFFICE, 3737 MAIN ST 400, RIVERSIDE, CA 92501","HCD - SOUTHERN AREA OFFICE, 3737 MAIN ST 400, RIVERSIDE, CA 92501",118,0,0,"BROTT, JAMES, 6255 N. SHERIDAN RD #33, CHICAGO, IL 60660"
ARROW MOBILE HOMEPARK,LOS ANGELES,19-1116-MP,"1523 W 259TH ST,  HARBOR CITY,  CA 90710", HARBOR CITY,90710, (310) 207-1600,"HCD - SOUTHERN AREA OFFICE, 3737 MAIN ST 400, RIVERSIDE, CA 92501","HCD - SOUTHERN AREA OFFICE, 3737 MAIN ST 400, RIVERSIDE, CA 92501",15,0,0,"HELENA, FONTAINE, 1523 W. 259TH ST. SPACE # B9, HARBOR CITY, CA 90710"
AAA TRAILER HOME ESTATES,LOS ANGELES,19-1128-MP,"660 SAN FERNANDO RD,  LOS ANGELES,  CA 90065", LOS ANGELES,90065, (213) 221-0100,"HCD - SOUTHERN AREA OFFICE, 3737 MAIN ST 400, RIVERSIDE, CA 92501","HCD - SOUTHERN AREA OFFICE, 3737 MAIN ST 400, RIVERSIDE, CA 92501",27,0,0,"AAA ASSOCIATES LLC, 2708 WILSHIRE BLVD SUITE # 465, SANTA MONICA, CA 90403"
EAGLE ROCK SPRINGS,LOS ANGELES,19-1131-MP,"5051 ARGUS DR,  LOS ANGELES,  CA 90041", LOS ANGELES,90041, (213) 255-0626,"HCD - SOUTHERN AREA OFFICE, 3737 MAIN ST 400, RIVERSIDE, CA 92501","HCD - SOUTHERN AREA OFFICE, 3737 MAIN ST 400, RIVERSIDE, CA 92501",31,0,0,"EAGLE ROCK SPRING LLC, 1860 E HORSESHOE DR, CHANDLER, AZ 85249"
ELM LANE TP,LOS ANGELES,19-1136-MP,"7337 ETHEL AVE,  NORTH HOLLYWOOD,  CA 91605", NORTH HOLLYWOOD,91605, (408) 254-3698,"HCD - SOUTHERN AREA OFFICE, 3737 MAIN ST 400, RIVERSIDE, CA 92501","HCD - SOUTHERN AREA OFFICE, 3737 MAIN ST 400, RIVERSIDE, CA 92501",35,0,0,"VU, LIEN, 3483 CANYON CREEK DR, SAN JOSE, CA 95132"
HOLLYWOOD BACKLOT BUNGALOWS,LOS ANGELES,19-1137-MP,"8250 LANKERSHIM BLVD,  NORTH HOLLYWOOD,  CA 91605", NORTH HOLLYWOOD,91605, (818) 358-5019,"HCD - SOUTHERN AREA OFFICE, 3737 MAIN ST 400, RIVERSIDE, CA 92501","HCD - SOUTHERN AREA OFFICE, 3737 MAIN ST 400, RIVERSIDE, CA 92501",196,0,0,"8250 LANKERSHIM OWNER LLC, 484 S SAN VICENTE BLVD, LOS ANGELES, CA 90048"
NORTHRIDGE MHP,LOS ANGELES,19-1142-MP,"19120 NORDHOFF ST,  NORTHRIDGE,  CA 91324", NORTHRIDGE,91324, (818) 349-2331,"HCD - SOUTHERN AREA OFFICE, 3737 MAIN ST 400, RIVERSIDE, CA 92501","HCD - SOUTHERN AREA OFFICE, 3737 MAIN ST 400, RIVERSIDE, CA 92501",168,0,0,"A SHERMAN TRUST, PO BOX 11044 MARINA DEL REY, MARINA DEL REY, CA 90295"
GLENOAKS MOBILEHOME PARK,LOS ANGELES,19-1150-MP,"10471 GLENOAKS BLVD,  PACOIMA,  CA 91331", PACOIMA,91331, (818) 896-7172,"HCD - SOUTHERN AREA OFFICE, 3737 MAIN ST 400, RIVERSIDE, CA 92501","HCD - SOUTHERN AREA OFFICE, 3737 MAIN ST 400, RIVERSIDE, CA 92501",70,0,0,"GLENOAKS MHP, LLC, PO BOX 15274, NEWPORT BEACH, CA 92659"
SHADOW HILLS TP,LOS ANGELES,19-1153-MP,"12600 VAN NUYS BLVD,  PACOIMA,  CA 91331", PACOIMA,91331, (818) 896-7161,"HCD - SOUTHERN AREA OFFICE, 3737 MAIN ST 400, RIVERSIDE, CA 92501","HCD - SOUTHERN AREA OFFICE, 3737 MAIN ST 400, RIVERSIDE, CA 92501",96,0,0,"J&H ASSET PROPERTY MANAGEMENT, 22880 SAVI RANCH PARKWAY, YORBA LINDA, CA 92887"
PARK ESTATES MHP,LOS ANGELES,19-1156-MP,"12301 SAN FERNANDO RD,  SYLMAR,  CA 91342", SYLMAR,91342, (818) 367-2967,"HCD - SOUTHERN AREA OFFICE, 3737 MAIN ST 400, RIVERSIDE, CA 92501","HCD - SOUTHERN AREA OFFICE, 3737 MAIN ST 400, RIVERSIDE, CA 92501",89,43,0,"BLACK BEAR LLC, 1048 IRVINE AVENUE #309, NEWPORT BEACH, CA 92660"
METROLINK M.H.P.,LOS ANGELES,19-1158-MP,"12245 SAN FERNANDO RD,  SYLMAR,  CA 91342", SYLMAR,91342, (818) 336-6555,"HCD - SOUTHERN AREA OFFICE, 3737 MAIN ST 400, RIVERSIDE, CA 92501","HCD - SOUTHERN AREA OFFICE, 3737 MAIN ST 400, RIVERSIDE, CA 92501",38,0,0,"MILANA IX, LLC, PO BOX 915, TUSTIN, CA 92781"
CASCADE MOBILE VILLA,LOS ANGELES,19-1159-MP,"14748 SAN FERNANDO RD,  SYLMAR,  CA 91342", SYLMAR,91342, (818) 364-9273,"HCD - SOUTHERN AREA OFFICE, 3737 MAIN ST 400, RIVERSIDE, CA 92501","HCD - SOUTHERN AREA OFFICE, 3737 MAIN ST 400, RIVERSIDE, CA 92501",5,0,0,"GLORIA PITT (LIFE ESTATE), 529 COLONIAL PARK DR, SANTA ROSA, CA 95403"
MISSION MOBILE MANOR,LOS ANGELES,19-1160-MP,"15300 BRAND BLVD.,  MGR'S OFF,  MISSION HILLS", MGR'S OFF,HILLS, CA 91345,"HCD - SOUTHERN AREA OFFICE, 3737 MAIN ST 400, RIVERSIDE, CA 92501","HCD - SOUTHERN AREA OFFICE, 3737 MAIN ST 400, RIVERSIDE, CA 92501",95,0,0,"WILSHIRE RANCH LLC, 15300 BRAND BLVD-OFFICE, MISSION HILLS, CA 91345"
FASSLER TP,LOS ANGELES,19-1167-MP,"11167 PENROSE ST,  SUN VALLEY,  CA 91352", SUN VALLEY,91352, (999) 768-5800,"HCD - SOUTHERN AREA OFFICE, 3737 MAIN ST 400, RIVERSIDE, CA 92501","HCD - SOUTHERN AREA OFFICE, 3737 MAIN ST 400, RIVERSIDE, CA 92501",11,0,3,"ZAUCHA, K, 8719 BRADLEY, SUN VALLEY, CA 91352"
SUN VALLEY ESTATES,LOS ANGELES,19-1169-MP,"8391 SAN FERNANDO RD,  SUN VALLEY,  CA 91352", SUN VALLEY,91352, (310) 901-9269,"HCD - SOUTHERN AREA OFFICE, 3737 MAIN ST 400, RIVERSIDE, CA 92501","HCD - SOUTHERN AREA OFFICE, 3737 MAIN ST 400, RIVERSIDE, CA 92501",27,0,0,"APB PROPERTIES LLC, 15740 PARAMOUNT BLVD SUITE # E, PARAMOUNT, CA 90723"
SHERMAN GROVE MHP,LOS ANGELES,19-1172-MP,"10711 SHERMAN GROVE AVE,  SUNLAND,  CA 91040", SUNLAND,91040, (818) 353-1085,"HCD - SOUTHERN AREA OFFICE, 3737 MAIN ST 400, RIVERSIDE, CA 92501","HCD - SOUTHERN AREA OFFICE, 3737 MAIN ST 400, RIVERSIDE, CA 92501",75,0,0,"SHERMAN GROVE MHP LLC, PO BOX 1646, SAN JUAN CAPISTRANO, CA 92693"
SUNLAND MOBILE HOME PARK,LOS ANGELES,19-1173-MP,"10799 SHERMAN GROVE AVE,  SUNLAND,  CA 91040", SUNLAND,91040, (818) 353-1085,"HCD - SOUTHERN AREA OFFICE, 3737 MAIN ST 400, RIVERSIDE, CA 92501","HCD - SOUTHERN AREA OFFICE, 3737 MAIN ST 400, RIVERSIDE, CA 92501",78,0,0,"YISAN LLC, 10799 SHERMAN GROVE AVE OFFICE, SUNLAND, CA 91040"
SUNLAND TRAILER PARK LLC,LOS ANGELES,19-1174-MP,"10444 SHERMAN GROVE,  SUNLAND,  CA 91040", SUNLAND,91040, (818) 353-2535,"HCD - SOUTHERN AREA OFFICE, 3737 MAIN ST 400, RIVERSIDE, CA 92501","HCD - SOUTHERN AREA OFFICE, 3737 MAIN ST 400, RIVERSIDE, CA 92501",52,0,0,"DIANE RYAN,EDWARD EKMAN,CAROL CRABB, 10444 SHERMAN GROVE AVENUE, SUNLAND, CA 91040"
MONTE VISTA MHP,LOS ANGELES,19-1175-MP,"8100 FOOTHILL BLVD,  SUNLAND,  CA 91040", SUNLAND,91040, (818) 353-7910,"HCD - SOUTHERN AREA OFFICE, 3737 MAIN ST 400, RIVERSIDE, CA 92501","HCD - SOUTHERN AREA OFFICE, 3737 MAIN ST 400, RIVERSIDE, CA 92501",70,0,0,"LES FRAME ENTERPRISES INC, 1635 AVIATION BLVD., REDONDO BEACH, CA 90278"
SYLMAR MANOR,LOS ANGELES,19-1176-MP,"13120 BRADLEY AVE,  SYLMAR,  CA 91342", SYLMAR,91342, (818) 367-2304,"HCD - SOUTHERN AREA OFFICE, 3737 MAIN ST 400, RIVERSIDE, CA 92501","HCD - SOUTHERN AREA OFFICE, 3737 MAIN ST 400, RIVERSIDE, CA 92501",66,0,0,"SYLMAR MANOR LLC, 4348 LOS VECINOS, FALLBROOK, CA 92028"
ABC WISHING WELL,LOS ANGELES,19-1179-MP,"20315 S DENKER STREET,  TORRANCE,  CA 90501", TORRANCE,90501, (310) 533-5080,"CITY OF TORRANCE FIRE DEPARTMENT, 3031 TORRANCE BLVD., TORRANCE, CA 90503","HCD - SOUTHERN AREA OFFICE, 3737 MAIN ST 400, RIVERSIDE, CA 92501",34,0,0,"WOLF BYPASS TRUST, MARILYN UHLER WOLF, TRUSTEE, 17291 IRVINE BLVD #450, TUSTIN, CA 92780"
VALENCIA GROVE,LOS ANGELES,19-1186-MP,"7800 BALBOA BLVD,  VAN NUYS,  CA 91406", VAN NUYS,91406, (999) 544-9736,"HCD - SOUTHERN AREA OFFICE, 3737 MAIN ST 400, RIVERSIDE, CA 92501","HCD - SOUTHERN AREA OFFICE, 3737 MAIN ST 400, RIVERSIDE, CA 92501",63,0,0,"CHATT, ANDREW, 7800 BALBOA BLVD #9, VAN NUYS, CA 91406"
BIRMINGHAM RV PARK,LOS ANGELES,19-1189-MP,"7740 BALBOA BLVD,  VAN NUYS,  CA 91316", VAN NUYS,91316, (805) 298-8845,"HCD - SOUTHERN AREA OFFICE, 3737 MAIN ST 400, RIVERSIDE, CA 92501","HCD - SOUTHERN AREA OFFICE, 3737 MAIN ST 400, RIVERSIDE, CA 92501",187,0,0,"DELAPLANE, DAVID, PO BOX 940460, SIMI VALLEY, CA 93094"
WOODLEY TRAILER LODGE,LOS ANGELES,19-1191-MP,"7936 WOODLEY AVE,  VAN NUYS,  CA 91406", VAN NUYS,91406, (818) 782-8737,"HCD - SOUTHERN AREA OFFICE, 3737 MAIN ST 400, RIVERSIDE, CA 92501","HCD - SOUTHERN AREA OFFICE, 3737 MAIN ST 400, RIVERSIDE, CA 92501",3,23,0,"WOODLEY TRAILER PARK, 1520 WASHINGTON BLVD #100, MONTEBELLO, CA 90640"
RESEDA MHP,LOS ANGELES,19-1192-MP,"6545 WILBUR AVE,  RESEDA,  CA 91335", RESEDA,91335, (818) 345-6345,"HCD - SOUTHERN AREA OFFICE, 3737 MAIN ST 400, RIVERSIDE, CA 92501","HCD - SOUTHERN AREA OFFICE, 3737 MAIN ST 400, RIVERSIDE, CA 92501",108,0,0,"RESEDA MOBILE ASSOCIATES LP, 320 N PARK VISTA ST, ANAHEIM, CA 92806"
PARK ROYALE TP,LOS ANGELES,19-1193-MP,"7650 BALBOA BLVD,  VAN NUYS,  CA 91406", VAN NUYS,91406,,"HCD - SOUTHERN AREA OFFICE, 3737 MAIN ST 400, RIVERSIDE, CA 92501","HCD - SOUTHERN AREA OFFICE, 3737 MAIN ST 400, RIVERSIDE, CA 92501",145,0,0,"WEINTRAUB FINANCIAL SERVICES INC., PO BOX 1919, RANCHO CUCAMONGA, CA 91729"
SHADY GROVE TP,LOS ANGELES,19-1194-MP,"16811 SATICOY ST,  VAN NUYS,  CA 91406", VAN NUYS,91406, (818) 785-2960,"HCD - SOUTHERN AREA OFFICE, 3737 MAIN ST 400, RIVERSIDE, CA 92501","HCD - SOUTHERN AREA OFFICE, 3737 MAIN ST 400, RIVERSIDE, CA 92501",23,0,0,"JJB INVESTMENT PROPERTIES, LLC, 18017 CHATSWORTH ST. STE. 320, GRANADA HILLS, CA 91344"
WILMINGTON MH LODGE,LOS ANGELES,19-1197-MP,"900 E DENNI ST,  WILMINGTON,  CA 90744", WILMINGTON,90744, (818) 785-2960,"COUNTY OF LOS ANGELES, 5823 RICKENBACKER RD., COMMERCE, CA 90040","HCD - SOUTHERN AREA OFFICE, 3737 MAIN ST 400, RIVERSIDE, CA 92501",59,0,0,"HANSEL, WILLIAM, 1234 DELORES ST, WILMINGTON, CA 90744"
ROYAL PALMS MHP,LOS ANGELES,19-1199-MP,"21210 E ARROW HWY,  COVINA,  CA 91722", COVINA,91722, (626) 331-4128,"COUNTY OF LOS ANGELES, 5823 RICKENBACKER RD., COMMERCE, CA 90040","HCD - SOUTHERN AREA OFFICE, 3737 MAIN ST 400, RIVERSIDE, CA 92501",166,0,0,"STEINBERG FAMILY L P, PO BOX 571986, TARZANA, CA 91357"
SLB TOP O TOPANGA HOA,LOS ANGELES,19-1200-MP,"3360 N TOPANGA CANYON BLVD,  TOPANGA,  CA 90290", TOPANGA,90290, (818) 346-9252,"COUNTY OF LOS ANGELES, 5823 RICKENBACKER RD., COMMERCE, CA 90040","HCD - SOUTHERN AREA OFFICE, 3737 MAIN ST 400, RIVERSIDE, CA 92501",222,0,0,"TOP O TOPANGA COMMUNITY ASSOCIATION INC, ATTN: LORDON MANAGEMENT 1275 CENTER COURT DR, COVINA, CA 91724"
COUNTRY ESTATE MHP,LOS ANGELES,19-1201-MP,"1502 E CARSON ST,  CARSON,  CA 90745", CARSON,90745, (310) 834-7109,"COUNTY OF LOS ANGELES, 5823 RICKENBACKER RD., COMMERCE, CA 90040","HCD - SOUTHERN AREA OFFICE, 3737 MAIN ST 400, RIVERSIDE, CA 92501",139,0,0,"KLEEGE, R, 12625 HIGH BLUFF DRIVE, #310, SAN DIEGO, CA 92130"
ARROWHEAD MHP,LOS ANGELES,19-1205-MP,"201 E ARROW HWY,  GLENDORA,  CA 91740", GLENDORA,91740, (626) 963-2295,"COUNTY OF LOS ANGELES, 5823 RICKENBACKER RD., COMMERCE, CA 90040","HCD - SOUTHERN AREA OFFICE, 3737 MAIN ST 400, RIVERSIDE, CA 92501",85,0,0,"BROOKEMEADOW ASSOCIATES, LP, 320 N. PARK VISTA ST, ANAHEIM, CA 92806"
FOUNTAIN BLUE MHP,LOS ANGELES,19-1210-MP,"1765 PUENTE AVE,  BALDWIN PARK,  CA 91706", BALDWIN PARK,91706, (818) 963-2295,"COUNTY OF LOS ANGELES, 5823 RICKENBACKER RD., COMMERCE, CA 90040","HCD - SOUTHERN AREA OFFICE, 3737 MAIN ST 400, RIVERSIDE, CA 92501",62,0,0,"FOUNTAIN BLUE MOBILE HOME PARK LLC, PO BOX 28507, SANTA ANA, CA 92799"
BROOKSIDE CC ESTATES,LOS ANGELES,19-1212-MP,"12700 ELLIOTT AVE,  EL MONTE,  CA 91732", EL MONTE,91732, (949) 417-4082,"COUNTY OF LOS ANGELES, 5823 RICKENBACKER RD., COMMERCE, CA 90040","HCD - SOUTHERN AREA OFFICE, 3737 MAIN ST 400, RIVERSIDE, CA 92501",421,0,0,"BROOKSIDE MHC LLC, 31200 NORTHWESTERN HIGHWAY, FARMINGTON HILLS, MI 48334"
EL RANCHITO,LOS ANGELES,19-1215-MP,"11620 RANCHITO ST,  EL MONTE,  CA 91732", EL MONTE,91732, (818) 444-0097,"COUNTY OF LOS ANGELES, 5823 RICKENBACKER RD., COMMERCE, CA 90040","HCD - SOUTHERN AREA OFFICE, 3737 MAIN ST 400, RIVERSIDE, CA 92501",19,0,0,"BURTON, GLORIA, 214 2ND ST, SEAL BEACH, CA 90740"
WESTLAND ESTATES,LOS ANGELES,19-1216-MP,"1401 W 9TH ST,  POMONA,  CA 91766", POMONA,91766, (714) 622-8706,"COUNTY OF LOS ANGELES, 5823 RICKENBACKER RD., COMMERCE, CA 90040","HCD - SOUTHERN AREA OFFICE, 3737 MAIN ST 400, RIVERSIDE, CA 92501",148,0,0,"AMUSEMENT INDUSTRY INC, 520 W WILLOW ST, LONG BEACH, CA 90806"
VILLAGE MOBILEHOME PARK,LOS ANGELES,19-1217-MP,"231 W AVE G,  LANCASTER,  CA 93534", LANCASTER,93534, (661) 609-7780,"COUNTY OF LOS ANGELES, 5823 RICKENBACKER RD., COMMERCE, CA 90040","HCD - SOUTHERN AREA OFFICE, 3737 MAIN ST 400, RIVERSIDE, CA 92501",34,0,0,"LEE, IN, 23939 WINDWARD LN, VALENCIA, CA 91355"
THUNDERBIRD VILLA MHP,LOS ANGELES,19-1218-MP,"10001 W FRONTAGE RD,  SOUTH GATE,  CA 90280", SOUTH GATE,90280, (909) 885-8722,"COUNTY OF LOS ANGELES, 5823 RICKENBACKER RD., COMMERCE, CA 90040","SOUTH GATE BUILDING INSPECTION, MOBILEHOME PARKS PROGRAM, 8650 CALIFORNIA AVENUE, SOUTH GATE, CA 90280",239,0,0,"AVMGH SIX THUNDERBIRD VILLA, C/O SUBURBAN PARK MANAGEMENT 621 A QUINAN ST, PINOLE, CA 94564"
AMERICANA MHP,LOS ANGELES,19-1219-MP,"16600 DOWNEY AVE,  PARAMOUNT,  CA 90723", PARAMOUNT,90723, (562) 634-7484,"COUNTY OF LOS ANGELES, 5823 RICKENBACKER RD., COMMERCE, CA 90040","HCD - SOUTHERN AREA OFFICE, 3737 MAIN ST 400, RIVERSIDE, CA 92501",174,0,0,"AMERICANA PARAMOUNT LP, 730 POLHEMUS RD #204, SAN MATEO, CA 94402"
AHWANEE MHP,LOS ANGELES,19-1220-MP,"14038 PARAMOUNT BLVD,  PARAMOUNT,  CA 90723", PARAMOUNT,90723, (310) 634-7484,"COUNTY OF LOS ANGELES, 5823 RICKENBACKER RD., COMMERCE, CA 90040","HCD - SOUTHERN AREA OFFICE, 3737 MAIN ST 400, RIVERSIDE, CA 92501",25,0,0,"THE MARLBOROUGH ONE FLP, THE MARLBOROUGH ONE FLP 3483 CANYON CREEK DR., SAN JOSE, CA 95132"
KEEFERS MHP,LOS ANGELES,19-1221-MP,"869 RANDOM LN,  DUARTE,  CA 91010", DUARTE,91010, (626) 582-8001,"COUNTY OF LOS ANGELES, 5823 RICKENBACKER RD., COMMERCE, CA 90040","HCD - SOUTHERN AREA OFFICE, 3737 MAIN ST 400, RIVERSIDE, CA 92501",6,0,0,"JM CREATIVE INVESTMENTS LLC, C/O TAMMY CHAN 1142 S DIAMOND BAR BLVD #813, DIAMOND BAR, CA 91765"
RANCHO DOMINGUEZ MOBILE ESTATES,LOS ANGELES,19-1223-MP,"425 E GARDENA BLVD,  GARDENA,  CA 90248", GARDENA,90248, (213) 329-0184,"COUNTY OF LOS ANGELES, 5823 RICKENBACKER RD., COMMERCE, CA 90040","HCD - SOUTHERN AREA OFFICE, 3737 MAIN ST 400, RIVERSIDE, CA 92501",81,0,0,"CARTER-SPENCER ENTERPRISES, 425 E GARDENA BLVD, GARDENA, CA 90247"
LAS BRISAS,LOS ANGELES,19-1226-MP,"400 E ARBOR STREET,  LONG BEACH,  CA 90805", LONG BEACH,90805, (562) 423-5267,"HCD - SOUTHERN AREA OFFICE, 3737 MAIN ST 400, RIVERSIDE, CA 92501","HCD - SOUTHERN AREA OFFICE, 3737 MAIN ST 400, RIVERSIDE, CA 92501",14,0,0,"SHEPHERD, DONALD, 400 EAST ARBOR STREET ATTN:OFFICE, LONG BEACH, CA 90805"
ROYAL WESTERN MOBILEHOME PARK,LOS ANGELES,19-1228-MP,"17705 S WESTERN AVE,  GARDENA,  CA 90248", GARDENA,90248, (310) 323-6703,"CITY OF TORRANCE FIRE DEPARTMENT, 3031 TORRANCE BLVD., TORRANCE, CA 90503","HCD - SOUTHERN AREA OFFICE, 3737 MAIN ST 400, RIVERSIDE, CA 92501",120,0,0,"ROYAL WESTERN, LP, 320 N. PARK VISTA STREET, ANAHEIM, CA 92806"
DEL AMO GARDENS,LOS ANGELES,19-1229-MP,"20566 PALM WAY,  TORRANCE,  CA 90503", TORRANCE,90503, (310) 371-1427,"CITY OF TORRANCE FIRE DEPARTMENT, 3031 TORRANCE BLVD., TORRANCE, CA 90503","HCD - SOUTHERN AREA OFFICE, 3737 MAIN ST 400, RIVERSIDE, CA 92501",98,0,0,"DEL AMO GARDENS PARTNERSHIP, C/O LES FRAME MGMT 1635 AVIATION BLVD, REDONDO BEACH, CA 90278"
KNOLLS MANOR,LOS ANGELES,19-1232-MP,"24200 WALNUT ST,  TORRANCE,  CA 90501", TORRANCE,90501, (310) 326-1000,"CITY OF TORRANCE FIRE DEPARTMENT, 3031 TORRANCE BLVD., TORRANCE, CA 90503","HCD - SOUTHERN AREA OFFICE, 3737 MAIN ST 400, RIVERSIDE, CA 92501",73,0,0,"KNOLLS LODGE, LP, KNOLLS LODGE, LP 320 N. PARK VISTA ST., ANAHEIM, CA 92806"
DESERT WINDS,LOS ANGELES,19-1233-MP,"45044 N 28TH ST EAST,  LANCASTER,  CA 93535", LANCASTER,93535, (323) 924-5778,"COUNTY OF LOS ANGELES, 5823 RICKENBACKER RD., COMMERCE, CA 90040","HOUSING AND NEIGHBORHOOD REVITALIZATION, MOBILEHOME PARKS PROGRAM, 44933 NORTH FERN AVENUE, LANCASTER, CA 93534",40,0,0,"CHOKHAWALA LP, 3461 ROWENA AVE, LOS ANGELES, CA 90027"
HASLEY CANYON MOBILE ESTATES,LOS ANGELES,19-1235-MP,"30000 HASLEY CANYON RD,  CASTAIC,  CA 91384", CASTAIC,91384, (805) 257-3030,"COUNTY OF LOS ANGELES, 5823 RICKENBACKER RD., COMMERCE, CA 90040","HCD - SOUTHERN AREA OFFICE, 3737 MAIN ST 400, RIVERSIDE, CA 92501",113,0,0,"HASLEY CANYON MOBILE ESTATES LLC, 5092 LAVENDER TERRACE, CHINO HILLS, CA 91709"
SAND CANYON MP,LOS ANGELES,19-1237-MP,"28367 SAND CANYON,  SANTA CLARITA,  CA 91310", SANTA CLARITA,91310, (805) 252-3031,"COUNTY OF LOS ANGELES, 5823 RICKENBACKER RD., COMMERCE, CA 90040","HCD - SOUTHERN AREA OFFICE, 3737 MAIN ST 400, RIVERSIDE, CA 92501",69,0,0,"ASHDON DEVELOPMENT SAND CORP, INC., 28405 SAND CANYON RD SUITE # A, CANYON COUNTRY, CA 91387"
VILLA ROMA MHP,LOS ANGELES,19-1238-MP,"1615 MERCED AVE,  S EL MONTE,  CA 91733", S EL MONTE,91733, (909) 594-0501,"COUNTY OF LOS ANGELES, 5823 RICKENBACKER RD., COMMERCE, CA 90040","HCD - SOUTHERN AREA OFFICE, 3737 MAIN ST 400, RIVERSIDE, CA 92501",60,0,0,"CLIFFSIDE ENTERPRISES, 430 S. DIMAS AVE., SAN DIMAS, CA 91773"
LIDO MHP,LOS ANGELES,19-1239-MP,"22404 S NORMANDIE AVE #7015,  TORRANCE,  CA 90502", TORRANCE,90502, (562) 842-7466,"COUNTY OF LOS ANGELES, 5823 RICKENBACKER RD., COMMERCE, CA 90040","HCD - SOUTHERN AREA OFFICE, 3737 MAIN ST 400, RIVERSIDE, CA 92501",28,0,0,"STARLIGHT MANAGEMENT-17, LP, 4900 SANTA ANITA AVE SUITE # 2C, EL MONTE, CA 91731"
YE RAMBLIN ROSE TRAILER INN,LOS ANGELES,19-1242-MP,"12775 E GARVEY     #0037,  BALDWIN PARK,  CA 91706", BALDWIN PARK,91706, (626) 575-3070,"COUNTY OF LOS ANGELES, 5823 RICKENBACKER RD., COMMERCE, CA 90040","HCD - SOUTHERN AREA OFFICE, 3737 MAIN ST 400, RIVERSIDE, CA 92501",29,0,0,"GROUP VIII COVINA, 4900 SANTA ANITA AVENUE SUITE # 2C, EL MONTE, CA 91731"
TEN TWENTY MHP,LOS ANGELES,19-1245-MP,"1020 S MOUNTAIN AVE,  MONROVIA,  CA 91016", MONROVIA,91016, (818) 367-1771,"HCD - SOUTHERN AREA OFFICE, 3737 MAIN ST 400, RIVERSIDE, CA 92501","HCD - SOUTHERN AREA OFFICE, 3737 MAIN ST 400, RIVERSIDE, CA 92501",33,0,0,"TEN TWENTY, LLC, 2723 WEST COAST HIGHWAY, NEWPORT BEACH, CA 92663"
MONTEREY MANOR,LOS ANGELES,19-1246-MP,"10900 SEPULVEDA BLVD,  MISSION HILLS,  CA 91345", MISSION HILLS,91345, (818) 361-3222,"HCD - SOUTHERN AREA OFFICE, 3737 MAIN ST 400, RIVERSIDE, CA 92501","HCD - SOUTHERN AREA OFFICE, 3737 MAIN ST 400, RIVERSIDE, CA 92501",71,0,0,"SINDELL, BRENDAN, 15300 BRAND BLVD, MISSION HILLS, CA 91345"
FOOTHILL VILLAGE MHP,LOS ANGELES,19-1277-MP,"301 E FOOTHILL BLVD,  POMONA,  CA 91767", POMONA,91767, (818) 447-3878,"COUNTY OF LOS ANGELES, 5823 RICKENBACKER RD., COMMERCE, CA 90040","HCD - SOUTHERN AREA OFFICE, 3737 MAIN ST 400, RIVERSIDE, CA 92501",169,0,0,"FOOTHILL VILLAGE, 31826 VILLAGE CENTER RD STE F, WESTLAKE VILLAGE, CA 91361"
THOUSAND ELMS MOBILE LODGE,LOS ANGELES,19-1281-MP,"37311 N 47TH ST,  PALMDALE,  CA 93552", PALMDALE,93552, (661) 285-4555,"COUNTY OF LOS ANGELES, 5823 RICKENBACKER RD., COMMERCE, CA 90040","HCD - SOUTHERN AREA OFFICE, 3737 MAIN ST 400, RIVERSIDE, CA 92501",222,0,0,"POTTENGER, CRAIG, 5318 E 2ND ST #591, LONG BEACH, CA 90803"
A-1 TRAILER PARK,LOS ANGELES,19-1283-MP,"1280 W PACIFIC COAST HWY,  HARBOR CITY,  CA 90710", HARBOR CITY,90710, (805) 285-4555,"HCD - SOUTHERN AREA OFFICE, 3737 MAIN ST 400, RIVERSIDE, CA 92501","HCD - SOUTHERN AREA OFFICE, 3737 MAIN ST 400, RIVERSIDE, CA 92501",88,0,0,"ROI 1280 LLC, C/O NEWPORT PACIFIC CAPITAL 17300 RED HILL AVE #280, IRVINE, CA 92614"
PARADISE TP,LOS ANGELES,19-1287-MP,"14527 S VERMONT,  GARDENA,  CA 90247", GARDENA,90247, (213) 321-4833,"COUNTY OF LOS ANGELES, 5823 RICKENBACKER RD., COMMERCE, CA 90040","HCD - SOUTHERN AREA OFFICE, 3737 MAIN ST 400, RIVERSIDE, CA 92501",44,0,0,"KASUMI REALTY, PROPERTY MANAGEMENT CO 2161 W. 182ND ST. #101, TORRANCE, CA 90504"
GARDENA VILLAS,LOS ANGELES,19-1292-MP,"16949 S.  WESTERN AVE,  GARDENA,  CA 90247", GARDENA,90247, (310) 329-7001,"COUNTY OF LOS ANGELES, 5823 RICKENBACKER RD., COMMERCE, CA 90040","HCD - SOUTHERN AREA OFFICE, 3737 MAIN ST 400, RIVERSIDE, CA 92501",194,0,0,"PACIFIC MOBILE I, LP, 1033 GAYLEY AVE #200, LOS ANGELES, CA 90024"
"ACE TRAILER PARK LLC, DBA EMERALD",LOS ANGELES,19-1293-MP,"17024 S WESTERN AVE,  GARDENA,  CA 90247", GARDENA,90247, (999) 324-1612,"COUNTY OF LOS ANGELES, 5823 RICKENBACKER RD., COMMERCE, CA 90040","HCD - SOUTHERN AREA OFFICE, 3737 MAIN ST 400, RIVERSIDE, CA 92501",79,0,0,"FLESH MORGAN & PASTERNAK, 1910 S ARCHIBALD AVE SUITE # S, ONTARIO, CA 91761"
GARDEN  WEST ESTATES,LOS ANGELES,19-1294-MP,"17700 S WESTERN AVE,  GARDENA,  CA 90248", GARDENA,90248, (310) 329-2332,"COUNTY OF LOS ANGELES, 5823 RICKENBACKER RD., COMMERCE, CA 90040","HCD - SOUTHERN AREA OFFICE, 3737 MAIN ST 400, RIVERSIDE, CA 92501",202,0,0,"WATT MANAGEMENT INC, 2716 OCEAN PARK BLVD SUITE # 3040, SANTA MONICA, CA 90405"
DEL MONTE MHP,LOS ANGELES,19-1297-MP,"14715 S VERMONT AVE,  GARDENA,  CA 90247", GARDENA,90247, (310) 515-6219,"COUNTY OF LOS ANGELES, 5823 RICKENBACKER RD., COMMERCE, CA 90040","HCD - SOUTHERN AREA OFFICE, 3737 MAIN ST 400, RIVERSIDE, CA 92501",63,0,0,"TAWA, MIKE, 944 STATER STREET, SAN PEDRO, CA 90731"
WIND ROSE MOBILE HOME PARK,LOS ANGELES,19-1299-MP,"15334 LAKEWOOD BLVD,  BELLFLOWER,  CA 90706", BELLFLOWER,90706, (310) 515-6219,"COUNTY OF LOS ANGELES, 5823 RICKENBACKER RD., COMMERCE, CA 90040","HCD - SOUTHERN AREA OFFICE, 3737 MAIN ST 400, RIVERSIDE, CA 92501",21,0,0,"BOOGAARD, JOHN, 14003 LEAHY, BELLFLOWER, CA 90706"
MOBILELAND,LOS ANGELES,19-1301-MP,"1635 W COVINA BLVD,  SAN DIMAS,  CA 91773", SAN DIMAS,91773, (818) 331-5456,"COUNTY OF LOS ANGELES, 5823 RICKENBACKER RD., COMMERCE, CA 90040","HCD - SOUTHERN AREA OFFICE, 3737 MAIN ST 400, RIVERSIDE, CA 92501",103,0,0,"JDH CAPITAL LLC, 22231 MULHOLLAND HWY #101, CALABASAS, CA 91302"
STAR LITE TRAILER VILLAGE,LOS ANGELES,19-1302-MP,"8127 S ATLANTIC AVE,  CUDAHY,  CA 90201", CUDAHY,90201, (818) 331-5456,"COUNTY OF LOS ANGELES, 5823 RICKENBACKER RD., COMMERCE, CA 90040","HCD - SOUTHERN AREA OFFICE, 3737 MAIN ST 400, RIVERSIDE, CA 92501",15,0,0,"CUDAHY LF, LLC, 8484 WILSHIRE BLVD SUITE # 900, BEVERLY HILLS, CA 90211"
WALNUT CREEK MOBILE LODGE,LOS ANGELES,19-1303-MP,"1735 PUENTE AVE,  BALDWIN PARK,  CA 91706", BALDWIN PARK,91706, (818) 571-6286,"COUNTY OF LOS ANGELES, 5823 RICKENBACKER RD., COMMERCE, CA 90040","HCD - SOUTHERN AREA OFFICE, 3737 MAIN ST 400, RIVERSIDE, CA 92501",30,0,0,"WALNUT CREEK INVESTMENT LLC, 2478 STEVENS AVE, ROSEMEAD, CA 91770"
VERMONT VILLAGE,LOS ANGELES,19-1305-MP,"1215 W 134TH ST,  GARDENA,  CA 90247", GARDENA,90247, (310) 327-7718,"COUNTY OF LOS ANGELES, 5823 RICKENBACKER RD., COMMERCE, CA 90040","HCD - SOUTHERN AREA OFFICE, 3737 MAIN ST 400, RIVERSIDE, CA 92501",10,0,0,"DOSHI, DEEPAK, 333 S BREA BLVD, BREA, CA 92821"
CRENSHAW TP,LOS ANGELES,19-1308-MP,"13707 CRENSHAW BLVD,  HAWTHORNE,  CA 90250", HAWTHORNE,90250, (310) 679-2077,"COUNTY OF LOS ANGELES, 5823 RICKENBACKER RD., COMMERCE, CA 90040","HCD - SOUTHERN AREA OFFICE, 3737 MAIN ST 400, RIVERSIDE, CA 92501",0,34,0,"MAHLMEISTER, LLC, PO BOX 2176, HUNTINGTON BEACH, CA 92647"
BLUE SKIES LIVING,LOS ANGELES,19-1314-MP,"34220 CHESEBORO RD,  PALMDALE,  CA 93552", PALMDALE,93552, (661) 533-1488,"COUNTY OF LOS ANGELES, 5823 RICKENBACKER RD., COMMERCE, CA 90040","HCD - SOUTHERN AREA OFFICE, 3737 MAIN ST 400, RIVERSIDE, CA 92501",20,0,0,"AMERICAN RENTAL MANAGEMENT, PO BOX 6044, BAKERSFIELD, CA 93301"
BRIERWOOD MOBILE HOME PARK,LOS ANGELES,19-13146-MP,"45800 CHALLENGER WAY,  LANCASTER,  CA 93535", LANCASTER,93535, (661) 945-2425,"HCD - SOUTHERN AREA OFFICE, 3737 MAIN ST 400, RIVERSIDE, CA 92501","HOUSING AND NEIGHBORHOOD REVITALIZATION, MOBILEHOME PARKS PROGRAM, 44933 NORTH FERN AVENUE, LANCASTER, CA 93534",309,0,0,"CARITAS ACQUISITIONS I, LLC, 3 PARK PLAZA # 1700, IRVINE, CA 92614"
PARKLANE MOBILE ESTATES,LOS ANGELES,19-1320-MP,"20401 SOLEDAD CANYON RD,  SANTA CLARITA,  CA 91351", SANTA CLARITA,91351, (310) 208-8080,"COUNTY OF LOS ANGELES, 5823 RICKENBACKER RD., COMMERCE, CA 90040","HCD - SOUTHERN AREA OFFICE, 3737 MAIN ST 400, RIVERSIDE, CA 92501",435,0,0,"PACIFIC MOBILE III LP, 1033 GAYLEY AVE #200, LOS ANGELES, CA 90024"
PARKERS TP,LOS ANGELES,19-1322-MP,"9585 E GARVEY,  S EL MONTE,  CA 91733", S EL MONTE,91733, (818) 443-2825,"COUNTY OF LOS ANGELES, 5823 RICKENBACKER RD., COMMERCE, CA 90040","HCD - SOUTHERN AREA OFFICE, 3737 MAIN ST 400, RIVERSIDE, CA 92501",38,0,0,"LIU GROUP LLC, 8315 NW HELVETIA ROAD, HILLSBORO, OR 97124"
KLINGERMAN TP,LOS ANGELES,19-1323-MP,"10710 KLINGERMAN ST,  S EL MONTE,  CA 91733", S EL MONTE,91733, (818) 774-8518,"COUNTY OF LOS ANGELES, 5823 RICKENBACKER RD., COMMERCE, CA 90040","HCD - SOUTHERN AREA OFFICE, 3737 MAIN ST 400, RIVERSIDE, CA 92501",10,0,0,"VELASQUEZ, PAUL, 111024 BALBOA BLVD #238, GRANADA HILLS, CA 91344"
WOODLAND PARK MOBILE ESTATES,LOS ANGELES,19-1325-MP,"4201 TOPANGA CANYON BLVD,  WOODLAND HILLS,  CA 91364", WOODLAND HILLS,91364, (818) 774-8518,"HCD - SOUTHERN AREA OFFICE, 3737 MAIN ST 400, RIVERSIDE, CA 92501","HCD - SOUTHERN AREA OFFICE, 3737 MAIN ST 400, RIVERSIDE, CA 92501",199,0,0,"WOODLAND PARK MHC LLC, 18006 SKY PARK CIRCLE SUITE 200, IRVINE, CA 92614"
ALPINE SPRINGS MP,LOS ANGELES,19-1328-MP,"36223 N SIERRA HWY,  PALMDALE,  CA 93550", PALMDALE,93550, (661) 947-9194,"COUNTY OF LOS ANGELES, 5823 RICKENBACKER RD., COMMERCE, CA 90040","HCD - SOUTHERN AREA OFFICE, 3737 MAIN ST 400, RIVERSIDE, CA 92501",52,0,0,"ALPINE SPRINGS LLC, 36223 SIERRA HWY SPACE # 20, PALMDALE, CA 93550"
ELM TRAILER PARK,LOS ANGELES,19-1330-MP,"7605 ATLANTIC AVE,  CUDAHY,  CA 90201", CUDAHY,90201, (805) 947-9194,"COUNTY OF LOS ANGELES, 5823 RICKENBACKER RD., COMMERCE, CA 90040","HCD - SOUTHERN AREA OFFICE, 3737 MAIN ST 400, RIVERSIDE, CA 92501",19,0,0,"SHAFAI, JAMSHID, 7601 ATLANTIC AVE, CUDAHY, CA 90201"
INDIAN HILLS MH VILLAGE,LOS ANGELES,19-1331-MP,"11401 N TOPANGA CANYON BLVD,  CHATSWORTH,  CA 91311", CHATSWORTH,91311, (818) 341-0017,"HCD - SOUTHERN AREA OFFICE, 3737 MAIN ST 400, RIVERSIDE, CA 92501","HCD - SOUTHERN AREA OFFICE, 3737 MAIN ST 400, RIVERSIDE, CA 92501",138,0,0,"INDIAN HILLS VILLAGE, LP, PO BOX 11427, SANTA ANA, CA 92711"
TRAILER GARDEN,LOS ANGELES,19-1332-MP,"8530 E ARTESIA BLVD,  BELLFLOWER,  CA 90706", BELLFLOWER,90706, (818) 341-0017,"COUNTY OF LOS ANGELES, 5823 RICKENBACKER RD., COMMERCE, CA 90040","HCD - SOUTHERN AREA OFFICE, 3737 MAIN ST 400, RIVERSIDE, CA 92501",27,0,0,"PPS PC PARKS LLC, PO BOX 1687, BELLFLOWER, CA 90707"
DESERT SANDS ESTATES,LOS ANGELES,19-13346-MP,"45111 25TH STREET EAST,  LANCASTER,  CA 93535", LANCASTER,93535, (949) 753-1514,"HCD - SOUTHERN AREA OFFICE, 3737 MAIN ST 400, RIVERSIDE, CA 92501","HOUSING AND NEIGHBORHOOD REVITALIZATION, MOBILEHOME PARKS PROGRAM, 44933 NORTH FERN AVENUE, LANCASTER, CA 93534",123,0,0,"CARITAS AFFORDABLE HOUSING INC, 3 PARK PLAZA # 1700, IRVINE, CA 92614"
KINGS WAY GARDENS MH ESTATES LP,LOS ANGELES,19-1335-MP,"2755 ARROW HWY,  LA VERNE,  CA 91750", LA VERNE,91750, (909) 593-7200,"COUNTY OF LOS ANGELES, 5823 RICKENBACKER RD., COMMERCE, CA 90040","HCD - SOUTHERN AREA OFFICE, 3737 MAIN ST 400, RIVERSIDE, CA 92501",176,0,0,"SCHWARTZ, MARVIN, 1107 WEST CHAPMAN AVE SUITE # C, ORANGE, CA 92867"
CHATSWORTH MHP,LOS ANGELES,19-1336-MP,"21500 LASSEN ST,  CHATSWORTH,  CA 91311", CHATSWORTH,91311, (818) 341-0017,"HCD - SOUTHERN AREA OFFICE, 3737 MAIN ST 400, RIVERSIDE, CA 92501","HCD - SOUTHERN AREA OFFICE, 3737 MAIN ST 400, RIVERSIDE, CA 92501",198,0,0,"NOWELL, ERNIE, 3920 NOELA PLACE, HONOLULU, HI 96815"
"DEL REY MP, LLC",LOS ANGELES,19-1339-MP,"3026 BARTLETT AVE,  ROSEMEAD,  CA 91770", ROSEMEAD,91770,,"COUNTY OF LOS ANGELES, 5823 RICKENBACKER RD., COMMERCE, CA 90040","HCD - SOUTHERN AREA OFFICE, 3737 MAIN ST 400, RIVERSIDE, CA 92501",26,0,0,"DEL REY MOBILE HOME PARK, LLC, PO BOX 1180, SAN GABRIEL, CA 91778"
CALIFORNIAN MH ESTATES,LOS ANGELES,19-1340-MP,"7101 ROSECRANS AVE RESIDENT IN #1,  PARAMOUNT,  CA 90723", PARAMOUNT,90723, (310) 630-1867,"COUNTY OF LOS ANGELES, 5823 RICKENBACKER RD., COMMERCE, CA 90040","HCD - SOUTHERN AREA OFFICE, 3737 MAIN ST 400, RIVERSIDE, CA 92501",210,0,0,"THE CALIFORNIAN ESTATES, 7101 EAST ROSECRANS AVE. MANAGER, SPACE 125, PARAMOUNT, CA 90723"
CALI LAKE RV RESORT,LOS ANGELES,19-1342-MP,"10645 SOLEDAD CANYON RD,  SANTA CLARITA,  CA 91350", SANTA CLARITA,91350, (805) 268-1011,"COUNTY OF LOS ANGELES, 5823 RICKENBACKER RD., COMMERCE, CA 90040","HCD - SOUTHERN AREA OFFICE, 3737 MAIN ST 400, RIVERSIDE, CA 92501",0,103,0,"OCEANS 11 RV PARK LLC, 1025 MCFARLAND AVE, WILMINGTON, CA 90744"
WINTERHAVEN MHP,LOS ANGELES,19-1344-MP,"18348 W AVE D,  LANCASTER,  CA 93534", LANCASTER,93534, (818) 724-1571,"COUNTY OF LOS ANGELES, 5823 RICKENBACKER RD., COMMERCE, CA 90040","HCD - SOUTHERN AREA OFFICE, 3737 MAIN ST 400, RIVERSIDE, CA 92501",20,0,0,"SOLOMON, TERRY, 18348 WEST AVE D, LANCASTER, CA 93536"
GRAD'S TRAILER PARK #1,LOS ANGELES,19-1345-MP,"14315 KINGSDALE AVE,  LAWNDALE,  CA 90260", LAWNDALE,90260, (310) 679-0229,"COUNTY OF LOS ANGELES, 5823 RICKENBACKER RD., COMMERCE, CA 90040","HCD - SOUTHERN AREA OFFICE, 3737 MAIN ST 400, RIVERSIDE, CA 92501",18,0,0,"GRAD'S TRAILER PARK'S MARTIN GRAD & SHARON BRESSLER, 19661 GREENBRIAR DR, TARZANA, CA 91356"
METROPOLITAN ESTATES,LOS ANGELES,19-1346-MP,"16600 ORANGE AVE,  PARAMOUNT,  CA 90723", PARAMOUNT,90723, (562) 630-3937,"COUNTY OF LOS ANGELES, 5823 RICKENBACKER RD., COMMERCE, CA 90040","HCD - SOUTHERN AREA OFFICE, 3737 MAIN ST 400, RIVERSIDE, CA 92501",154,0,0,"VERHOEVEN, JOHN, 20805 PASEO DE LA RAMBLA, YORBA LINDA, CA 92887"
EL RANCHO VERDE,LOS ANGELES,19-1348-MP,"1501 PALOS VERDES DR,  HARBOR CITY,  CA 90710", HARBOR CITY,90710, (310) 534-1443,"HCD - SOUTHERN AREA OFFICE, 3737 MAIN ST 400, RIVERSIDE, CA 92501","HCD - SOUTHERN AREA OFFICE, 3737 MAIN ST 400, RIVERSIDE, CA 92501",131,0,0,"KURNICK, PROPERTIES, PO BOX 1136, DOWNEY, CA 90240"
VALLE VERDE COURTYARD,LOS ANGELES,19-1350-MP,"20652 LASSEN STREET,  CHATSWORTH,  CA 91311", CHATSWORTH,91311, (818) 341-4121,"HCD - SOUTHERN AREA OFFICE, 3737 MAIN ST 400, RIVERSIDE, CA 92501","HCD - SOUTHERN AREA OFFICE, 3737 MAIN ST 400, RIVERSIDE, CA 92501",184,0,0,"CAL FALLBROOK PARTNERS, LLC, 1601 CARMEN DRIVE SUITE # 100, CAMARILLO, CA 93010"
MALIBU VILLAGE MOBILEHOME OWNERS ASSOCIATION INC,LOS ANGELES,19-1352-MP,"17015 PACIFIC COAST HWY,  PACIFIC PALISADES,  CA 90272", PACIFIC PALISADES,90272, (707) 539-3121,"HCD - SOUTHERN AREA OFFICE, 3737 MAIN ST 400, RIVERSIDE, CA 92501","HCD - SOUTHERN AREA OFFICE, 3737 MAIN ST 400, RIVERSIDE, CA 92501",29,0,0,"MALIBU VILLAGE MOBILEHOME OWNERS ASSOCIATION INC, 1275 CENTER COURT, COVINA, CA 91724"
RANCHO GLENDORA MOBILE VILLAS,LOS ANGELES,19-1354-MP,"1630 S BARRANCA,  GLENDORA,  CA 91740", GLENDORA,91740, (626) 966-4600,"COUNTY OF LOS ANGELES, 5823 RICKENBACKER RD., COMMERCE, CA 90040","HCD - SOUTHERN AREA OFFICE, 3737 MAIN ST 400, RIVERSIDE, CA 92501",178,0,0,"J & H ASSET PROPERTY MANAGEMENT, 22880 SAVI RANCH PKWY, YORBA LINDA, CA 92887"
FAIRVIEW RV PARK,LOS ANGELES,19-13566-MP,"1101 W MCKINLEY AVE,  POMONA,  CA 91768", POMONA,91768, (909) 865-4319,"HCD - SOUTHERN AREA OFFICE, 3737 MAIN ST 400, RIVERSIDE, CA 92501","HCD - SOUTHERN AREA OFFICE, 3737 MAIN ST 400, RIVERSIDE, CA 92501",0,160,0,"LOS ANGELES COUNTY FAIR ASSOCIATION, 1101 W MC KINLEY AVE, POMONA, CA 91768"
OCEANS 11 RV PARK LLC,LOS ANGELES,19-13567-MP,"1025 MCFARLAND AVE,  WILMINGTON,  CA 90744", WILMINGTON,90744, (818) 268-5872,"null, null","HCD - SOUTHERN AREA OFFICE, 3737 MAIN ST 400, RIVERSIDE, CA 92501",0,43,0,"OCEANS 11 RV PARK LLC, 1025 MCFARLAND AVE, WILMINGTON, CA 90744"
03RANCHO LA PUENTE,LOS ANGELES,19-1357-MP,"18151 VALLEY BLVD #0460,  LA PUENTE,  CA 91744", LA PUENTE,91744, (626) 575-3020,"COUNTY OF LOS ANGELES, 5823 RICKENBACKER RD., COMMERCE, CA 90040","HCD - SOUTHERN AREA OFFICE, 3737 MAIN ST 400, RIVERSIDE, CA 92501",97,0,0,"GROUP IX BP PROPERTIES, LP, 4900 SANTA ANITA AVE, #2C, EL MONTE, CA 91731"
WHITTIER MOBILE COUNTRY CLUB,LOS ANGELES,19-1358-MP,"10550 DUNLAP CROSSING RD,  WHITTIER,  CA 90606", WHITTIER,90606, (562) 692-2755,"COUNTY OF LOS ANGELES, 5823 RICKENBACKER RD., COMMERCE, CA 90040","HCD - SOUTHERN AREA OFFICE, 3737 MAIN ST 400, RIVERSIDE, CA 92501",188,0,0,"WHITTIER MOBILE COUNTRY CLUB, A PARTNERSHIP, 10550 DUNLAP CROSSING RD, WHITTIER, CA 90606"
LE BELLE CHATEAU ESTATES,LOS ANGELES,19-1360-MP,"19127 S PIONEER BLVD,  ARTESIA,  CA 90701", ARTESIA,90701, (562) 860-1516,"COUNTY OF LOS ANGELES, 5823 RICKENBACKER RD., COMMERCE, CA 90040","HCD - SOUTHERN AREA OFFICE, 3737 MAIN ST 400, RIVERSIDE, CA 92501",97,0,0,"D & GJ INVESTMENTS, PO BOX 2308, LAGUNA HILLS, CA 92654"
LANCASTER PARK,LOS ANGELES,19-1361-MP,"47455  DIVISION STREET,  LANCASTER,  CA 93535", LANCASTER,93535, (661) 723-0077,"COUNTY OF LOS ANGELES, 5823 RICKENBACKER RD., COMMERCE, CA 90040","HCD - SOUTHERN AREA OFFICE, 3737 MAIN ST 400, RIVERSIDE, CA 92501",21,0,0,"METTER, KEITH, PO BOX 605, LANCASTER, CA 93584"
IMPERIAL CARSON MOBILE ESTATES,LOS ANGELES,19-1362-MP,"21111 DOLORES ST,  CARSON,  CA 90745", CARSON,90745, (714) 645-3814,"COUNTY OF LOS ANGELES, 5823 RICKENBACKER RD., COMMERCE, CA 90040","HCD - SOUTHERN AREA OFFICE, 3737 MAIN ST 400, RIVERSIDE, CA 92501",192,0,0,"CHA, CHARLES, 2336 W. 230TH PLACE, TORRANCE, CA 90501"
SAN DIMAS ROYAL HOME PARK,LOS ANGELES,19-1365-MP,"1630 W COVINA BLVD,  SAN DIMAS,  CA 91773", SAN DIMAS,91773, (714) 447-3167,"COUNTY OF LOS ANGELES, 5823 RICKENBACKER RD., COMMERCE, CA 90040","HCD - SOUTHERN AREA OFFICE, 3737 MAIN ST 400, RIVERSIDE, CA 92501",111,0,0,"DANIELL, E., C/O MOBILE MODULAR DEVELOPMENTS INC 824 S EUCLID AVE, FULLERTON, CA 92832"
CANOGA MOBILE ESTATES,LOS ANGELES,19-1370-MP,"8811 CANOGA AVE,  CANOGA PARK,  CA 91304", CANOGA PARK,91304, (818) 341-3600,"HCD - SOUTHERN AREA OFFICE, 3737 MAIN ST 400, RIVERSIDE, CA 92501","HCD - SOUTHERN AREA OFFICE, 3737 MAIN ST 400, RIVERSIDE, CA 92501",198,0,0,"CANOGA ESTATES MOBILEHOME PARK,LLC, 301 E 17TH STREET, #208, COSTA MESA, CA 92627"
ETON MHP,LOS ANGELES,19-1371-MP,"8901 ETON AVE,  CANOGA PARK,  CA 91304", CANOGA PARK,91304, (818) 882-2030,"HCD - SOUTHERN AREA OFFICE, 3737 MAIN ST 400, RIVERSIDE, CA 92501","HCD - SOUTHERN AREA OFFICE, 3737 MAIN ST 400, RIVERSIDE, CA 92501",111,0,0,"NOWELL, ERNIE, 3920 NOELA PLACE, HONOLULU, HI 96815"
SEMINOLE SPRINGS MHP,LOS ANGELES,19-1372-MP,"30473 MULHOLLAND HWY,  AGOURA,  CA 91301", AGOURA,91301, (818) 889-1221,"COUNTY OF LOS ANGELES, 5823 RICKENBACKER RD., COMMERCE, CA 90040","HCD - SOUTHERN AREA OFFICE, 3737 MAIN ST 400, RIVERSIDE, CA 92501",220,0,0,"SEMINOLE SPRINGS MOBILEHOME PARK OWNERS INC, 30473 MULHOLLAND HWY, AGOURA, CA 91301"
LONEHILL MANOR LIMITED PARTNERSHIP,LOS ANGELES,19-1373-MP,"1205 W CYPRESS AVE,  SAN DIMAS,  CA 91773", SAN DIMAS,91773, (714) 592-3831,"COUNTY OF LOS ANGELES, 5823 RICKENBACKER RD., COMMERCE, CA 90040","HCD - SOUTHERN AREA OFFICE, 3737 MAIN ST 400, RIVERSIDE, CA 92501",265,0,0,"DUNEX, INC GENERAL PARTNER, 1940 W. ORANGEWOOD AVE #209, ORANGE, CA 92868"
TWO HARBORS TP,LOS ANGELES,19-1374-MP,"TWO HARBORS,  AVALON,  CA 90704", AVALON,90704, (310) 510-0811,"COUNTY OF LOS ANGELES, 5823 RICKENBACKER RD., COMMERCE, CA 90040","HCD - SOUTHERN AREA OFFICE, 3737 MAIN ST 400, RIVERSIDE, CA 92501",17,0,0,"UNIVERSITY OF SOUTHERN CALIFORNIA, PO BOX 5069, AVALON, CA 90704"
CORDOVA MOBILE ESTATES,LOS ANGELES,19-1375-MP,"27361 SIERRA HWY,  SANTA CLARITA,  CA 91310", SANTA CLARITA,91310, (661) 251-6807,"COUNTY OF LOS ANGELES, 5823 RICKENBACKER RD., COMMERCE, CA 90040","HCD - SOUTHERN AREA OFFICE, 3737 MAIN ST 400, RIVERSIDE, CA 92501",314,0,0,"CORDOVA ASSOCIATES, LTD., C/O FRANCIS PROP, MGMT., 501 SO. BEVERLEY DRIVE STE 100, BEVERLY HILLS, CA 90212"
CRESCENT VALLEY,LOS ANGELES,19-1377-MP,"23500 THE OLD RD,  NEWHALL,  CA 91321", NEWHALL,91321, (661) 284-2745,"COUNTY OF LOS ANGELES, 5823 RICKENBACKER RD., COMMERCE, CA 90040","HCD - SOUTHERN AREA OFFICE, 3737 MAIN ST 400, RIVERSIDE, CA 92501",87,0,0,"CRESCENT VALLEY MHC, LP, 18006 SKYPARK CIRCLE #200, IRVINE, CA 92614"
LOS ANGELES KOA,LOS ANGELES,19-1378-MP,"2200 N. WHITE AVE.,  POMONA,  CA 91768", POMONA,91768, (909) 865-4318,"COUNTY OF LOS ANGELES, 5823 RICKENBACKER RD., COMMERCE, CA 90040","HCD - SOUTHERN AREA OFFICE, 3737 MAIN ST 400, RIVERSIDE, CA 92501",0,184,0,"LOS ANGELES COUNTY FAIR ASSOCIATION, 1101 W MC KINLEY AVE, POMONA, CA 91768"
BLUE DUDE MOBILE ESTATES,LOS ANGELES,19-1379-MP,"1667 LAS VIRGENES CANYON RD,  CALABASAS,  CA 91302", CALABASAS,91302, (714) 974-0397,"COUNTY OF LOS ANGELES, 5823 RICKENBACKER RD., COMMERCE, CA 90040","HCD - SOUTHERN AREA OFFICE, 3737 MAIN ST 400, RIVERSIDE, CA 92501",13,0,0,"BLUE DUDE MOBILE ESTATES, A GENERAL PARTNERSHIP, 22880 SAVI RANCH PKWY, YORBA LINDA, CA 92887"
CITRUS MP,LOS ANGELES,19-1380-MP,"1324 N CITRUS AVE,  COVINA,  CA 91722", COVINA,91722, (805) 260-4744,"COUNTY OF LOS ANGELES, 5823 RICKENBACKER RD., COMMERCE, CA 90040","HCD - SOUTHERN AREA OFFICE, 3737 MAIN ST 400, RIVERSIDE, CA 92501",25,0,0,"V.D. & E.J. KLEIN EXEMPTION TRUST, 19 ALLYSSUM, RANCHO SANTA MARGARITA, CA 92688"
KONA KAI,LOS ANGELES,19-1381-MP,"8800 ETON AVE,  CANOGA PARK,  CA 91304", CANOGA PARK,91304, (661) 269-5462,"HCD - SOUTHERN AREA OFFICE, 3737 MAIN ST 400, RIVERSIDE, CA 92501","HCD - SOUTHERN AREA OFFICE, 3737 MAIN ST 400, RIVERSIDE, CA 92501",116,0,0,"WATT CONSTRUCTION CO INC, PO BOX 9, ACTON, CA 93510"
LAUREL CANYON MOBILE ESTATES,LOS ANGELES,19-1382-MP,"9051 LAUREL CANYON BLVD #55,  SUN VALLEY,  CA 91352", SUN VALLEY,91352, (818) 768-1721,"HCD - SOUTHERN AREA OFFICE, 3737 MAIN ST 400, RIVERSIDE, CA 92501","HCD - SOUTHERN AREA OFFICE, 3737 MAIN ST 400, RIVERSIDE, CA 92501",60,0,0,"LAUREL CANYON, 18006 SKYPARK CIRCLE #200, IRVINE, CA 92614"
BLOOMFIELD MHP,LOS ANGELES,19-1385-MP,"22221 S BLOOMFIELD AVE,  HAWAIIAN GARDENS,  CA 90716", HAWAIIAN GARDENS,90716, (562) 598-6031,"COUNTY OF LOS ANGELES, 5823 RICKENBACKER RD., COMMERCE, CA 90040","HCD - SOUTHERN AREA OFFICE, 3737 MAIN ST 400, RIVERSIDE, CA 92501",47,0,0,"PETER VANRUITEN TRUST, PO BOX 858, LOS ALAMITOS, CA 90720"
DALEVIEW MH ESTATES,LOS ANGELES,19-1386-MP,"4800 DALEVIEW AVE,  EL MONTE,  CA 91731", EL MONTE,91731, (818) 579-0600,"COUNTY OF LOS ANGELES, 5823 RICKENBACKER RD., COMMERCE, CA 90040","HCD - SOUTHERN AREA OFFICE, 3737 MAIN ST 400, RIVERSIDE, CA 92501",175,0,0,"MMLB ASSOCIATES, 824 S EUCLID ST, FULLERTON, CA 92832"
RIVIERA MOBILE ESTATES,LOS ANGELES,19-1387-MP,"8701 8801 ETON AVE,  CANOGA PARK,  CA 91304", CANOGA PARK,91304, (661) 269-5462,"HCD - SOUTHERN AREA OFFICE, 3737 MAIN ST 400, RIVERSIDE, CA 92501","HCD - SOUTHERN AREA OFFICE, 3737 MAIN ST 400, RIVERSIDE, CA 92501",151,0,0,"WATT ENTERPRISES LTD - HILAIRE BROSIO LLC - SL BROSIO LLC, PO BOX 9, ACTON, CA 93510"
CALIFORNIAN MHP,LOS ANGELES,19-1389-MP,"2550 E AVE I,  LANCASTER,  CA 93535", LANCASTER,93535, (661) 946-1316,"COUNTY OF LOS ANGELES, 5823 RICKENBACKER RD., COMMERCE, CA 90040","HOUSING AND NEIGHBORHOOD REVITALIZATION, MOBILEHOME PARKS PROGRAM, 44933 NORTH FERN AVENUE, LANCASTER, CA 93534",148,0,0,"RUTH SAGERS TRUST C/O DAN HOGE, 20722 WHITE ST, TEHACHAPI, CA 93561"
MOUNTAIN VIEW MOBILEHOME ESTATES,LOS ANGELES,19-1390-MP,"3255 E AVE R,  PALMDALE,  CA 93550", PALMDALE,93550, (661) 947-4700,"COUNTY OF LOS ANGELES, 5823 RICKENBACKER RD., COMMERCE, CA 90040","HCD - SOUTHERN AREA OFFICE, 3737 MAIN ST 400, RIVERSIDE, CA 92501",298,0,0,"CARITAS CORPATION, 3 PARK PLAZA # 1700, IRVINE, CA 92614"
DOMENICS MH ESTATES,LOS ANGELES,19-1391-MP,"38015 30TH ST EAST,  PALMDALE,  CA 93550", PALMDALE,93550, (760) 835-1503,"COUNTY OF LOS ANGELES, 5823 RICKENBACKER RD., COMMERCE, CA 90040","HCD - SOUTHERN AREA OFFICE, 3737 MAIN ST 400, RIVERSIDE, CA 92501",33,0,0,"ELROB PROPERTIES, LLC, 1424 LIETA ST, SAN DIEGO, CA 92110"
POINT DUME CLUB OF MALIBU,LOS ANGELES,19-1392-MP,"29500 HEATHERCLIFF RD,  MALIBU,  CA 90263", MALIBU,90263, (310) 457-2111,"COUNTY OF LOS ANGELES, 5823 RICKENBACKER RD., COMMERCE, CA 90040","HCD - SOUTHERN AREA OFFICE, 3737 MAIN ST 400, RIVERSIDE, CA 92501",299,0,0,"POINT DUME, LTD, 880 CALLE PLANO UNIT # A, CAMARILLO, CA 93012"
PIONEER MOBILE ESTATES,LOS ANGELES,19-1394-MP,"16123 PIONEER BLVD,  NORWALK,  CA 90650", NORWALK,90650, (805) 947-4274,"COUNTY OF LOS ANGELES, 5823 RICKENBACKER RD., COMMERCE, CA 90040","NORWALK BUILDING DEPARTMENT, MOBILEHOME PARKS PROGRAM, 12700 SOUTH NORWALK BLVD  RM 12, NORWALK, CA 90650",52,0,0,"SWS INVESTMENT CO, 8383 WILSHIRE BLVD #740, BEVERLY HILLS, CA 90211"
HACIENDA MHP,LOS ANGELES,19-1395-MP,"208 S BARRANCA,  GLENDORA,  CA 91741", GLENDORA,91741, (818) 335-3650,"COUNTY OF LOS ANGELES, 5823 RICKENBACKER RD., COMMERCE, CA 90040","HCD - SOUTHERN AREA OFFICE, 3737 MAIN ST 400, RIVERSIDE, CA 92501",62,0,0,"SNYDER, JOHN, 22880 SAVI RANCH PKWY, YORBA LINDA, CA 92887"
FRIENDLY VILLAGE OF LONG BEACH,LOS ANGELES,19-1397-MP,"5450 PARAMOUNT BLVD,  LONG BEACH,  CA 90805", LONG BEACH,90805, (562) 531-3002,"HCD - SOUTHERN AREA OFFICE, 3737 MAIN ST 400, RIVERSIDE, CA 92501","HCD - SOUTHERN AREA OFFICE, 3737 MAIN ST 400, RIVERSIDE, CA 92501",181,0,0,"RICHARD A MARSHACK CHAPTER 7 TRUSTEE OF FRIENDLY VILLAGE MHP ASSOCIATES LP, 870 ROOSEVELT, IRVINE, CA 92620"
CIENEGA VALLEY MOBILE ESTATES,LOS ANGELES,19-1398-MP,"1245 W CIENEGA,  SAN DIMAS,  CA 91773", SAN DIMAS,91773, (909) 599-4518,"COUNTY OF LOS ANGELES, 5823 RICKENBACKER RD., COMMERCE, CA 90040","HCD - SOUTHERN AREA OFFICE, 3737 MAIN ST 400, RIVERSIDE, CA 92501",242,0,0,"H&S INVESTMENTS, 9150 WILSHIRE BLVD #300, BEVERLY HILLS, CA 90212"
LA VERNE MOBILE CC,LOS ANGELES,19-1399-MP,"3620 MORENO AVE,  LA VERNE,  CA 91750", LA VERNE,91750, (707) 593-7317,"COUNTY OF LOS ANGELES, 5823 RICKENBACKER RD., COMMERCE, CA 90040","HCD - SOUTHERN AREA OFFICE, 3737 MAIN ST 400, RIVERSIDE, CA 92501",187,0,0,"LA VERNE PUBLIC FINANCING AUTHORITY, 1910 S ARCHIBALD AVE SUITE # S, ONTARIO, CA 91761"
RANCHO MIRAGE COACH CLUB,LOS ANGELES,19-1400-MP,"43850 N 20TH ST EAST,  LANCASTER,  CA 93535", LANCASTER,93535, (661) 948-5815,"COUNTY OF LOS ANGELES, 5823 RICKENBACKER RD., COMMERCE, CA 90040","HOUSING AND NEIGHBORHOOD REVITALIZATION, MOBILEHOME PARKS PROGRAM, 44933 NORTH FERN AVENUE, LANCASTER, CA 93534",290,0,0,"RING TRADING CORPORATION, 430 S. SAN DIMAS AVE, SAN DIMAS, CA 91773"
SAGETREE VILLAGE,LOS ANGELES,19-1402-MP,"3524 E AVE R,  PALMDALE,  CA 93550", PALMDALE,93550, (805) 947-6636,"COUNTY OF LOS ANGELES, 5823 RICKENBACKER RD., COMMERCE, CA 90040","HCD - SOUTHERN AREA OFFICE, 3737 MAIN ST 400, RIVERSIDE, CA 92501",330,0,0,"ROMIE LANE PROPERTY, 1515 THE ALAMEDA SUITE # 200, SAN JOSE, CA 95126"
RANCHO LA SEDA,LOS ANGELES,19-1403-MP,"650 LA SEDA RD,  LA PUENTE,  CA 91744", LA PUENTE,91744, (951) 736-9522,"COUNTY OF LOS ANGELES, 5823 RICKENBACKER RD., COMMERCE, CA 90040","HCD - SOUTHERN AREA OFFICE, 3737 MAIN ST 400, RIVERSIDE, CA 92501",104,0,0,"SHERMAN, J, 3883 BUCHANAN, RIVERSIDE, CA 92503"
FRIENDLY VILLAGE WEST COVINA MH COMMUNITY,LOS ANGELES,19-1404-MP,"3033 E VALLEY BLVD,  WEST COVINA,  CA 91792", WEST COVINA,91792, (818) 964-0255,"HCD - SOUTHERN AREA OFFICE, 3737 MAIN ST 400, RIVERSIDE, CA 92501","HCD - SOUTHERN AREA OFFICE, 3737 MAIN ST 400, RIVERSIDE, CA 92501",157,0,0,"CAREFREE COMMUNITIES CA LLC, 27777 FRANKLIN ROAD SUITE # 200, SOUTHFIELD, MI 48034"
BELMONT MHP,LOS ANGELES,19-1405-MP,"16108 S ATLANTIC AVE,  COMPTON,  CA 90221", COMPTON,90221, (310) 515-6022,"COUNTY OF LOS ANGELES, 5823 RICKENBACKER RD., COMMERCE, CA 90040","HCD - SOUTHERN AREA OFFICE, 3737 MAIN ST 400, RIVERSIDE, CA 92501",76,0,0,"JENKINS, DEXTER, 12832 VALLEY VIEW ST #204, GARDEN GROVE, CA 92845"
MONROVIA MH ESTATES,LOS ANGELES,19-1408-MP,"1035 E HUNTINGTON DR,  MONROVIA,  CA 91016", MONROVIA,91016, (310) 631-6520,"HCD - SOUTHERN AREA OFFICE, 3737 MAIN ST 400, RIVERSIDE, CA 92501","HCD - SOUTHERN AREA OFFICE, 3737 MAIN ST 400, RIVERSIDE, CA 92501",68,0,0,"MONROVIA ESTATES, ATTN: JERRY ATHANS 19311 VANOWEN ST, RESEDA, CA 91335"
FRIENDLY VILLAGE OF LANCASTER,LOS ANGELES,19-1410-MP,"1301 E AVE I,  LANCASTER,  CA 93535", LANCASTER,93535, (805) 948-1812,"COUNTY OF LOS ANGELES, 5823 RICKENBACKER RD., COMMERCE, CA 90040","HOUSING AND NEIGHBORHOOD REVITALIZATION, MOBILEHOME PARKS PROGRAM, 44933 NORTH FERN AVENUE, LANCASTER, CA 93534",464,0,0,"CARITAS AFFORDABLE HOUSING INC, 3 PARK PLAZA # 1700, IRVINE, CA 92614"
ROWLAND HEIGHTS MOBILE ESTATES,LOS ANGELES,19-1412-MP,"1441 S PASO REAL AVE,  ROWLAND HEIGHTS,  CA 91748", ROWLAND HEIGHTS,91748, (818) 964-5915,"COUNTY OF LOS ANGELES, 5823 RICKENBACKER RD., COMMERCE, CA 90040","HCD - SOUTHERN AREA OFFICE, 3737 MAIN ST 400, RIVERSIDE, CA 92501",327,0,0,"SIERRA, SANDRA, 3848 S. CAMPUS DR SUITE # 220, NEWPORT BEACH, CA 92660"
GEMSTONE MHP,LOS ANGELES,19-1413-MP,"2451 W SOLEDAD CANYON RD,  ACTON,  CA 93510", ACTON,93510, (661) 269-4814,"COUNTY OF LOS ANGELES, 5823 RICKENBACKER RD., COMMERCE, CA 90040","HCD - SOUTHERN AREA OFFICE, 3737 MAIN ST 400, RIVERSIDE, CA 92501",34,0,0,"MORAN, ALVIN, PO BOX 1466, LA QUINTA, CA 92247"
VALENCIA TRAVEL VILLAGE,LOS ANGELES,19-1414-MP,"27946 HENRY MAYO RD,  CASTAIC,  CA 91310", CASTAIC,91310, (661) 257-3333,"COUNTY OF LOS ANGELES, 5823 RICKENBACKER RD., COMMERCE, CA 90040","HCD - SOUTHERN AREA OFFICE, 3737 MAIN ST 400, RIVERSIDE, CA 92501",0,231,148,"ROBB, RICHARD, 27946 HENRY MAYO ROAD, CASTAIC, CA 91310"
HARBOR CITY MHP,LOS ANGELES,19-1419-MP,"760 W LOMITA BLVD,  HARBOR CITY,  CA 90710", HARBOR CITY,90710, (310) 835-2523,"HCD - SOUTHERN AREA OFFICE, 3737 MAIN ST 400, RIVERSIDE, CA 92501","HCD - SOUTHERN AREA OFFICE, 3737 MAIN ST 400, RIVERSIDE, CA 92501",192,0,0,"H&S INVESTMENTS, 9150 WILSHIRE BLVD #300, BEVERLY HILLS, CA 90212"
MERLES MANOR MP 2,LOS ANGELES,19-1420-MP,"1000 N FIGUEROA ST,  WILMINGTON,  CA 90744", WILMINGTON,90744, (310) 835-2523,"COUNTY OF LOS ANGELES, 5823 RICKENBACKER RD., COMMERCE, CA 90040","HCD - SOUTHERN AREA OFFICE, 3737 MAIN ST 400, RIVERSIDE, CA 92501",87,0,0,"MERLES MANOR II, LLC, 17291 IRVINE BLVD., STE. 450, TUSTIN, CA 92780"
AZTEC MOBILE ESTATES,LOS ANGELES,19-1423-MP,"9530 ALONDRA BLVD,  BELLFLOWER,  CA 90706", BELLFLOWER,90706, (213) 925-2510,"COUNTY OF LOS ANGELES, 5823 RICKENBACKER RD., COMMERCE, CA 90040","HCD - SOUTHERN AREA OFFICE, 3737 MAIN ST 400, RIVERSIDE, CA 92501",70,0,0,"SHIH, TIEN-DUN, 1185 ALTAMEAD DR, LOS ALTOS, CA 94024"
RIVERS END RECREATION PARK,LOS ANGELES,19-1425-MP,"13130 SOLEDAD CANYON RD,  SAUGUS,  CA 91390", SAUGUS,91390, (661) 251-5767,"COUNTY OF LOS ANGELES, 5823 RICKENBACKER RD., COMMERCE, CA 90040","HCD - SOUTHERN AREA OFFICE, 3737 MAIN ST 400, RIVERSIDE, CA 92501",1,19,22,"GOLDEN SPIKE LLC, 28630 BAMFIELD DRIVE, AGOURA HILLS, CA 91301"
NU WAY MHP,LOS ANGELES,19-1426-MP,"401 W CARSON ST,  CARSON,  CA 90745", CARSON,90745, (213) 925-2510,"COUNTY OF LOS ANGELES, 5823 RICKENBACKER RD., COMMERCE, CA 90040","HCD - SOUTHERN AREA OFFICE, 3737 MAIN ST 400, RIVERSIDE, CA 92501",39,0,0,"NUWAY MOBILEHOME OWNERS ASSOCIATION, 401 W CARSON ST BOX 40, CARSON, CA 90745"
PARK VILLA M.H. EST INC,LOS ANGELES,19-1427-MP,"21711 S VERA ST,  CARSON,  CA 90745", CARSON,90745, (310) 830-8800,"COUNTY OF LOS ANGELES, 5823 RICKENBACKER RD., COMMERCE, CA 90040","HCD - SOUTHERN AREA OFFICE, 3737 MAIN ST 400, RIVERSIDE, CA 92501",48,0,0,"YAKURA, MARY, C/O OFFICE 21711 SO. VERA ST, CARSON, CA 90745"
VERA CARSON MOBILE HOME ESTATES,LOS ANGELES,19-1428-MP,"21811 S VERA ST,  CARSON,  CA 90745", CARSON,90745, (310) 516-3590,"COUNTY OF LOS ANGELES, 5823 RICKENBACKER RD., COMMERCE, CA 90040","HCD - SOUTHERN AREA OFFICE, 3737 MAIN ST 400, RIVERSIDE, CA 92501",32,0,0,"HOMES ON VERA LLC, 22118 S VERMONT AVE, TORRANCE, CA 90502"
WILDWOOD MOBILE CC,LOS ANGELES,19-1429-MP,"901 S 6TH AVE,  HACIENDA HEIGHTS,  CA 91745", HACIENDA HEIGHTS,91745, (310) 830-8800,"COUNTY OF LOS ANGELES, 5823 RICKENBACKER RD., COMMERCE, CA 90040","HCD - SOUTHERN AREA OFFICE, 3737 MAIN ST 400, RIVERSIDE, CA 92501",456,0,0,"TRICO INVESTMENT, 22880 SAVI RANCH PKWY, YORBA LINDA, CA 92887"
FOOTHILL TERRACE,LOS ANGELES,19-1430-MP,"4095 FRUIT ST,  LA VERNE,  CA 91750", LA VERNE,91750, (909) 593-7111,"COUNTY OF LOS ANGELES, 5823 RICKENBACKER RD., COMMERCE, CA 90040","HCD - SOUTHERN AREA OFFICE, 3737 MAIN ST 400, RIVERSIDE, CA 92501",376,0,0,"FOOTHILL TERRACE LTD, PO BOX 2061, GARDENA, CA 90247"
LAKE PARK MOBILE GARDENS,LOS ANGELES,19-1431-MP,"8811 PARK ST,  BELLFLOWER,  CA 90706", BELLFLOWER,90706, (909) 593-7111,"COUNTY OF LOS ANGELES, 5823 RICKENBACKER RD., COMMERCE, CA 90040","HCD - SOUTHERN AREA OFFICE, 3737 MAIN ST 400, RIVERSIDE, CA 92501",79,0,0,"RENE MERLANDER FAMILY TRUST, 205 AVENUE I #4, REDONDO BEACH, CA 90277"
GRECIAN ISLE MHP,LOS ANGELES,19-1432-MP,"4444 E AVE R,  PALMDALE,  CA 93550", PALMDALE,93550, (909) 593-7111,"COUNTY OF LOS ANGELES, 5823 RICKENBACKER RD., COMMERCE, CA 90040","HCD - SOUTHERN AREA OFFICE, 3737 MAIN ST 400, RIVERSIDE, CA 92501",157,0,0,"CLA MAR LIMITED PARTNERSHIP, 2540 HUNTINGTON DR SUITE # 101, SAN MARINO, CA 91108"
PARADISE RANCH MHP,LOS ANGELES,19-1433-MP,"36200 N PARADISE RD,  CASTAIC,  CA 91384", CASTAIC,91384, (661) 257-2728,"COUNTY OF LOS ANGELES, 5823 RICKENBACKER RD., COMMERCE, CA 90040","HCD - SOUTHERN AREA OFFICE, 3737 MAIN ST 400, RIVERSIDE, CA 92501",94,34,0,"PARADISE RANCH LLC, PARK OFFICE 36200 PARADISE RANCH RD, CASTAIC, CA 91384"
CANYON COUNTRY MH ESTATES,LOS ANGELES,19-1435-MP,"16274 VASQUEZ CANYON RD,  CANYON COUNTRY,  CA 91351", CANYON COUNTRY,91351, (805) 252-2183,"COUNTY OF LOS ANGELES, 5823 RICKENBACKER RD., COMMERCE, CA 90040","HCD - SOUTHERN AREA OFFICE, 3737 MAIN ST 400, RIVERSIDE, CA 92501",101,0,0,"KEITH, ALEXANDER, 22880 SAVI RANCH PARKWAY, YORBA LINDA, CA 92887"
RAINBOW MOBILE HOME PARK,LOS ANGELES,19-1438-MP,"715 W 220TH ST,  TORRANCE,  CA 90502", TORRANCE,90502, (818) 910-1100,"COUNTY OF LOS ANGELES, 5823 RICKENBACKER RD., COMMERCE, CA 90040","HCD - SOUTHERN AREA OFFICE, 3737 MAIN ST 400, RIVERSIDE, CA 92501",52,0,0,"722 RAINBOW ASSOCIATES LLC, 320 N PARK VISTA ST, ANAHEIM, CA 92806"
CASITAS LAVERNE MHP,LOS ANGELES,19-1439-MP,"3945 BRADFORD ST,  LA VERNE,  CA 91750", LA VERNE,91750, (818) 910-1100,"COUNTY OF LOS ANGELES, 5823 RICKENBACKER RD., COMMERCE, CA 90040","HCD - SOUTHERN AREA OFFICE, 3737 MAIN ST 400, RIVERSIDE, CA 92501",136,0,0,"SANTIAGO ESTATES LAVERNE A CA LP, PO BOX 11927, SANTA ANA, CA 92711"
COVINA HILLS MOBILE CC,LOS ANGELES,19-1440-MP,"17350 EAST TEMPLE AVE,  LA PUENTE,  CA 91744", LA PUENTE,91744, (626) 964-3428,"COUNTY OF LOS ANGELES, 5823 RICKENBACKER RD., COMMERCE, CA 90040","HCD - SOUTHERN AREA OFFICE, 3737 MAIN ST 400, RIVERSIDE, CA 92501",500,0,0,"JUANITA SPRINGS & ASSOCIATES LP, 19226-66TH AVENUE S #L-108, KENT, WA 98032"
RANCHO HERMOSO MHP,LOS ANGELES,19-1441-MP,"16079 YARNELL ST,  SYLMAR,  CA 91342", SYLMAR,91342, (818) 833-7788,"HCD - SOUTHERN AREA OFFICE, 3737 MAIN ST 400, RIVERSIDE, CA 92501","HCD - SOUTHERN AREA OFFICE, 3737 MAIN ST 400, RIVERSIDE, CA 92501",93,0,0,"HERMOSA INVESTMENTS L P, 1801 E. EDINGER AVENUE #230, SANTA ANA, CA 92705"
SAN RAFAEL MOBILE HOME ESTATES,LOS ANGELES,19-1442-MP,"1065 W LOMITA BLVD,  HARBOR CITY,  CA 90710", HARBOR CITY,90710, (310) 370-9727,"HCD - SOUTHERN AREA OFFICE, 3737 MAIN ST 400, RIVERSIDE, CA 92501","HCD - SOUTHERN AREA OFFICE, 3737 MAIN ST 400, RIVERSIDE, CA 92501",470,0,0,"SAN RAFAEL MOBILEHOME ESTATES LTD, 3424 CARSON ST SUITE # 550, TORRANCE, CA 90503"
VISTA DEL MONTE MOBILE HOME PARK,LOS ANGELES,19-1443-MP,"416 JEFFRIES AVE,  MONROVIA,  CA 91016", MONROVIA,91016, (626) 446-3416,"HCD - SOUTHERN AREA OFFICE, 3737 MAIN ST 400, RIVERSIDE, CA 92501","HCD - SOUTHERN AREA OFFICE, 3737 MAIN ST 400, RIVERSIDE, CA 92501",87,0,0,"ETTENSPERGER, D, PO BOX 1919, RANCHO CUCAMONGA, CA 91729"
QUARTZ HILL MOBILE HOME PARK,LOS ANGELES,19-1446-MP,"5711 W AVE M,  LANCASTER,  CA 93536", LANCASTER,93536, (661) 943-1515,"COUNTY OF LOS ANGELES, 5823 RICKENBACKER RD., COMMERCE, CA 90040","HCD - SOUTHERN AREA OFFICE, 3737 MAIN ST 400, RIVERSIDE, CA 92501",260,0,0,"Q. H. MOBILE HOME ESTATES LTD, 5711 W AVE M, QUARTZ HILL, CA 93536"
CASA DE JARDIN,LOS ANGELES,19-1447-MP,"10525 E COMPTON BLVD,  BELLFLOWER,  CA 90706", BELLFLOWER,90706, (714) 870-5980,"COUNTY OF LOS ANGELES, 5823 RICKENBACKER RD., COMMERCE, CA 90040","HCD - SOUTHERN AREA OFFICE, 3737 MAIN ST 400, RIVERSIDE, CA 92501",54,0,0,"PETER VANRUITEN TRUST, PO BOX 858, LOS ALAMITOS, CA 90720"
CALABASAS VILLAGE,LOS ANGELES,19-1448-MP,"23777 MULHOLLAND HWY,  CALABASAS,  CA 91302", CALABASAS,91302, (818) 888-6387,"COUNTY OF LOS ANGELES, 5823 RICKENBACKER RD., COMMERCE, CA 90040","HCD - SOUTHERN AREA OFFICE, 3737 MAIN ST 400, RIVERSIDE, CA 92501",211,0,0,"LAWRENCE ROSENTHAL/MYRON DICKSTEIN, 175 EAST 74TH ST APT. # 17B, NEW YORK, NY 10021"
ACTON KOA,LOS ANGELES,19-1449-MP,"7601 SOLEDAD CANYON ROAD,  ACTON,  CA 93510", ACTON,93510, (661) 268-1214,"COUNTY OF LOS ANGELES, 5823 RICKENBACKER RD., COMMERCE, CA 90040","HCD - SOUTHERN AREA OFFICE, 3737 MAIN ST 400, RIVERSIDE, CA 92501",2,84,50,"HAHN, JUSTIN, 7601 SOLEDAD CANYON RD, ACTON, CA 93510"
LEISURE LAKE MHP,LOS ANGELES,19-1450-MP,"48303 N 20TH ST WEST,  LANCASTER,  CA 93534", LANCASTER,93534, (805) 948-2626,"COUNTY OF LOS ANGELES, 5823 RICKENBACKER RD., COMMERCE, CA 90040","HCD - SOUTHERN AREA OFFICE, 3737 MAIN ST 400, RIVERSIDE, CA 92501",211,0,0,"CLAN KEITH REAL ESTATE INVESTMENTS LLC, 1775 E QUEEN CREEK RD SUITE # 3, CHANDLER, AZ 85224"
PINE MP,LOS ANGELES,19-1451-MP,"2655 COGSWELL RD,  EL MONTE,  CA 91732", EL MONTE,91732, (805) 948-2626,"COUNTY OF LOS ANGELES, 5823 RICKENBACKER RD., COMMERCE, CA 90040","HCD - SOUTHERN AREA OFFICE, 3737 MAIN ST 400, RIVERSIDE, CA 92501",4,0,0,"TONY, DELORENZO, 2656 HIGHRIDGE DR, CHINO HILLS, CA 91709"
ACTON COUNTRY MHP,LOS ANGELES,19-1452-MP,"2501 SIERRA HWY,  ACTON,  CA 93510", ACTON,93510, (805) 269-2770,"COUNTY OF LOS ANGELES, 5823 RICKENBACKER RD., COMMERCE, CA 90040","HCD - SOUTHERN AREA OFFICE, 3737 MAIN ST 400, RIVERSIDE, CA 92501",25,0,0,"ACE ASSOCIATES LLC, PO BOX # 350, APTOS, CA 95001"
PALOS VERDES SHORES MH COMMUNITY,LOS ANGELES,19-1453-MP,"2275 W 25TH ST,  SAN PEDRO,  CA 90732", SAN PEDRO,90732, (310) 547-4403,"COUNTY OF LOS ANGELES, 5823 RICKENBACKER RD., COMMERCE, CA 90040","HCD - SOUTHERN AREA OFFICE, 3737 MAIN ST 400, RIVERSIDE, CA 92501",242,0,0,"CAREFREE COMMUNITIES CA LLC, 27777 FRANKLIN ROAD SUITE # 200, SOUTHFIELD, MI 48034"
PALOS VERDES RANCHO MHP,LOS ANGELES,19-1457-MP,"26200 FRAMPTON AVE,  HARBOR CITY,  CA 90710", HARBOR CITY,90710,,"HCD - SOUTHERN AREA OFFICE, 3737 MAIN ST 400, RIVERSIDE, CA 92501","HCD - SOUTHERN AREA OFFICE, 3737 MAIN ST 400, RIVERSIDE, CA 92501",93,0,0,"PALOS VERDES RANCHO MOBILE HOME PARK, LLC, 1960 E. GRAND AVE. #1225, EL SEGUNDO, CA 90245"
COLONY COVE MOBILE ESTATES,LOS ANGELES,19-1458-MP,"17700 S AVALON BLVD ATTN:  MANAGER,  CARSON,  CA 90746", CARSON,90746, (310) 538-3320,"COUNTY OF LOS ANGELES, 5823 RICKENBACKER RD., COMMERCE, CA 90040","HCD - SOUTHERN AREA OFFICE, 3737 MAIN ST 400, RIVERSIDE, CA 92501",420,0,0,"COLONY COVE PROPERTIES, 430 S. SAN DIMAS AVE., SAN DIMAS, CA 91773"
VISTA DEL LOMA MOBILE ESTATES,LOS ANGELES,19-1460-MP,"20600 S MAIN ST,  CARSON,  CA 90745", CARSON,90745, (310) 532-6650,"COUNTY OF LOS ANGELES, 5823 RICKENBACKER RD., COMMERCE, CA 90040","HCD - SOUTHERN AREA OFFICE, 3737 MAIN ST 400, RIVERSIDE, CA 92501",86,0,0,"VISTA DEL LOMA LLC, 301 E 17TH ST #208, COSTA MESA, CA 92627"
E\L TP,LOS ANGELES,19-1461-MP,"807 LINCOLN ST,  CARSON,  CA 90745", CARSON,90745, (310) 532-6650,"COUNTY OF LOS ANGELES, 5823 RICKENBACKER RD., COMMERCE, CA 90040","HCD - SOUTHERN AREA OFFICE, 3737 MAIN ST 400, RIVERSIDE, CA 92501",10,0,0,"FITZPATRICK, JUDY, 5940 LOS FELIZ DR, BUENA PARK, CA 90620"
GOLDEN TRIANGLE MOBILE HOMES,LOS ANGELES,19-1463-MP,"10811 COLUMBUS,  MISSION HILLS,  CA 91345", MISSION HILLS,91345, (310) 532-6650,"HCD - SOUTHERN AREA OFFICE, 3737 MAIN ST 400, RIVERSIDE, CA 92501","HCD - SOUTHERN AREA OFFICE, 3737 MAIN ST 400, RIVERSIDE, CA 92501",29,0,0,"DUNN CSI INC, 17547 VENTURA BLVD SUITE 304, ENCINO, CA 91316"
NO NAME,LOS ANGELES,19-1464-MP,"15584 SIERRA HWY,  CANYON COUNTRY,  CA 91351", CANYON COUNTRY,91351, (310) 532-6650,"COUNTY OF LOS ANGELES, 5823 RICKENBACKER RD., COMMERCE, CA 90040","HCD - SOUTHERN AREA OFFICE, 3737 MAIN ST 400, RIVERSIDE, CA 92501",8,0,0,"20TH CENTURY HOLINESS TABERNACLE CHURCH, 15584 SIERRA HWY, CANYON COUNTRY, CA 91351"
THE FOUNTAINS MHP,LOS ANGELES,19-1465-MP,"3530 DAMIEN AVE,  LA VERNE,  CA 91750", LA VERNE,91750, (909) 593-4131,"COUNTY OF LOS ANGELES, 5823 RICKENBACKER RD., COMMERCE, CA 90040","HCD - SOUTHERN AREA OFFICE, 3737 MAIN ST 400, RIVERSIDE, CA 92501",286,0,0,"FOUNTAINS LA VERNE MHP ASSOCIATES LP, 430 S SAN DIMAS AVE, SAN DIMAS, CA 91773"
SUNSET GARDENS WEST,LOS ANGELES,19-1466-MP,"346 N SUNSET AVE,  LA PUENTE,  CA 91744", LA PUENTE,91744, (818) 333-5017,"COUNTY OF LOS ANGELES, 5823 RICKENBACKER RD., COMMERCE, CA 90040","HCD - SOUTHERN AREA OFFICE, 3737 MAIN ST 400, RIVERSIDE, CA 92501",75,0,0,"RICBERAY INC, 150 E MONTECITO AVE #F, SIERRA MADRE, CA 91024"
WALNUT HILLS MH COMMUNITY,LOS ANGELES,19-1467-MP,"3745 VALLEY BLVD,  POMONA,  CA 91765", POMONA,91765, (818) 333-5017,"COUNTY OF LOS ANGELES, 5823 RICKENBACKER RD., COMMERCE, CA 90040","HCD - SOUTHERN AREA OFFICE, 3737 MAIN ST 400, RIVERSIDE, CA 92501",182,0,0,"SHERMAN, JOSEPH, PO BOX 1848, SAN GABRIEL, CA 91778"
WINDWARD VILLAGE,LOS ANGELES,19-1468-MP,"3595 SANTA FE AVE,  LONG BEACH,  CA 90810", LONG BEACH,90810, (562) 424-3233,"HCD - SOUTHERN AREA OFFICE, 3737 MAIN ST 400, RIVERSIDE, CA 92501","HCD - SOUTHERN AREA OFFICE, 3737 MAIN ST 400, RIVERSIDE, CA 92501",305,0,0,"WINDWARD VILLAGE HOMEOWNERS ASSO-OFFICE, C/O LES FRAME MGMT 1635 AVIATION BLVD, REDONDO BEACH, CA 90278"
LAKE PARK LA MIRADA,LOS ANGELES,19-1469-MP,"13990 E IMPERIAL HWY,  LA MIRADA,  CA 90638", LA MIRADA,90638, (310) 921-5700,"COUNTY OF LOS ANGELES, 5823 RICKENBACKER RD., COMMERCE, CA 90040","HCD - SOUTHERN AREA OFFICE, 3737 MAIN ST 400, RIVERSIDE, CA 92501",150,0,0,"LAKE PARK LA MIRADA PARTNERSHIP, 1055-B ORTEGA WY, PLACENTIA, CA 92870"
SIERRA HEIGHTS MHP,LOS ANGELES,19-1473-MP,"30000 SAND CANYON RD,  CANYON COUNTRY,  CA 91387", CANYON COUNTRY,91387, (661) 298-2251,"COUNTY OF LOS ANGELES, 5823 RICKENBACKER RD., COMMERCE, CA 90040","HCD - SOUTHERN AREA OFFICE, 3737 MAIN ST 400, RIVERSIDE, CA 92501",123,0,0,"TREITEL TRUST AARON JACOBS TTEE, 556 S FAIR OAKS STE 266, PASADENA, CA 91105"
IMPERIAL AVALON LLC,LOS ANGELES,19-1474-MP,"21207 S AVALON BLVD,  CARSON,  CA 90745", CARSON,90745, (310) 549-2350,"COUNTY OF LOS ANGELES, 5823 RICKENBACKER RD., COMMERCE, CA 90040","HCD - SOUTHERN AREA OFFICE, 3737 MAIN ST 400, RIVERSIDE, CA 92501",225,0,0,"IMPERIAL AVALON LLC, 4132 KATELLA AVE #205 B, LOS ALAMITOS, CA 90720"
COLMAR TRAILER PARK,LOS ANGELES,19-1475-MP,"6632 COLMAR ST,  BELL GARDENS,  CA 90201", BELL GARDENS,90201, (562) 927-6416,"COUNTY OF LOS ANGELES, 5823 RICKENBACKER RD., COMMERCE, CA 90040","HCD - SOUTHERN AREA OFFICE, 3737 MAIN ST 400, RIVERSIDE, CA 92501",7,0,0,"LALANI, NAZMUDIN, 5082 BOLSA AVE SPACE # 102, HUNTINGTON BEACH, CA 92649"
TWIN OAKS MHP,LOS ANGELES,19-1477-MP,"3800 N BRADFORD ST,  LA VERNE,  CA 91750", LA VERNE,91750, (714) 593-8337,"COUNTY OF LOS ANGELES, 5823 RICKENBACKER RD., COMMERCE, CA 90040","HCD - SOUTHERN AREA OFFICE, 3737 MAIN ST 400, RIVERSIDE, CA 92501",331,0,0,"SHERMAN, SUSAN, 5027 E. BROOKSIDE AVE, ORANGE, CA 92867"
OCEAN VILLA TRAILER PARK,LOS ANGELES,19-1479-MP,"605 W 228TH ST,  CARSON,  CA 90745", CARSON,90745, (714) 593-8337,"COUNTY OF LOS ANGELES, 5823 RICKENBACKER RD., COMMERCE, CA 90040","HCD - SOUTHERN AREA OFFICE, 3737 MAIN ST 400, RIVERSIDE, CA 92501",0,0,21,"COOK, MARJORIE, 12431 CHRISTY LANE, LOS ALAMITOS, CA 90720"
MALIBU BEACH RV PARK,LOS ANGELES,19-1480-MP,"25801 PACIFIC COAST HWY,  MALIBU,  CA 90265", MALIBU,90265, (310) 456-6052,"COUNTY OF LOS ANGELES, 5823 RICKENBACKER RD., COMMERCE, CA 90040","HCD - SOUTHERN AREA OFFICE, 3737 MAIN ST 400, RIVERSIDE, CA 92501",0,77,18,"SERRA CANYON CO LTD, PO BOX 2485, MALIBU, CA 90265"
BERMUDA MOBILE HOME COMMUNITY,LOS ANGELES,19-1481-MP,"15445 BERMUDA ST,  MISSION HILLS,  CA 91345", MISSION HILLS,91345, (310) 456-6052,"HCD - SOUTHERN AREA OFFICE, 3737 MAIN ST 400, RIVERSIDE, CA 92501","HCD - SOUTHERN AREA OFFICE, 3737 MAIN ST 400, RIVERSIDE, CA 92501",194,0,0,"BERMUDA INVESTMENTS, 5030 NORTHRIDGE DR, SOMIS, CA 93066"
OAKRIDGE MOBILE HOME PARK,LOS ANGELES,19-1482-MP,"15455 GLENOAKS BLVD,  SYLMAR,  CA 91342", SYLMAR,91342, (818) 367-1128,"HCD - SOUTHERN AREA OFFICE, 3737 MAIN ST 400, RIVERSIDE, CA 92501","HCD - SOUTHERN AREA OFFICE, 3737 MAIN ST 400, RIVERSIDE, CA 92501",600,0,0,"OAKRIDGE LTD, C/O MANAGEMENT OFFICE 15455 GLENOAKS BLVD, SYLMAR, CA 91342"
FOOTHILL PALMS MHP,LOS ANGELES,19-1483-MP,"12001 FOOTHILL BLVD,  LAKE VIEW TERRACE,  CA 91342", LAKE VIEW TERRACE,91342, (714) 524-5051,"HCD - SOUTHERN AREA OFFICE, 3737 MAIN ST 400, RIVERSIDE, CA 92501","HCD - SOUTHERN AREA OFFICE, 3737 MAIN ST 400, RIVERSIDE, CA 92501",94,0,0,"KINOHA INC, C/O PATRICIA NISHIMURA 11519 PALA MESA DRIVE, NORTHRIDGE, CA 91326"
VILLA NOVA MOBILE ESTATES,LOS ANGELES,19-1487-MP,"8509 BEVERLY BLVD,  PICO RIVERA,  CA 90660", PICO RIVERA,90660, (562) 695-4221,"COUNTY OF LOS ANGELES, 5823 RICKENBACKER RD., COMMERCE, CA 90040","HCD - SOUTHERN AREA OFFICE, 3737 MAIN ST 400, RIVERSIDE, CA 92501",155,0,0,"SACCHI, ALBERT, 430 S. SAN DIMAS AVE., SAN DIMAS, CA 91773"
CHERRYFIELD VILLAGE MHP,LOS ANGELES,19-1488-MP,"16707 S GARFIELD,  PARAMOUNT,  CA 90723", PARAMOUNT,90723, (562) 408-0767,"COUNTY OF LOS ANGELES, 5823 RICKENBACKER RD., COMMERCE, CA 90040","HCD - SOUTHERN AREA OFFICE, 3737 MAIN ST 400, RIVERSIDE, CA 92501",119,0,0,"CHERRYFIELD VILLAGE LLC, PO BOX 15274, NEWPORT BEACH, CA 92659"
CRESTA MHP,LOS ANGELES,19-1492-MP,"2345 190TH ST,  REDONDO BEACH,  CA 90278", REDONDO BEACH,90278, (310) 408-0767,"HCD - SOUTHERN AREA OFFICE, 3737 MAIN ST 400, RIVERSIDE, CA 92501","CITY OF REDONDO BEACH CODE ENFORCEMENT, MOBILEHOME PARKS PROGRAM, 415 DIAMOND ST, REDONDO BEACH, CA 90277",80,10,0,"COOPER, IRVING, 3862 BALLINA CANYON RD, ENCINO, CA 91316"
OAK FOREST ESTATES ASSOC.,LOS ANGELES,19-1493-MP,"32100 TRIUNFO CANYON RD,  WESTLAKE VILLAGE,  CA 91361", WESTLAKE VILLAGE,91361, (818) 991-0311,"COUNTY OF LOS ANGELES, 5823 RICKENBACKER RD., COMMERCE, CA 90040","HCD - SOUTHERN AREA OFFICE, 3737 MAIN ST 400, RIVERSIDE, CA 92501",197,0,0,"OAK FOREST ESTATES ASSOCIATION, 14431 VENTURA BLVD #247, SHERMAN OAKS, CA 91423"
LOS OLIVOS,LOS ANGELES,19-1495-MP,"15831 OLDEN ST,  SYLMAR,  CA 91342", SYLMAR,91342, (808) 991-0311,"HCD - SOUTHERN AREA OFFICE, 3737 MAIN ST 400, RIVERSIDE, CA 92501","HCD - SOUTHERN AREA OFFICE, 3737 MAIN ST 400, RIVERSIDE, CA 92501",81,0,0,"DUNN CSI INC, 17547 VENTURA BLVD 304, ENCINO, CA 91316"
GREENBRIER MOBILE ESTATES WEST,LOS ANGELES,19-1498-MP,"21301 SOLEDAD CANYON RD,  SANTA CLARITA,  CA 91351", SANTA CLARITA,91351, (805) 255-6424,"COUNTY OF LOS ANGELES, 5823 RICKENBACKER RD., COMMERCE, CA 90040","HCD - SOUTHERN AREA OFFICE, 3737 MAIN ST 400, RIVERSIDE, CA 92501",151,0,0,"GREENBRIER ASSOCIATES LTD, 501 S BEVERLY DR SUITE # 100, BEVERLY HILLS, CA 90210"
KAYS TP,LOS ANGELES,19-1499-MP,"14903 GARFIELD AVE,  PARAMOUNT,  CA 90723", PARAMOUNT,90723, (805) 255-6424,"COUNTY OF LOS ANGELES, 5823 RICKENBACKER RD., COMMERCE, CA 90040","HCD - SOUTHERN AREA OFFICE, 3737 MAIN ST 400, RIVERSIDE, CA 92501",27,0,0,"PPS PC PARKS LLC, PO BOX 1687, BELLFLOWER, CA 90707"
LOS AMIGOS MOBILE PARK,LOS ANGELES,19-1500-MP,"8052 ALHAMBRA AVE,  PARAMOUNT,  CA 90723", PARAMOUNT,90723, (562) 633-3928,"COUNTY OF LOS ANGELES, 5823 RICKENBACKER RD., COMMERCE, CA 90040","HCD - SOUTHERN AREA OFFICE, 3737 MAIN ST 400, RIVERSIDE, CA 92501",68,0,0,"ECK, ELEANOR, 9955 BROOKSHIRE AVE, DOWNEY, CA 90240"
ORANGE AVE MHP,LOS ANGELES,19-1501-MP,"15325 ORANGE AVE OFFICE,  PARAMOUNT,  CA 90723", PARAMOUNT,90723, (310) 633-3928,"COUNTY OF LOS ANGELES, 5823 RICKENBACKER RD., COMMERCE, CA 90040","HCD - SOUTHERN AREA OFFICE, 3737 MAIN ST 400, RIVERSIDE, CA 92501",120,0,0,"ORANGE AVENUE MHP LLC, 2141 E. BROADWAY AVE #105, TEMPE, AZ 85282"
CARSON HARBOR VILLAGE,LOS ANGELES,19-1502-MP,"17701 S. AVALON BLVD.,  CARSON,  CA 90746", CARSON,90746, (310) 515-0651,"COUNTY OF LOS ANGELES, 5823 RICKENBACKER RD., COMMERCE, CA 90040","HCD - SOUTHERN AREA OFFICE, 3737 MAIN ST 400, RIVERSIDE, CA 92501",420,0,0,"GOLDSTEIN, JAMES, 430 S. SAN DIMAS AVE., SAN DIMAS, CA 91773"
CASTAIC LAKE RV PARK,LOS ANGELES,19-1503-MP,"31540 RIDGE ROUTE RD,  CASTAIC,  CA 91384", CASTAIC,91384, (661) 257-3340,"COUNTY OF LOS ANGELES, 5823 RICKENBACKER RD., COMMERCE, CA 90040","HCD - SOUTHERN AREA OFFICE, 3737 MAIN ST 400, RIVERSIDE, CA 92501",0,103,0,"WIDRIG, CLYDE, 720 AZURE HILLS DRIVE, SIMI VALLEY, CA 93065"
GREENBRIER MOBILE ESTATES EAST,LOS ANGELES,19-1505-MP,"21301 SOLEDAD CANYON RD,  SANTA CLARITA,  CA 91351", SANTA CLARITA,91351, (805) 255-6424,"COUNTY OF LOS ANGELES, 5823 RICKENBACKER RD., COMMERCE, CA 90040","HCD - SOUTHERN AREA OFFICE, 3737 MAIN ST 400, RIVERSIDE, CA 92501",167,0,0,"GREENBRIER ASSOCIATES LTD, 501 S BEVERLY DR SUITE # 100, BEVERLY HILLS, CA 90210"
WHITTIER DOWNS MHP,LOS ANGELES,19-1507-MP,"11730 E WHITTIER BLVD 77,  WHITTIER,  CA 90601", WHITTIER,90601, (310) 698-3333,"COUNTY OF LOS ANGELES, 5823 RICKENBACKER RD., COMMERCE, CA 90040","HCD - SOUTHERN AREA OFFICE, 3737 MAIN ST 400, RIVERSIDE, CA 92501",75,0,0,"WHITTIER DOWNS LLC, 14751 PLAZA DR SUITE K, TUSTIN, CA 92780"
RIO VISTA MOBILE ESTATES,LOS ANGELES,19-1512-MP,"4101 PARAMOUNT BLVD,  PICO RIVERA,  CA 90660", PICO RIVERA,90660, (562) 692-2728,"COUNTY OF LOS ANGELES, 5823 RICKENBACKER RD., COMMERCE, CA 90040","HCD - SOUTHERN AREA OFFICE, 3737 MAIN ST 400, RIVERSIDE, CA 92501",119,0,0,"CLIFFSIDE ENTERPRISES, C/O BESSIRE & CASSENHISER INC 430 S. SAN DIMAS AVE., SAN DIMAS, CA 91773"
PARK VISTA ESTATES,LOS ANGELES,19-1513-MP,"1601 S GAREY AVE,  POMONA,  CA 91766", POMONA,91766, (714) 447-3167,"COUNTY OF LOS ANGELES, 5823 RICKENBACKER RD., COMMERCE, CA 90040","HCD - SOUTHERN AREA OFFICE, 3737 MAIN ST 400, RIVERSIDE, CA 92501",158,0,0,"MOBILE MODULAR DEVELOPMENT INC, 824 S EUCLID ST, FULLERTON, CA 92832"
ORANGE GROVE TP,LOS ANGELES,19-1514-MP,"1550-1600 CELIS ST,  SAN FERNANDO,  CA 91340", SAN FERNANDO,91340, (818) 361-4344,"HCD - SOUTHERN AREA OFFICE, 3737 MAIN ST 400, RIVERSIDE, CA 92501","HCD - SOUTHERN AREA OFFICE, 3737 MAIN ST 400, RIVERSIDE, CA 92501",76,0,0,"CORDA, JOSEPH, PO BOX 2450, GILBERT, AZ 85299"
FOOTHILL MOBILEHOME PARK,LOS ANGELES,19-1515-MP,"402 E FOOTHILL BLVD,  POMONA,  CA 91767", POMONA,91767, (909) 621-0097,"COUNTY OF LOS ANGELES, 5823 RICKENBACKER RD., COMMERCE, CA 90040","HCD - SOUTHERN AREA OFFICE, 3737 MAIN ST 400, RIVERSIDE, CA 92501",73,0,0,"WHITTRAM VILLA INVESTMENT LLC, 2478 STEVENS AVE, ROSEMEAD, CA 91770"
MOUNTAIN VIEW VILLAGE,LOS ANGELES,19-1519-MP,"24303 WOOLSEY CANYON RD,  CANOGA PARK,  CA 91304", CANOGA PARK,91304, (818) 883-0614,"HCD - SOUTHERN AREA OFFICE, 3737 MAIN ST 400, RIVERSIDE, CA 92501","HCD - SOUTHERN AREA OFFICE, 3737 MAIN ST 400, RIVERSIDE, CA 92501",156,0,0,"MOUNTAIN VIEW VENTURE II LLC, 4350 E CAMELBACK RD SUITE # A 100, PHOENIX, AZ 85018"
SUMMIT MHP,LOS ANGELES,19-1520-MP,"24425 WOOLSEY CANYON RD,  WEST HILLS,  CA 91304", WEST HILLS,91304, (818) 340-7564,"HCD - SOUTHERN AREA OFFICE, 3737 MAIN ST 400, RIVERSIDE, CA 92501","HCD - SOUTHERN AREA OFFICE, 3737 MAIN ST 400, RIVERSIDE, CA 92501",203,0,0,"MILLER, PHILLIP, 22425 WOOLSBY CANYON ROAD, WEST HILLS, CA 91304"
WESTERN SKIES MHP,LOS ANGELES,19-1521-MP,"732 E ALOSTA AVE,  GLENDORA,  CA 91740", GLENDORA,91740,,"COUNTY OF LOS ANGELES, 5823 RICKENBACKER RD., COMMERCE, CA 90040","HCD - SOUTHERN AREA OFFICE, 3737 MAIN ST 400, RIVERSIDE, CA 92501",29,0,0,"WESTERN SKIES MANUFACTURED HOUSING COMMUNITY, 6653 EMBACADERO DR SUITE # C, STOCKTON, CA 95219"
DEL AMO MH ESTATES,LOS ANGELES,19-1522-MP,"2601 E VICTORIA,  COMPTON,  CA 90220", COMPTON,90220, (818) 963-2982,"COUNTY OF LOS ANGELES, 5823 RICKENBACKER RD., COMMERCE, CA 90040","HCD - SOUTHERN AREA OFFICE, 3737 MAIN ST 400, RIVERSIDE, CA 92501",512,0,0,"DEL AMO, MERTZ, 3424 W CARSON ST SUITE # 650, TORRANCE, CA 90503"
MAGNOLIA MHP,LOS ANGELES,19-1524-MP,"422 W ROUTE 66,  GLENDORA,  CA 91740", GLENDORA,91740, (818) 335-7890,"COUNTY OF LOS ANGELES, 5823 RICKENBACKER RD., COMMERCE, CA 90040","HCD - SOUTHERN AREA OFFICE, 3737 MAIN ST 400, RIVERSIDE, CA 92501",47,0,0,"WEST ALOSTA PROPERTIES, C/O STEVE PATTI 422 W ROUTE 66, GLENDORA, CA 91740"
ALOSTA MOBILEHOME PARK,LOS ANGELES,19-1525-MP,"826 E ROUTE  66,  GLENDORA,  CA 91740", GLENDORA,91740, (626) 335-6262,"COUNTY OF LOS ANGELES, 5823 RICKENBACKER RD., COMMERCE, CA 90040","HCD - SOUTHERN AREA OFFICE, 3737 MAIN ST 400, RIVERSIDE, CA 92501",40,0,0,"ALOSTA MOBILEHOME PARK, 826 E ROUTE 66 OFFICE, GLENDORA, CA 91740"
PARK MANOR MOBILE ESTATES,LOS ANGELES,19-1527-MP,"423 W ROUTE 66,  GLENDORA,  CA 91740", GLENDORA,91740, (626) 331-2717,"COUNTY OF LOS ANGELES, 5823 RICKENBACKER RD., COMMERCE, CA 90040","HCD - SOUTHERN AREA OFFICE, 3737 MAIN ST 400, RIVERSIDE, CA 92501",52,0,0,"JDH CAPITAL LLC, 22231 MULHOLLAND HWY #101, CALABASAS, CA 91302"
JOYS MHP LLC,LOS ANGELES,19-1528-MP,"337 W ROUTE 66,  GLENDORA,  CA 91740", GLENDORA,91740, (626) 335-1793,"COUNTY OF LOS ANGELES, 5823 RICKENBACKER RD., COMMERCE, CA 90040","HCD - SOUTHERN AREA OFFICE, 3737 MAIN ST 400, RIVERSIDE, CA 92501",68,0,0,"JOY'S MHP LLC, 22880 SAVI RANCH PARKWAY, YORBA LINDA, CA 92887"
BONITA MHP,LOS ANGELES,19-1529-MP,"925 W BONITA,  GLENDORA,  CA 91740", GLENDORA,91740, (310) 592-3192,"COUNTY OF LOS ANGELES, 5823 RICKENBACKER RD., COMMERCE, CA 90040","HCD - SOUTHERN AREA OFFICE, 3737 MAIN ST 400, RIVERSIDE, CA 92501",80,0,0,"BONITA MOBILE ESTATES, 22880 SAVI RANCH PARKWAY, YORBA LINDA, CA 92887"
TROPICS MOBILE PARK,LOS ANGELES,19-1530-MP,"428 E ALOSTA AVE,  GLENDORA,  CA 91740", GLENDORA,91740, (626) 241-7654,"COUNTY OF LOS ANGELES, 5823 RICKENBACKER RD., COMMERCE, CA 90040","HCD - SOUTHERN AREA OFFICE, 3737 MAIN ST 400, RIVERSIDE, CA 92501",0,29,0,"BROWNSTEIN, PETER, PO BOX 266, TEMPLE CITY, CA 91780"
WESTLAND ESTATES,LOS ANGELES,19-1531-MP,"4139 PARAMOUNT BLVD,  PICO RIVERA,  CA 90660", PICO RIVERA,90660, (310) 592-3192,"COUNTY OF LOS ANGELES, 5823 RICKENBACKER RD., COMMERCE, CA 90040","HCD - SOUTHERN AREA OFFICE, 3737 MAIN ST 400, RIVERSIDE, CA 92501",67,0,0,"ALEVY PICO RIVERA MHP LLC, 520 W WILLOW ST, LONG BEACH, CA 90806"
WALNUT CREEK MOBILE HOME PARK,LOS ANGELES,19-1532-MP,"20739 LYCOMING ST,  DIAMOND BAR,  CA 91789", DIAMOND BAR,91789, (909) 595-2753,"COUNTY OF LOS ANGELES, 5823 RICKENBACKER RD., COMMERCE, CA 90040","HCD - SOUTHERN AREA OFFICE, 3737 MAIN ST 400, RIVERSIDE, CA 92501",147,0,0,"WALNUT CREEK MOBILE HOME PARK LLC, 11150 SANTA MONICA BLVD STE 600, LOS ANGELES, CA 90025"
DIAMOND BAR ESTATES,LOS ANGELES,19-1533-MP,"21217 E WASHINGTON,  WALNUT,  CA 91789", WALNUT,91789, (909) 594-6281,"COUNTY OF LOS ANGELES, 5823 RICKENBACKER RD., COMMERCE, CA 90040","HCD - SOUTHERN AREA OFFICE, 3737 MAIN ST 400, RIVERSIDE, CA 92501",133,0,0,"DIAMOND BAR ESTATES, PO BOX 11927, SANTA ANA, CA 92711"
MOUNTAIN VIEW ESTATES,LOS ANGELES,19-1538-MP,"2131 W SAN BERNARDINO RD,  WEST COVINA,  CA 91790", WEST COVINA,91790, (626) 962-4707,"HCD - SOUTHERN AREA OFFICE, 3737 MAIN ST 400, RIVERSIDE, CA 92501","HCD - SOUTHERN AREA OFFICE, 3737 MAIN ST 400, RIVERSIDE, CA 92501",108,0,0,"HOMETOWN AMERICA MANAGEMENT LP, 150 N WACKER, CHICAGO, IL 60606"
HACIENDA MOBILE ESTATES,LOS ANGELES,19-1539-MP,"2330 E AVE J8 CLUBHOUSE,  LANCASTER,  CA 93535", LANCASTER,93535, (661) 945-1597,"COUNTY OF LOS ANGELES, 5823 RICKENBACKER RD., COMMERCE, CA 90040","HOUSING AND NEIGHBORHOOD REVITALIZATION, MOBILEHOME PARKS PROGRAM, 44933 NORTH FERN AVENUE, LANCASTER, CA 93534",264,0,0,"CARITAS CORP, 28441 RANCHO CALIFORNIA ROAD SUITE # 203, TEMECULA, CA 92590"
BEL AIR ESTATES,LOS ANGELES,19-1540-MP,"2121 EAST AVE I,  LANCASTER,  CA 93535", LANCASTER,93535, (562) 695-7700,"COUNTY OF LOS ANGELES, 5823 RICKENBACKER RD., COMMERCE, CA 90040","HOUSING AND NEIGHBORHOOD REVITALIZATION, MOBILEHOME PARKS PROGRAM, 44933 NORTH FERN AVENUE, LANCASTER, CA 93534",130,0,0,"BEL AIR INVESTORS LP, 19311 VANOWEN ST, RESEDA, CA 91335"
DOMINGUEZ HILLS ESTATES,LOS ANGELES,19-1543-MP,"19009 LAUREL PARK RD,  COMPTON,  CA 90220", COMPTON,90220, (310) 638-0392,"HCD - SOUTHERN AREA OFFICE, 3737 MAIN ST 400, RIVERSIDE, CA 92501","HCD - SOUTHERN AREA OFFICE, 3737 MAIN ST 400, RIVERSIDE, CA 92501",525,0,0,"W.C. MERTZ, 3424 CARSON ST SUITE # 280, TORRANCE, CA 90503"
LAKEHILLS ESTATES,LOS ANGELES,19-1544-MP,"27700 PARKER RD,  CASTAIC,  CA 91384", CASTAIC,91384, (661) 310-1455,"COUNTY OF LOS ANGELES, 5823 RICKENBACKER RD., COMMERCE, CA 90040","HCD - SOUTHERN AREA OFFICE, 3737 MAIN ST 400, RIVERSIDE, CA 92501",115,0,0,"HOMETOWN AMERICA MANAGEMENT LP, 150 N WACKER, CHICAGO, IL 60606"
YOUTH WITH A MISSION,LOS ANGELES,19-1545-MP,"11141 OSBORNE ST,  KAGEL CANYON,  CA 91342", KAGEL CANYON,91342, (818) 896-2755,"HCD - SOUTHERN AREA OFFICE, 3737 MAIN ST 400, RIVERSIDE, CA 92501","HCD - SOUTHERN AREA OFFICE, 3737 MAIN ST 400, RIVERSIDE, CA 92501",17,0,0,"YOUTH WITH A MISSION, 11141 OSBORNE ST, LAKE VIEW TERRACE, CA 91342"
SOLEDAD CANYON,LOS ANGELES,19-1546-MP,"4700 CROWN VALLEY RD,  ACTON,  CA 93510", ACTON,93510, (661) 269-1740,"COUNTY OF LOS ANGELES, 5823 RICKENBACKER RD., COMMERCE, CA 90040","HCD - SOUTHERN AREA OFFICE, 3737 MAIN ST 400, RIVERSIDE, CA 92501",0,641,385,"MHC TT,INC. ABA SOLEDAD CANYON, PO BOX 8000, MONSEY, NY 10952"
BARNHOUSE TRAILER COURT,LOS ANGELES,19-1547-MP,"2731 MOUNTAIN VIEW RD,  EL MONTE,  CA 91731", EL MONTE,91731, (805) 269-1740,"COUNTY OF LOS ANGELES, 5823 RICKENBACKER RD., COMMERCE, CA 90040","HCD - SOUTHERN AREA OFFICE, 3737 MAIN ST 400, RIVERSIDE, CA 92501",7,0,0,"TAN, ZAKA, PO BOX 5722, HACIENDA HEIGHTS, CA 91745"
LAKE ELIZABETH GOLF & RV RANCH,LOS ANGELES,19-1549-MP,"42505 RANCH CLUB RD,  LAKE ELIZABETH,  CA 93532", LAKE ELIZABETH,93532, (661) 724-1304,"COUNTY OF LOS ANGELES, 5823 RICKENBACKER RD., COMMERCE, CA 90040","HCD - SOUTHERN AREA OFFICE, 3737 MAIN ST 400, RIVERSIDE, CA 92501",0,113,0,"LAKE ELIZABETH GOLF & RV RANCH LLC, 15012 DELANO STREET, VAN NUYS, CA 91411"
BOULDERS AT THE RANCH I,LOS ANGELES,19-1550-MP,"40701 RANCHO VISTA BLVD,  PALMDALE,  CA 93551", PALMDALE,93551, (661) 943-2553,"COUNTY OF LOS ANGELES, 5823 RICKENBACKER RD., COMMERCE, CA 90040","HCD - SOUTHERN AREA OFFICE, 3737 MAIN ST 400, RIVERSIDE, CA 92501",358,0,0,"CITY OF PALMDALE HOUSING AUTHORITY, 40701 RANCHO VISTA BLVD. OFFICE, PALMDALE, CA 93551"
CHAPPARRAL MOBILE ESTATES,LOS ANGELES,19-1553-MP,"1501 E AVE I,  LANCASTER,  CA 93535", LANCASTER,93535, (805) 948-0666,"COUNTY OF LOS ANGELES, 5823 RICKENBACKER RD., COMMERCE, CA 90040","HOUSING AND NEIGHBORHOOD REVITALIZATION, MOBILEHOME PARKS PROGRAM, 44933 NORTH FERN AVENUE, LANCASTER, CA 93534",94,0,0,"CHAPPARRAL MOBILE ESTATES,LLC, 250 W FIRST ST #205, CLAREMONT, CA 91711"
SANTIAGO ESTATES,LOS ANGELES,19-1556-MP,"13691 GAVINA AVE,  SYLMAR,  CA 91342", SYLMAR,91342, (818) 364-2776,"HCD - SOUTHERN AREA OFFICE, 3737 MAIN ST 400, RIVERSIDE, CA 92501","HCD - SOUTHERN AREA OFFICE, 3737 MAIN ST 400, RIVERSIDE, CA 92501",303,0,0,"MHC SANTIAGO ESTATES LIMITED PARTNERSHIP, PO BOX 8000, MONSEY, NY 10952"
BOULDERS AT THE LAKE,LOS ANGELES,19-1557-MP,"1030 EAST AVENUE S,  PALMDALE,  CA 93550", PALMDALE,93550, (661) 273-8154,"COUNTY OF LOS ANGELES, 5823 RICKENBACKER RD., COMMERCE, CA 90040","HCD - SOUTHERN AREA OFFICE, 3737 MAIN ST 400, RIVERSIDE, CA 92501",223,0,0,"CITY OF PALMDALE HOUSING AUTHORITY, 1030 EATS AVENUE S, PALMDALE, CA 93550"
LIDO ESTATES,LOS ANGELES,19-1558-MP,"2545 E AVE I,  LANCASTER,  CA 93535", LANCASTER,93535, (916) 772-4918,"COUNTY OF LOS ANGELES, 5823 RICKENBACKER RD., COMMERCE, CA 90040","HOUSING AND NEIGHBORHOOD REVITALIZATION, MOBILEHOME PARKS PROGRAM, 44933 NORTH FERN AVENUE, LANCASTER, CA 93534",121,0,0,"LIDO ESTATES MHC, LLC, 500 GIUSEPPPE COURT SUITE # 2, ROSEVILLE, CA 95678"
THE CALIFORNIAN RV RESORT,LOS ANGELES,19-1560-MP,"1535 SIERRA HWY,  ACTON,  CA 93510", ACTON,93510, (661) 269-0919,"COUNTY OF LOS ANGELES, 5823 RICKENBACKER RD., COMMERCE, CA 90040","HCD - SOUTHERN AREA OFFICE, 3737 MAIN ST 400, RIVERSIDE, CA 92501",0,193,0,"THE CALIFORNIA RV RESORT LLC, 2801 UNIVERSITY DR #306, CORAL SPRINGS, FL 33065"
LANCASTER ESTATES,LOS ANGELES,19-1561-MP,"45465 25TH ST EAST,  LANCASTER,  CA 93535", LANCASTER,93535, (805) 273-8154,"COUNTY OF LOS ANGELES, 5823 RICKENBACKER RD., COMMERCE, CA 90040","HOUSING AND NEIGHBORHOOD REVITALIZATION, MOBILEHOME PARKS PROGRAM, 44933 NORTH FERN AVENUE, LANCASTER, CA 93534",302,0,0,"LANCASTER MOBILE ESTATES MOBILE HOME PARK LP, 1070 NEPTUNE AVE, ENCINITAS, CA 92024"
BOULDERS AT THE RANCH II,LOS ANGELES,19-1563-MP,"5200 ENTRAR DR,  PALMDALE,  CA 93551", PALMDALE,93551, (661) 943-2409,"COUNTY OF LOS ANGELES, 5823 RICKENBACKER RD., COMMERCE, CA 90040","HCD - SOUTHERN AREA OFFICE, 3737 MAIN ST 400, RIVERSIDE, CA 92501",206,0,0,"CITY OF PALMDALE HOUSING AUTHORITY, 1030 EATS AVENUE S, PALMDALE, CA 93550"
CARAVAN MOBILE HOME PARK,LOS ANGELES,19-1564-MP,"600 W GLADSTONE ST,  AZUSA,  CA 91702", AZUSA,91702, (818) 334-2306,"COUNTY OF LOS ANGELES, 5823 RICKENBACKER RD., COMMERCE, CA 90040","HCD - SOUTHERN AREA OFFICE, 3737 MAIN ST 400, RIVERSIDE, CA 92501",107,13,0,"KENDALL AZUSA COMMUNITIES LLC, 17300 RED HILL AVE SUITE 208, IRVINE, CA 92614"
CANYON VIEW ESTATES,LOS ANGELES,19-1566-MP,"20001 CANYON VIEW DR,  SANTA CLARITA,  CA 91351", SANTA CLARITA,91351, (661) 252-0991,"COUNTY OF LOS ANGELES, 5823 RICKENBACKER RD., COMMERCE, CA 90040","HCD - SOUTHERN AREA OFFICE, 3737 MAIN ST 400, RIVERSIDE, CA 92501",460,0,0,"CANYON VIEW LIMITED, 20001 CANYON VIEW DR, CANYON COUNTRY, CA 91351"
STALLION MEADOWS,LOS ANGELES,19-1568-MP,"33105 SANTIAGO RD,  ACTON,  CA 93510", ACTON,93510, (805) 269-1182,"COUNTY OF LOS ANGELES, 5823 RICKENBACKER RD., COMMERCE, CA 90040","HCD - SOUTHERN AREA OFFICE, 3737 MAIN ST 400, RIVERSIDE, CA 92501",154,0,0,"STALLION MEADOWS HOA, 33105 SANTIAGO RD, ACTON, CA 93510"
LACO MHP,LOS ANGELES,19-1572-MP,"22325 S MAIN ST,  CARSON,  CA 90745", CARSON,90745, (818) 285-9823,"COUNTY OF LOS ANGELES, 5823 RICKENBACKER RD., COMMERCE, CA 90040","HCD - SOUTHERN AREA OFFICE, 3737 MAIN ST 400, RIVERSIDE, CA 92501",94,0,0,"CARSON MHP ASSOCIATES LP, 320 N PARK VISTA ST, ANAHEIM, CA 92806"
VILLAGE MHP,LOS ANGELES,19-1574-MP,"17100 S GRAMERCY PL,  GARDENA,  CA 90247", GARDENA,90247, (310) 329-0115,"COUNTY OF LOS ANGELES, 5823 RICKENBACKER RD., COMMERCE, CA 90040","HCD - SOUTHERN AREA OFFICE, 3737 MAIN ST 400, RIVERSIDE, CA 92501",50,0,0,"GARDENA NONPROFIT HOMES INC, C/O LES FRAME ENTERPRISES INC 1635 AVIATION BLVD, REDONDO BEACH, CA 90278"
WALNUT PARK,LOS ANGELES,19-1575-MP,"19130 NORDHOFF ST,  NORTHRIDGE,  CA 91324", NORTHRIDGE,91324, (562) 434-9195,"HCD - SOUTHERN AREA OFFICE, 3737 MAIN ST 400, RIVERSIDE, CA 92501","HCD - SOUTHERN AREA OFFICE, 3737 MAIN ST 400, RIVERSIDE, CA 92501",0,114,0,"WILLIAMS, CAROL, 444 WEST OCEAN BLVD SUITE # 800, LONG BEACH, CA 90802"
DELSUR GARDENS TP,LOS ANGELES,19-1576-MP,"9020 W AVE J,  LANCASTER,  CA 93536", LANCASTER,93536, (805) 943-5434,"COUNTY OF LOS ANGELES, 5823 RICKENBACKER RD., COMMERCE, CA 90040","HCD - SOUTHERN AREA OFFICE, 3737 MAIN ST 400, RIVERSIDE, CA 92501",0,42,0,"LEE, YANG, PO BOX 74771, LOS ANGELES, CA 90004"
GOLDEN SHORE RV PARK,LOS ANGELES,19-1578-MP,"101 GOLDEN SHORE,  LONG BEACH,  CA 90802", LONG BEACH,90802,,"HCD - SOUTHERN AREA OFFICE, 3737 MAIN ST 400, RIVERSIDE, CA 92501","HCD - SOUTHERN AREA OFFICE, 3737 MAIN ST 400, RIVERSIDE, CA 92501",0,77,0,"WASSIK, KIM, 101 GOLDEN SHORE, LONG BEACH, CA 90802"
